{"type": "FeatureCollection", "features": [{"type": "Feature", "properties": {"identifier": "209ab851-4883-4174-95d1-e4c93dcf82e3", "name": "Churfirstensaal", "image": "https://tgtpimtsoch.sos-ch-dk-2.exoscale-cdn.com/catalog/4/f/d/7/4fd7eaf5fdfeff70d037fe1e9771877ee9ea1f2e_Unterwasser_Hotel_Sternen_Seminar_web__2.jpg"}}, {"type": "Feature", "properties": {"identifier": "3601411b-91ea-435a-b762-0da5ff180acf", "name": "Munot Saal"}}, {"type": "Feature", "properties": {"identifier": "447ec572-5161-4857-b968-206be8e45859", "name": "L\u00fctispitzsaal", "image": "https://tgtpimtsoch.sos-ch-dk-2.exoscale-cdn.com/catalog/4/8/1/d/481d024e95203b8bb4409c3c4b7181921a5d3dd4_Unterwasser_Hotel_Sternen_Bankett_web__4.jpg"}}, {"type": "Feature", "properties": {"identifier": "566a9036-6e06-44d4-b243-91a8760a3495", "name": "Restaurant Kronenhof"}}, {"type": "Feature", "properties": {"identifier": "578bea0d-e39d-4cff-85da-0f2e900fb68a", "name": "Test Tagungsraum von 08.08.22", "image": "https://tgtpimtsoch.sos-ch-dk-2.exoscale-cdn.com/catalog/4/6/5/5/4655f98e23da7cd63974b6174dbe456ee9d485fb_testbild__2.jpeg"}}, {"type": "Feature", "properties": {"identifier": "65144a9e-116c-43ac-8cf4-c963fc07d2d7", "name": "Test Tagungsraum von 08.08.22", "image": "https://tgtpimtsoch.sos-ch-dk-2.exoscale-cdn.com/catalog/b/2/e/d/b2ed5861470ebe0bf2d2fbc4e885592cd2ac9ee5_testbild__3.jpeg"}}, {"type": "Feature", "properties": {"identifier": "9ac2c11e-14e1-46ee-8168-fbde7d3537e3", "name": "Grosser Saal "}}, {"type": "Feature", "properties": {"identifier": "9e9a009d-79cf-46ab-98e9-c44deb29c38e", "name": "Schweizerische Schifffahrtsgesellschaft Untersee und Rhein URh, Schaffhausen"}}, {"type": "Feature", "properties": {"identifier": "a45933fc-058a-4d89-b97d-8834687c4bae", "name": "Blitterswiler"}}, {"type": "Feature", "properties": {"identifier": "b2e3646f-d200-4eec-82ae-a24a26a4c7b0", "name": "AuPremier"}}, {"type": "Feature", "properties": {"identifier": "c3a12acb-e5ea-4f73-a7e1-95926bf93b32", "name": "Schlafstrandkorb Rosengarten am Untersee", "description": "Der Schlafplatz liegt in einem Privatgarten umgeben von Rosen und Reben  in erh\u00f6hter Lage ausserhalb von Mammern. Der Schlafstrandkorb steht auf einem nicht einsehbaren gesch\u00fctzten Platz. Er verf\u00fcgt \u00fcber eine warme, bequeme Liegefl\u00e4che von 140 cm x 220 cm und l\u00e4sst sich bei Bedarf variabel schliessen. Decken und Kissen sind selbstverst\u00e4ndlich inbegriffen. Die Abdeckung ist regendicht. Alternative bei pl\u00f6tzlichem heftigem Wetterumschlag ist das G\u00e4stezimmer im Haus. Ein kleiner privater Sitzbereich steht jederzeit zur Verf\u00fcgung. Direkt neben dem Strandkorb befindet sich eine Warmwasser-Outdoordusche sowie eine Toilette mit Wassersp\u00fclung. Ein reichhaltiges Fr\u00fchst\u00fcck ist inbegriffen. Das Abendessen ist individuell zubuchbar. Auf Wunsch ist ein kurzer gef\u00fchrter Rundgang durch die Rosen- und den Gem\u00fcseg\u00e4rten m\u00f6glich. Ansonsten Seele baumeln lassen und die gesamte Gartenanlage geniessen. Von Mai bis September buchbar.", "url": "https://www.bb-rosengarten-am-untersee.ch", "image": "https://tgtpimtsoch.sos-ch-dk-2.exoscale-cdn.com/catalog/8/a/9/5/8a9554729543a88a6c948047b12d5bbd2ba1ebe3_medium__Mammern_Schlafstrandkorb_Himmelbett_5.jpg", "openstreetmap_id": "node/12304118614"}, "geometry": {"type": "Point", "coordinates": ["8.9294063", "47.6474166"]}}]}