{"type": "FeatureCollection", "features": [{"type": "Feature", "properties": {"identifier": "d18df4d2-12b1-46b5-a8dc-adaff3a7a6b7", "name": "Tourismus-Region Diessenhofen: Reich an Kultur und Natur", "description": "Das St\u00e4dtchen Diessenhofen l\u00e4dt mit seiner pittoresken Lage am Rhein und seiner historischen Altstadt mit zahlreichen Baudenkm\u00e4lern zum Flanieren und Verweilen ein. Das gastronomische Angebot reicht vom einfachen Imbiss bis zur gehobenen K\u00fcche des Unterhofs. Die Umgebung eignet sich f\u00fcr ausgedehnte Wanderungen und Fahrradtouren entlang des Rheins. Wer es gem\u00fctlicher mag, erkundet die Flusslandschaft per Kursschiff oder geniesst ein (Sonnen-)Bad in der Rhybadi Rodenbrunnen. Eine besondere Attraktion des s\u00fcssen St\u00e4dtchens ist die 200-j\u00e4hrige gedeckte Holzbr\u00fccke \u00fcber den Rhein, welche Diessenhofen mit seiner deutschen Nachbargemeinde Gailingen verbindet. In Diessenhofen gibt es mehrere kulturhistorische Sammlungen, wie etwa im Museum kunst + wissen, wo es eine Dauerausstellung zur einst hier angesiedelten Rotf\u00e4rberei und Stoffdruckerei gibt. Ein wenig ausserhalb des St\u00e4dtchens befindet sich das ehemalige Dominikanerinnenkloster St. Katharinental. Die Klosterkirche gilt als eine der sch\u00f6nsten Raumsch\u00f6pfungen des sp\u00e4ten Barocks in der Schweiz. \n\nSowohl die Altstadt- als auch die verschiedenen Themenf\u00fchrungen bieten spannende Einblicke in die lokale Geschichte und nebenbei zahlreiche bezaubernde Fotosujets. Mit einem Stadtrundgang begibt man sich auf eine informative Entdeckungsreise durch das Kyburger-St\u00e4dtchen und lernt den historischen Stadtkern mit seinen imposanten Altstadth\u00e4usern, Brunnen und Gassen kennen. Zudem zeigt sich der Rhein hier in Diessenhofen von seiner romantischen Seite.", "url": "http://www.diessenhofen.ch/tourismus", "image": "https://tgtpimtsoch.sos-ch-dk-2.exoscale-cdn.com/catalog/7/5/6/2/75626c7df8f91ab73956349f502b2c23555b1f03_URh_Schiff__2.jpg", "openstreetmap_id": "way/282313796"}, "geometry": {"type": "Point", "coordinates": ["8.75308798871841", "47.6898564"]}}]}