{"type": "FeatureCollection", "features": [{"type": "Feature", "properties": {"identifier": "05399507-382d-420b-a794-fbd6130ec467", "name": "Theaterhaus Thurgau", "description": "<p>Das Theaterhaus Thurgau bietet ein vielf&auml;ltiges Programm mit einem Schwerpunkt auf Theaterangeboten f&uuml;r Kinder und Jugendliche. Neben den Eigenproduktionen der b&uuml;hni wyfelde und des theagovia theaters organisiert das Theater Bilitz spannende Veranstaltungsreihen und Kurse. F&uuml;r Erwachsene gibt es regelm&auml;ssig Gastspiele, die vom Kulturverein Frohsinn pr&auml;sentiert werden. Das Gesamtprogramm erscheint drei- bis viermal j&auml;hrlich und ist auf der Webseite des Theaterhauses abrufbar. Dar&uuml;ber hinaus kann das Theaterhaus f&uuml;r verschiedene Anl&auml;sse gemietet werden. Zur Verf&uuml;gung stehen ein Theatersaal mit B&uuml;hne und Trib&uuml;ne, ein Proberaum sowie ein Foyer mit Bar.</p>", "url": "http://www.theaterhausthurgau.ch", "image": "https://tgtpimtsoch.sos-ch-dk-2.exoscale-cdn.com/catalog/7/b/4/c/7b4cd339d87668f119fded1ae613059bf4fc5e5f_THT_M_01_Kopie.jpg", "openstreetmap_id": "node/894577974"}, "geometry": {"type": "Point", "coordinates": ["9.1034238", "47.5676321"]}}, {"type": "Feature", "properties": {"identifier": "06285842-b429-471c-87a4-bfb929442687", "name": "Badi Mannenbach", "description": "<p>Direkt am Ufer des Untersees gelegen, bietet die Badi einen attraktiven Badeplatz. Die gepflegte Anlage verf&uuml;gt &uuml;ber eine Liegewiese, einen direkten Zugang zum Bodensee sowie eine Badeinsel im Wasser. Die naturnahe Umgebung und die ruhige Lage am See sorgen f&uuml;r ein erholsames Ambiente.</p><p>Zur Infrastruktur geh&ouml;ren eine Umkleidekabine, eine Dusche, ein Kinderspielplatz sowie eine Grillstelle. Die Kombination aus Badeplatz, Familienfreundlichkeit und unmittelbarer Seen&auml;he macht die Anlage zu einem beliebten Ausflugsziel am Untersee. Die Aussicht auf die Wasserlandschaft und die entspannte Atmosph&auml;re unterstreichen den besonderen Charakter dieses Ortes. Die Badi Mannenbach verbindet Erholung, Naturerlebnis und Badevergn&uuml;gen am Bodensee und ist ein attraktiver Treffpunkt f&uuml;r Einheimische und G&auml;ste.</p>", "image": "https://tgtpimtsoch.sos-ch-dk-2.exoscale-cdn.com/catalog/6/5/c/8/65c8aa6936b9f0e2dbf5dc4506a307e49ea2320b_small__Mannenbach_Badi_Grillstelle.jpg", "openstreetmap_id": "node/6031835223"}, "geometry": {"type": "Point", "coordinates": ["9.047976136207582", "47.67343948361242"]}}, {"type": "Feature", "properties": {"identifier": "0d855a21-1310-4ba2-b64e-794bcb63b423", "name": "autobau erlebniswelt", "description": "Keine zehn Gehminuten vom Bahnhof Romanshorn entfernt entf\u00fchrt die Autobau Erlebniswelt in das Reich des Automobil-Rennsports. Denkmalgesch\u00fctzte Hallen und der riesige Stahltank eines ehemaligen Tanklagers beherbergen eine imposante Autosammlung. 120 Fahrzeuge d\u00fcrfen im wahrsten Sinne des Wortes hautnah erlebt werden. Praktisch ohne Absperrung bewegen sich Besuchende im Museum frei zwischen den Autos und blicken in die F\u00fchrerkabinen von waschechten Rennautos \u2013 sogar aus der Formel 1. Namen wie Aston Martin, Bugatti, Ferrari, Lamborghini, Maserati, Mercedes oder Porsche sind hier vertreten und lassen die Herzen von Autobegeisterten h\u00f6herschlagen. Namen wie Aston Martin, Ferrari, Lamborghini, Maserati, Mercedes oder Porsche sind hier vertreten und lassen die Herzen von Autobegeisterten h\u00f6herschlagen. \n\nNicht nur Museum, sondern auch Eventlocation am Bodensee ist die Autobau Erlebniswelt und begeistert mit Anl\u00e4ssen, Tagungen oder Feiern im besonderen Industrieambiente. ", "url": "http://www.autobau.ch/", "image": "https://tgtpimtsoch.sos-ch-dk-2.exoscale-cdn.com/catalog/0/5/f/8/05f89f103c345cc638251616bacfab68f1877c7c_rsf_autobau_ausstellung_05_Kopie.jpg", "openstreetmap_id": "4490051106.0"}, "geometry": {"type": "Point", "coordinates": ["9.3761945", "47.5575714"]}}, {"type": "Feature", "properties": {"identifier": "23d6a2bd-f72d-4879-b8e6-081502c8af43", "name": "Erlebniszentrum Echinapoint", "description": "Das Erlebniszentrum Echinapoint in Roggwil ist das Sprachrohr der A.Vogel AG in Roggwil, traditionsreiche Herstellerin von biologischen Naturheilmitteln. Hier wird die Geschichte der Naturheilkunde erlebbar. In dem, wie eine Blume angelegten Kr\u00e4utergarten, erkunden Besuchende mit allen Sinnen die Herstellung und Wirkungsweise von pflanzlichen Arzneimitteln sowie das Leben und Werk des Naturheilkunde-Pioniers Alfred Vogel. G\u00e4ste erfahren, wie die pers\u00f6nliche Gesundheit auf nat\u00fcrliche Weise erhalten werden kann oder wie eine gesunde vollwertige Ern\u00e4hrung aussieht. Der Name EchinaPoint r\u00fchrt \u00fcbrigens von Alfred Vogels Lieblingspflanze Echinacea, dem roten Sonnenhut. In den 1950er Jahren brachte er diese Pflanze von einer Amerikareise mit in die Schweiz. Bis heute wird Echinacea unter anderem zur St\u00e4rkung der Abwehrkr\u00e4fte verwendet. Das Erlebniszentrum ist t\u00e4glich ge\u00f6ffnet, der Eintritt ist frei. Auf Voranmeldung werden Gruppenf\u00fchrungen angeboten.", "url": "https://www.avogel.ch/de/garten/roggwil/", "image": "https://tgtpimtsoch.sos-ch-dk-2.exoscale-cdn.com/catalog/4/8/8/c/488ca57ae1ceb8fd28dbf02f263589afc158025e_Roggwil_Bioforce_Heilpflanzenwelt_5.jpg", "openstreetmap_id": "298482617.0"}, "geometry": {"type": "Point", "coordinates": ["9.4043759", "47.503364"]}}, {"type": "Feature", "properties": {"identifier": "26260d8a-1230-424d-af90-c050346c16e0", "name": "Erlebnisflugplatz Sitterdorf", "description": "<p data-start=\"98\" data-end=\"625\">Der Erlebnisflugplatz Sitterdorf ist weit mehr als ein Flugplatz. Auf dem Gel&auml;nde befinden sich ein Tierpark mit Pfaue, Rehen, Hirschen, Ziegen und Papageien sowie ein Freizeitareal mit vielf&auml;ltigen Spielm&ouml;glichkeiten. Spielger&auml;te, Seilbahnen, Modellschiffe oder Electric Carts bieten Spass auf dem Wasser oder an Land &ndash; teilweise mit Muskelkraft, teilweise per Knopfdruck. Das Erlebnisz&uuml;gli f&auml;hrt Familien durch den &uuml;berschaubaren Park. F&uuml;r die Verpflegung sorgt das Restaurant Airfood mit bodenst&auml;ndigen Klassikern und mediterranem Touch &ndash; vom Mittagessen bis zum Dessert. Wer es unkompliziert mag, findet Snacks am Bahnhofskiosk. Der Blick auf die Start- und Landebahn geh&ouml;rt dazu: Kleinflugzeuge k&ouml;nnen aus n&auml;chster N&auml;he beobachtet werden &ndash; ein Erlebnis f&uuml;r Gross und Klein.</p>", "url": "https://www.erlebnisflugplatz.ch/default.shtml", "image": "https://tgtpimtsoch.sos-ch-dk-2.exoscale-cdn.com/catalog/c/0/8/8/c088ae711818d679785f7c82dfcf36a477637cb3_Flyer_Titelseite_verkleinert.png", "openstreetmap_id": "216851652.0"}, "geometry": {"type": "Point", "coordinates": ["9.2603052", "47.5097176"]}}, {"type": "Feature", "properties": {"identifier": "2789854f-9fdc-4438-97b7-bce1065d9028", "name": "Vinorama Museum Ermatingen", "description": "<p>Das Wohnmuseum im historischen Haus Ph&ouml;nix entf&uuml;hrt in die Lebenswelt einer Arztfamilie um 1900. Im zweiten Obergeschoss befinden sich im Stil des 19. Jahrhunderts eingerichtete historische Salons. Die ehemalige Pferdestallung Remise thematisiert die Geschichte der Region am Untersee und ihre Verbindung zum Kloster Reichenau, mit Schwerpunkten auf Weinbau, Fischerei und Vogeljagd. Im Obergeschoss werden wechselnde Kunstausstellungen pr&auml;sentiert. Ein Eventraum im Erdgeschoss sowie ein Rosengarten erg&auml;nzen das Angebot. Das Museum liegt zentral in Ermatingen und bietet mit seinen verschiedenen Ausstellungsbereichen ein vielseitiges Kulturerlebnis im Thurgau. Das Haus Ph&ouml;nix stellt seine historischen Salons f&uuml;r Sitzungen, Konferenzen oder zivile Trauungen zur Verf&uuml;gung. Gruppenf&uuml;hrungen durch das Museum sind auf Anfrage ebenfalls m&ouml;glich.</p>", "url": "http://www.vinorama-ermatingen.ch/", "image": "https://tgtpimtsoch.sos-ch-dk-2.exoscale-cdn.com/catalog/1/9/5/2/195230b8249967beac7184e3cbe2008b47102483_em_2072.jpg", "openstreetmap_id": "node/2240025563"}, "geometry": {"type": "Point", "coordinates": ["9.0770616", "47.6690093"]}}, {"type": "Feature", "properties": {"identifier": "2da11ac7-5de3-4c71-b282-837cee2798df", "name": "Schloss Roggwil", "description": "Das Schloss Roggwil ist ein kleines Landschloss aus dem 17. Jh. mitten im markanten Dorfkern von Roggwil. Es ist leicht mit \u00f6ffentlichem Verkehr oder mit dem Auto auf dem Weg zwischen St.Gallen und Bodensee zu erreichen. Das Schloss ist heute Treffpunkt f\u00fcr gesellige Anl\u00e4sse und Kulturveranstaltungen und bietet einen stilvollen Rahmen f\u00fcr Feste und Tagungen. Im Schloss Roggwil finden G\u00e4ste ein romantisches Ambiente vor. Die verschiedenen R\u00e4ume werden durch einen grossz\u00fcgigen Aussenbereich erg\u00e4nzt. ", "url": "https://schloss-roggwil.ch", "image": "https://tgtpimtsoch.sos-ch-dk-2.exoscale-cdn.com/catalog/5/3/f/a/53fa753eb1cf31a8d246ed01cfc461c47b5e05f3_DSC_0705.JPG", "openstreetmap_id": "way/28056215"}, "geometry": {"type": "Point", "coordinates": ["9.395075440406801", "47.500605071448106"]}}, {"type": "Feature", "properties": {"identifier": "2fc5e7dd-1a66-4a75-8901-b8b5f6122e34", "name": "Uerschhauser Badi Nussbaumersee", "description": "<p>Die Uerschhauser Badi am Nussbaumersee ist ein beliebter Naturbadeplatz im Thurgau und liegt eingebettet in der gesch&uuml;tzten Landschaft des Seebachtals. Die weitl&auml;ufige Liegewiese mit sonnigen und schattigen Bereichen l&auml;dt zum Verweilen ein. Ein Sprungbrett sorgt f&uuml;r zus&auml;tzlichen Badespass, w&auml;hrend die Grillstelle den Aufenthalt am See erg&auml;nzt. Der Nussbaumersee ist von einer wertvollen Endmor&auml;nenlandschaft umgeben und geh&ouml;rt zu einem Gebiet von regionaler Bedeutung. Die ruhige Lage, die naturnahe Umgebung und der freie Blick auf das Wasser machen die Uerschhauser Badi zu einem besonderen Ausflugsziel f&uuml;r Erholung und Naturerlebnisse im Thurgau.</p>", "image": "https://tgtpimtsoch.sos-ch-dk-2.exoscale-cdn.com/catalog/2/8/2/1/282103f39ca4e5747e497f259b36cbb5ac4264a6_small__Huettwilen_Nussbaumersee.jpg", "openstreetmap_id": "way/295675688"}, "geometry": {"type": "Point", "coordinates": ["8.814167976379396", "47.613338619311435"]}}, {"type": "Feature", "properties": {"identifier": "3165c158-4864-4aab-b90f-12ef9b3b5a17", "name": "Event-Raum Engels-Fr\u00fcchtehof", "description": "Der moderne Veranstaltungsraum auf dem Engels-Fr\u00fcchtehof bietet Platz f\u00fcr bis zu 70 Personen. Er verf\u00fcgt \u00fcber eine erstklassige Ausstattung. Komplette Bestuhlung, grossz\u00fcgige Tische, Beamerwand mit Beamer sowie Geschirr sind vorhanden. Wer selbst anpacken m\u00f6chte, dem steht eine tolle Gastrok\u00fcche zur Verf\u00fcgung, ausgestattet mit Buffet, Induktionsfelder, Tellerw\u00e4rmer, Gastro-Steamer, K\u00fchlschrank, Geschirrsp\u00fcler, K\u00fchltheke, Kaffeemaschine und einer Auswahl an Getr\u00e4nken. Eine attraktive \u00fcberdachte Aussenterrasse mit malerischem Blick auf den Untersee und die Burg Hohenklingen l\u00e4dt zum Pausieren und Geniessen ein. Viel Holz schafft ein wohliges Ambiente. Familie Engel bietet in ihrem Hofladen Gem\u00fcse und Fr\u00fcchte aus eigener Produktion zur Verwendung an. Ein Ap\u00e9ro mit kalter Platte sowie Dekorationen und Floristik richtet das Familienunternehmen in dritter Generation ebenfalls gerne aus. Auf Wunsch organisiert der Fr\u00fcchtehof f\u00fcr die weitere Verpflegung ein passendes Catering mit einem regionalen Partyservice. G\u00e4sten steht es aber auch frei, ihr eigenes Catering mitzubringen.", "url": "https://www.engel-mammern.ch/", "image": "https://tgtpimtsoch.sos-ch-dk-2.exoscale-cdn.com/catalog/1/c/b/4/1cb4ba61c17f50b7c1bb8db7ff40dc142f984740_8__2.jpg", "openstreetmap_id": "way/306904390"}, "geometry": {"type": "Point", "coordinates": ["8.913065086888112", "47.64458355"]}}, {"type": "Feature", "properties": {"identifier": "3830dfc2-adac-486c-a575-93b3fcf4970c", "name": "Chocolarium - die Gl\u00fccksfabrik von Munz und Minor", "description": "Wer Schokolade liebt, kommt um einen Besuch im Chocolarium nicht herum. Auf dem interaktiven Erlebnis-Rundgang entdecken Schoggifans auf spielerische Weise viel Wissenswertes \u00fcber Schokolade \u2013 und wie das Gl\u00fcck seinen Weg in jede Tafel findet.\nVon der Glasgalerie aus l\u00e4sst sich hautnah beobachten, wie die beliebten Produkte von Munz und Minor entstehen.\nEin besonderes Highlight bietet der Raum f\u00fcr individuelles Gl\u00fcck: Verschiedene Schokoladenbrunnen laden dazu ein, die Sorten Weiss, Milch, Dunkel, Himbeere und sogar vegane Gianduja zu probieren und zu bewerten \u2013 Naschen ist hier ausdr\u00fccklich erw\u00fcnscht.\nZum Abschluss wird der Rundgang mit einer s\u00fcssen Erinnerung abgerundet: Die Show\u2011Confiseurin giesst eine frische Schoggitafel oder \u2013 wahlweise \u2013 zwei Schokoladenherzen, die nach Herzenslust verziert werden d\u00fcrfen. Dieses pers\u00f6nliche Kunstwerk nehmen die G\u00e4ste anschliessend als s\u00fcsse Erinnerung mit nach Hause.\nDas Chocolarium, eines der beliebtesten Ausflugsziele der Ostschweiz, heisst alle Besucherinnen und Besucher herzlich willkommen!", "url": "https://www.chocolarium.ch/", "image": "https://tgtpimtsoch.sos-ch-dk-2.exoscale-cdn.com/catalog/3/9/4/4/39446d3423b65e3ef179311b78bfbcd8dcc3d3e8_Flawi_Chocolarium_Tour_Familie.jpg", "openstreetmap_id": "way/196358285"}, "geometry": {"type": "Point", "coordinates": ["9.1649342", "47.4130675"]}}, {"type": "Feature", "properties": {"identifier": "4322dd9f-759c-4175-bcb3-93b330d9d4f9", "name": "Erlebnis- und B\u00fcffelhof Bolderhof", "description": "<p>Der Bolderhof in Hemishofen ist ein Bio- und B&uuml;ffelhof, eingebettet in die naturnahe Rheinlandschaft nahe dem Bodensee. Der landwirtschaftliche Betrieb verbindet nachhaltige Landwirtschaft mit naturnahen &Uuml;bernachtungsm&ouml;glichkeiten und einem Bio-Hofrestaurant, das regionale Spezialit&auml;ten aus biologischer Produktion bietet. Als einer der wenigen H&ouml;fe in der Schweiz mit Wasserb&uuml;ffelhaltung und einem der gr&ouml;ssten Agroforstprojekte des Landes setzt der Bolderhof auf Innovation und Biodiversit&auml;t. Erg&auml;nzt wird das Angebot durch authentische Natur- und Tiererlebnisse wie Kuhreiten, Wasserb&uuml;ffel streicheln und H&uuml;hner besuchen.</p><p>Mit Bio-Hofrestaurant, aussergew&ouml;hnlichen &Uuml;bernachtungsm&ouml;glichkeiten, Wasserb&uuml;ffelhaltung und authentischen Naturerlebnissen verbindet der Bolderhof Genuss, Erholung und Landwirtschaft auf einzigartige Weise.</p>", "url": "https://www.bolderhof.ch/", "image": "https://tgtpimtsoch.sos-ch-dk-2.exoscale-cdn.com/catalog/6/0/4/2/6042f349996d5c801d3a655c28bfba572877fe02_Muttertag_2024_snipp.JPG", "openstreetmap_id": "way/89418878"}, "geometry": {"type": "Point", "coordinates": ["8.821288", "47.6845802"]}}, {"type": "Feature", "properties": {"identifier": "539c2101-8d9d-431a-b317-7facf577f206", "name": "Schloss Herdern", "description": "<p>Das Schloss Herdern erhebt sich im Dorfzentrum von Herdern. Die Urspr&uuml;nge der Anlage reichen bis ins Mittelalter zur&uuml;ck. Besonders markant ist der achteckige Schlossturm mit seiner weithin sichtbaren Zwiebelhaube, der das Ortsbild von Herdern entscheidend pr&auml;gt. Im Laufe der Jahrhunderte entwickelte sich die ehemalige Wehranlage zu einem repr&auml;sentativen Schloss. Die Verbindung von mittelalterlicher Bausubstanz und barocker Architektur verleiht dem Ensemble seinen besonderen Charakter. Umgeben vom historischen Dorfkern bildet das Schloss Herdern einen bedeutenden kulturellen und architektonischen Bezugspunkt der Region. Neben seiner architektonischen Bedeutung ist das Schloss Herdern auch eng mit der Sozialgeschichte des Thurgaus verbunden. Das Schloss dient seit vielen Jahren als Standort einer sozialen Institution und steht beispielhaft f&uuml;r den Wandel historischer Bauwerke. Die eindrucksvolle Anlage vereint Geschichte, Kultur und gesellschaftliche Entwicklung und geh&ouml;rt zu den bedeutenden Kulturg&uuml;tern des Kantons Thurgau.</p>", "url": "https://www.schlossherdern.ch/", "image": "https://tgtpimtsoch.sos-ch-dk-2.exoscale-cdn.com/catalog/b/8/3/2/b832e30d9cfdf9e30d9e2fc0ea565a9be82dd67f_medium__Herdern_Schloss_Herdern_3.jpg", "openstreetmap_id": "node/5300918721"}, "geometry": {"type": "Point", "coordinates": ["8.9100273", "47.6041186"]}}, {"type": "Feature", "properties": {"identifier": "5d70d1a1-f5ea-40ef-8ac0-19d10d74482b", "name": "Begegnungszentrum DAS TR\u00d6SCH", "description": "<p>Mitten in Kreuzlingen bietet das Begegnungszentrum DAS TR&Ouml;SCH einen modernen und farbenfrohen Ort f&uuml;r Menschen und ihre Ideen. Sieben flexibel nutzbare R&auml;ume stehen zur Miete bereit &ndash; individuell einrichtbar und ideal f&uuml;r Kurse, Sitzungen, Feiern und vieles mehr. Das engagierte Tr&ouml;sch-Team begleitet pers&ouml;nlich und kompetent bei der Raumauswahl und Planung.</p><p>Ob N&auml;hkurs, Yoga-Session, Vereinssitzung oder Kindergeburtstag: Im Tr&ouml;sch findet alles Platz, was Menschen verbindet. Das Caf&eacute; und die Dachterrasse laden von Montag bis Freitag zum Verweilen ein &ndash; offen f&uuml;r alle.</p>", "url": "https://www.dastroesch.ch", "image": "https://tgtpimtsoch.sos-ch-dk-2.exoscale-cdn.com/catalog/e/7/7/9/e779d354adb24f23a51fd302b8e3d8f36afb0418_DasTroesch2022_185.jpg", "openstreetmap_id": "way/136911137"}, "geometry": {"type": "Point", "coordinates": ["9.17406813904729", "47.650579"]}}, {"type": "Feature", "properties": {"identifier": "607cb610-9eed-4b48-a628-402841ac0161", "name": "Historisches Museum Thurgau", "description": "Die Schlossausstellung \u00abGeheimnis Mittelalter\u00bb vermittelt Jung und Alt spielerisch aufbereitete Animationen, atmosph\u00e4risch inszenierte Schlossr\u00e4ume und ein lehrreicher Rundgang. Ebenfalls wird geschichtliches Wissen \u00fcber den Thurgau im Sp\u00e4tmittelalter, als Schloss Frauenfeld zweimal im Brennpunkt des Weltgeschehens stand, aufgezeigt.\n\nBesucherinnen und Besucher k\u00f6nnen die bewegte Zeit zwischen dem Konzil 1414 und der Reformation 1517 sinnlich nachf\u00fchlen, begleitet von vier Schlossfiguren, die mit fesselnden Dialogen, Ger\u00e4uschen und Lichtspielen die ferne Epoche lebendig machen.\n\nFamilien mit Kindern entdecken Schloss Frauenfeld mit dem R\u00e4tselkartenset Kati und Sven, erfahren Stadtgeschichte auf dem Leuli-Trail oder begeben sich mit dem Smartphone-Game auf eine actionreiche Spurensuche.", "url": "http://www.historisches-museum.tg.ch/", "image": "https://tgtpimtsoch.sos-ch-dk-2.exoscale-cdn.com/catalog/2/2/6/2/2262c85393d5c115c45a8db2255adb01034273f6_Schloss_Frauenfeld_neu_quer.JPG", "openstreetmap_id": "1129306887.0"}, "geometry": {"type": "Point", "coordinates": ["8.8968444", "47.5551918"]}}, {"type": "Feature", "properties": {"identifier": "62820559-537c-43f8-bfd3-8865ceb19e7f", "name": "Wasserschloss Hagenwil", "description": "Der Gastgeber Andi Angehrn und sein Team legen gr\u00f6ssten Wert auf eine frische K\u00fcche mit hochwertigen Produkten aus Betrieben mit natur- und tiergerechter Produktion. Die abwechslungsreichen Kreationen des Thurgauer Gastronomen entz\u00fccken Augen und Magen. Dank der hohen Qualit\u00e4t und der konstanten Leistungen konnte sich Andi Angehrn mit seinem Team 2012 \u00fcber die Aufnahme in die Gilde der etablierten Schweizer Gastronomen freuen.\n\nKultur ist der Familie Angehrn wichtig, deshalb pflegen sie diese mit Veranstaltungen in der Burgbar, den Schlossfestspielen Hagenwil oder mit dem Erntedankfest. Die R\u00e4ume des Wasserschlosses bieten gem\u00fctliches Ambiente f\u00fcr Anl\u00e4sse mit bis zu 110 Personen, bei Ap\u00e9ros finden bis zu 150 G\u00e4ste Platz. \n\nDas Wasserschloss Hagenwil verf\u00fcgt \u00fcber Zimmer, die noch im Originalzustand sind. Im Himmelbettzimmer ist auf Anfrage eine \u00dcbernachtung m\u00f6glich, zum Beispiel f\u00fcr ein Hochzeitspaar, Geburtstagskinder usw.", "url": "http://www.schloss-hagenwil.ch/", "image": "https://tgtpimtsoch.sos-ch-dk-2.exoscale-cdn.com/catalog/e/4/2/4/e4249ba50c75c26e0ee3dc436f1a2d002e1add8d_Wasserschloss_Hagenwil_Aussen_001__4.jpg", "openstreetmap_id": "4417866591.0"}, "geometry": {"type": "Point", "coordinates": ["9.3052422", "47.5291497"]}}, {"type": "Feature", "properties": {"identifier": "7a058edf-e702-4ac3-bd81-b13b46d170e5", "name": "Eventraum Plan & Werke", "description": "Hochzeit, Geburtstag oder Corporate Event \u2013 in den R\u00e4umen der Plan und Werke wird gefeiert, gekocht und getagt. Die R\u00e4ume bestechen durch exklusives Ambiente, edelste Materialen und moderne Technik. Vier topmodern ausger\u00fcstete K\u00fcchenwelten stehen f\u00fcr Kochkurse und Veranstaltungen zur Verf\u00fcgung. Highlights sind der spektakul\u00e4re Weinturm mit \u00fcber 1500 Spitzenweinen aus der ganzen Welt und die 130 qm grosse Terrasse mit Lounge, Bar, Open Space und schliessbarem Dach. Zwei je 150 qm grosse Musterwohnung eignen sich besonders f\u00fcr Meetings, bei denen man sich wie Zuhause f\u00fchlt. Die hauseigene K\u00f6chin erf\u00fcllt jeden kulinarischen Wunsch und legt dabei grossen Wert auf regionale und saisonale Produkte.", "url": "https://www.planwerke.ch/de/", "image": "https://tgtpimtsoch.sos-ch-dk-2.exoscale-cdn.com/catalog/7/8/0/0/7800c2f3ebc91db84d2df29b6fd9f5a9e6f8d848_Weinfelden_Plan_und_Werke_Eventraum.jpg", "openstreetmap_id": "8404599767.0"}, "geometry": {"type": "Point", "coordinates": ["9.1324135", "47.5603985"]}}, {"type": "Feature", "properties": {"identifier": "862dedef-7833-4938-a971-8f8873328999", "name": "Naturmuseum Thurgau", "description": "<p>Das Naturmuseum Thurgau befindet sich in der Altstadt von Frauenfeld. Es nimmt Besuchende mit auf eine Entdeckungsreise durch die Natur der Region. Auf drei Stockwerken sind \u00fcber 1000 Pflanzen- und Tierpr\u00e4parate vom K\u00e4fer bis zum m\u00e4chtigen B\u00e4ren ausgestellt. Ein naturgetreu nachgebauter Biberbau und die lebenden Ameisen begeistern genauso wie verschiedene interaktive \u00abbegreif\u00bb-Stationen, wie Streichelfelle oder Puzzles. Der Audiorundgang \u00abMit Monty im Museum\u00bb nimmt kleine und grosse Museumsg\u00e4ste mit auf einen vergn\u00fcglichen Ausstellungsrundgang. Unter demselben Dach befindet sich zudem das Museum f\u00fcr Arch\u00e4ologie Thurgau. Im Sommer bietet der arch\u00e4obotanische Museumsgarten mit verschiedenen Nutz- und Kulturpflanzen Natur zum Anfassen. Nach dem Rundgang l\u00e4dt das Museumscaf\u00e9 zum Verweilen ein. Im Foyer bietet der Museums-Shop ein ausgew\u00e4hltes Angebot an B\u00fcchern, Spielen, Ansichtskarten und Repliken. Museum und Garten sind hindernisfrei.</p>", "url": "http://www.naturmuseum.tg.ch/", "image": "https://tgtpimtsoch.sos-ch-dk-2.exoscale-cdn.com/catalog/8/8/6/f/886f696e5b7b8f1a9a8d18b98850c2cbee96dced_NaturmuseumThurgauEingangGarten.jpg", "openstreetmap_id": "node/1129298047"}, "geometry": {"type": "Point", "coordinates": ["8.8986052", "47.5565939"]}}, {"type": "Feature", "properties": {"identifier": "8e83a4d7-decf-4c7d-afd5-b34880160abb", "name": "Schloss Liebenfels", "description": "<p>Einst als strategischer Vorposten erbaut, reicht die Gr&uuml;ndung von Schloss Liebenfels auf Ritter Ulrich von Liebenfels bis ins Jahr 1254 zur&uuml;ck. Die fr&uuml;here Festung der Herren von Liebenfels, sp&auml;ter im Besitz der Familien Tettikofen und Lanz, diente im 15. Jahrhundert diplomatischen Zwecken, als Hans Lanz im Rittersaal das Konzil von Konstanz vorbereitete. Verschiedene Umbauten pr&auml;gen das heutige Erscheinungsbild. Nach Zeiten des Niedergangs wechselte die Anlage mehrfach den Besitzer, bis der Dichterfreund Adolf Ludwig Follen sie 1848 erwarb und ihr neuen Glanz verlieh. Seit 1991 befinden sich Schlosskapelle und Rittersaal in den H&auml;nden der heutigen Eigent&uuml;mer, die das Anwesen restaurierten und f&uuml;r kommende Generationen bewahren. Bis heute bleibt die Anlage in Privatbesitz. Besuchende werden gebeten, die Privatsph&auml;re zu respektieren und die Sch&ouml;nheit des Ortes von &ouml;ffentlich zug&auml;nglichen Aussichtspunkten zu geniessen.</p>", "url": "https://www.schlossliebenfels.ch/", "image": "https://tgtpimtsoch.sos-ch-dk-2.exoscale-cdn.com/catalog/e/3/b/0/e3b0bf7693ebe5f2e02a7035ea640aca2ba3fe57_Herdern_Schloss_Liebenfels__2_.jpg", "openstreetmap_id": "way/246350980"}, "geometry": {"type": "Point", "coordinates": ["8.9259179", "47.631372"]}}, {"type": "Feature", "properties": {"identifier": "93587f7d-a796-4a98-a0fd-77fdd1d6529a", "name": "Strohhotel Bodensee", "description": "<p>Der Bauernhof liegt in l\u00e4ndlicher Umgebung direkt am Bodenseeradweg (Route 2) mit 100 Meter Seeentfernung. Der Seezugang ist in unmittelbarer N\u00e4he und ideal f\u00fcr eine kleine Abk\u00fchlung an heissen Sommertagen oder auch als Ein- und Ausstiegsplatz f\u00fcr Kanu, Kajak und SUP. Am See gibt es eine Grillm\u00f6glichkeit.<br><br>Ob im Stroh, in einem Familienzimmer, in einem Doppelzimmer oder in der Ferienwohnung, Familien und Individualg\u00e4ste f\u00fchlen sich im Strohhotel am Bodensee einfach wohl.<br><br>Auf dem Hof gibt es Milchk\u00fche, K\u00e4lber, H\u00fchner und Kaninchen.</p>", "url": "http://www.strohhotelbodensee.ch", "image": "https://tgtpimtsoch.sos-ch-dk-2.exoscale-cdn.com/catalog/b/d/f/3/bdf33a0ce137dca166084cf4f2c0cafd9a813c60_Strohhotel_Bodensee.jpg", "openstreetmap_id": "node/452097148"}, "geometry": {"type": "Point", "coordinates": ["9.4084453", "47.5301154"]}}, {"type": "Feature", "properties": {"identifier": "93a29617-bffc-4a9d-b717-81021556d02d", "name": "Feierlenhof", "description": "<p>Am oberen Dorfrand des Apfeldorfes Altnau liegt der Feierlenhof in einer wunderbaren Wander- und Veloregion inmitten von Obsthainen und mit Sicht auf den Bodensee. Der Altnauer Apfelweg erz\u00e4hlt \u00fcber das rotbackige Fr\u00fcchtchen und der Feierlenhof l\u00e4dt zur Pause ein! Im Hofladen bedienen sich die G\u00e4ste mit Kaffee und Kuchen, erfrischenden Getr\u00e4nken oder machen sich ein Pl\u00e4ttli aus Sch\u00fcblig und regionalem K\u00e4se. Auch Firmenanl\u00e4sse, Familienfeste und Hochzeiten werden hier gefeiert. Essen draussen unter Kirschb\u00e4umen oder in der Scheune sind m\u00f6glich. Alles was aufgetischt wird, kommt direkt mit viel Liebe vom Hof oder aus der Region. Urchiges Rahmenprogramm wie Most pressen, Hufeisen werfen oder Butter sch\u00fctteln runden das Programm ab. F\u00fcr Ferien auf dem Hof stehen verschiedene Wohnungen zur Verf\u00fcgung und f\u00fcr Kinder ist es ein wahres Paradies. Die vielen Tiere warten auf Streicheleinheiten, Trottis, Gokarts oder Traktore auf Wettrennen. Spielpl\u00e4tze laden zum Schaukeln und Rutschen ein.</p>", "url": "http://feierlenhof.ch/", "image": "https://tgtpimtsoch.sos-ch-dk-2.exoscale-cdn.com/catalog/d/1/7/8/d1783c21ce9ca1bb4d82b92aa20dd713d9b2c75a_Altnau_Feierlenhof_Ansicht_Haus_2.jpg", "openstreetmap_id": "way/234922549"}, "geometry": {"type": "Point", "coordinates": ["9.259662342395993", "47.6028835"]}}, {"type": "Feature", "properties": {"identifier": "9e3807b2-86ac-447c-ae44-d1e4863fd444", "name": "GameScore Interaktives Spielemuseum", "description": "<p>GameScore ist ein interaktives Spielemuseum in M&uuml;nchwilen im Kanton Thurgau und widmet sich der Spielkultur von klassischen Brettspielen &uuml;ber Flipper und Arcade Automaten bis hin zu Konsolen und Videospielen sowie Virtual Reality Erlebnissen. Der Fokus liegt auf dem aktiven Erleben. Zahlreiche Exponate sind spielbar und f&ouml;rdern den generations&uuml;bergreifenden Austausch. Als familienfreundliches Ausflugsziel verbindet GameScore Kultur, Freizeit und Bildung auf einzigartige Weise.</p><p>Das Museum zeichnet sich durch seine konsequent interaktive Ausrichtung, die Vielfalt der Spielwelten und den niederschwelligen Zugang f&uuml;r unterschiedliche Altersgruppen aus. Ab dem 10. Februar stehen zus&auml;tzlich zehn Virtual Reality Escape R&auml;ume zur Verf&uuml;gung. Die Lage direkt an der Autobahn sowie die gute Erreichbarkeit mit dem &ouml;ffentlichen Verkehr erm&ouml;glichen einen kurzen Anfahrtsweg. Im integrierten Brettspielkaffee stehen rund 450 Brettspiele zur freien Nutzung bereit. Insgesamt ist GameScore ein attraktives Ziel f&uuml;r Familien, Gruppen und Spieleinteressierte.</p>", "url": "https://www.gamescore.ch/", "image": "https://tgtpimtsoch.sos-ch-dk-2.exoscale-cdn.com/catalog/c/a/3/b/ca3b01533f48f4cf586f926b0f74bef325162b58_ef604721_5830_490b_b6ca_4dc5fdc2f140.jpg", "openstreetmap_id": "way/238749210"}, "geometry": {"type": "Point", "coordinates": ["8.9959358", "47.4832345"]}}, {"type": "Feature", "properties": {"identifier": "a656872b-95da-4f01-aa5e-ec1d706c843c", "name": "Hof-Tschannen", "description": "Der Hof Tschannen liegt mitten im Gr\u00fcnen am Dorfrand von Illighausen mit herrlichem Blick auf den Bodensee und in den Alpstein. Besuchende k\u00f6nnen auf Stroh oder im G\u00e4stezimmer \u00fcbernachten. Es wird ein reichhaltiges Bauernfr\u00fchst\u00fcck mit hausgemachten Produkten angeboten. Auf Anfrage ist Halb- und Vollpension erh\u00e4ltlich. Ein grosser Hofplatz, ein \u00fcberdachter Sandkasten, Rutschbahn, viele Spielzeuge oder ein Garten zum Austoben lassen Kinderherzen h\u00f6herschlagen. Tierfreunde helfen der gastfreundlichen Familie Tschannen beim F\u00fcttern der Rinder oder beim Einsammeln der H\u00fchnereier. Wer's gem\u00fctlicher mag, streichelt die Hofb\u00fcsis oder schaut den Schweinchen und Hasen zu. Der Wald mit einer Grillstelle ist nur 100 Meter vom Hof entfernt. Der heizbare Aufenthaltsraum l\u00e4dt zum Verweilen ein. Auch Kindergeburtstage werden gerne ausgerichtet.", "url": "http://www.hof-tschannen.ch/", "image": "https://tgtpimtsoch.sos-ch-dk-2.exoscale-cdn.com/catalog/c/9/6/8/c968e906173dbbd7b40a25132ded1817c215c38e_Illighausen_Hof_Tschannen_schlafen_im_Stroh.jpg", "openstreetmap_id": "way/330204224"}, "geometry": {"type": "Point", "coordinates": ["9.214230175896676", "47.61307795360362"]}}, {"type": "Feature", "properties": {"identifier": "aa480876-d99f-48bc-87d5-67e015a87139", "name": "Napoleonmuseum Arenenberg", "description": "Nach dem Sturz Napoleons l. musste seine Stieftochter, die holl\u00e4ndische K\u00f6nigin Hortense, aus Frankreich fliehen. Im Jahr 1817 kaufte sie das Schlossgut Arenenberg und machte es zu ihrem Exilsitz. Sie baute um und stattete die prachtvollen Salons stilsicher und mit viel Pariser Flair aus. Aus Frankreich brachte sie ihren siebenj\u00e4hrigen Sohn, Louis Napol\u00e9on mit, der hier im Thurgau am Bodensee aufwuchs und bis zu seinem einunddreissigsten Lebensjahr lebte. Danach gelangte er mit Umwegen zur\u00fcck nach Frankreich und ging unter dem Namen Napoleon III. als letzter franz\u00f6sischer Kaiser in die Geschichte ein. Seine Frau, Kaiserin Eug\u00e9nie, erweiterte das Schloss um zus\u00e4tzliche Salons. 1906 schenkte Eug\u00e9nie das Anwesen dem Kanton Thurgau, der in dem Schlossgut ihrem Wunsch gem\u00e4ss das Napoleonmuseum und eine Schule f\u00fcr die Thurgauer Landwirtschaft einrichtete. Beides besteht bis heute.", "url": "https://napoleonmuseum.tg.ch/", "image": "https://tgtpimtsoch.sos-ch-dk-2.exoscale-cdn.com/catalog/5/1/c/9/51c937e3bf4a3e6a76184a467b5c9afed7765ba7_Schloss_Arenenberg.jpg", "openstreetmap_id": "node/1129328125"}, "geometry": {"type": "Point", "coordinates": ["9.0592034", "47.6726822"]}}, {"type": "Feature", "properties": {"identifier": "b1708e92-657a-40e4-9cfe-32b821cf7310", "name": "Museum f\u00fcr Arch\u00e4ologie", "description": "Auf einem spannenden Rundgang durchstreifen G\u00e4ste im Museum f\u00fcr Arch\u00e4ologie in Frauenfeld 10'000 Jahre Vergangenheit des Kantons Thurgau. Die Funde aus den hiesigen Pfahlbauten \u2013 seit 2011 UNESCO-Welterbe \u2013 liefern interessante Informationen zum Alltag vor Jahrtausenden im Bodenseeraum. H\u00f6hepunkte sind etwa das \u00e4lteste Goldgef\u00e4ss der Schweiz oder eine gallo-r\u00f6mische Holzstatue. Spannende Wechselausstellungen erg\u00e4nzen das Angebot. Der neue Mitarbeiter, Archie der Dachs, nimmt Familien mit auf Spurensuche durchs Museum, l\u00e4sst Details in den Vitrinen suchen und animiert zum Zeichnen und Basteln. F\u00fcr das richtige L\u00f6sungsworts gibt\u2019s eine Belohnung. Unterm gleichen Dach befindet sich auch das Thurgauer Naturmuseum. Der gemeinsame arch\u00e4obotanische Garten im Vorhof der Museen macht die Vielfalt und Geschichte unserer Kultur- und Nutzpflanzen erlebbar. Nach dem Rundgang l\u00e4dt das Museumscaf\u00e9 zum Verweilen ein. Museum und Garten sind hindernisfrei.", "url": "https://archaeologiemuseum.tg.ch", "image": "https://tgtpimtsoch.sos-ch-dk-2.exoscale-cdn.com/catalog/9/d/1/5/9d1544a0625fe305dd52c0b45f4d1b4cde9f2801_Museum_fuer_Archaeologie_Eingang_4000x3000px__2.jpg", "openstreetmap_id": "node/1129297282"}, "geometry": {"type": "Point", "coordinates": ["8.8984937", "47.5564574"]}}, {"type": "Feature", "properties": {"identifier": "b31d0dec-c369-4059-8c31-c17ec106b81e", "name": "Kunstmuseum Thurgau", "description": "Den Kern des Museums bildet die seit 1942 bestehende kantonale Kunstsammlung, die unter anderem die Nachl\u00e4sse von Adolf Dietrich, Carl Roesch und Hans Kr\u00fcsi umfasst. Insgesamt verwaltet das Museum \u00fcber 30'000 Sammlungsobjekte, von der Fotografie \u00fcber Zeichnungen und Gem\u00e4lden bis zur raumgreifenden Installation. Ausserdem haben international bekannte K\u00fcnstlerinnen und K\u00fcnstler eigens f\u00fcr den Kontext der Kartause Ittingen neue Werke entwickelt. Janet Cardiffs \u00abIttingen Walk\u00bb f\u00fchrt das Publikum auf einen unkonventionellen Rundgang durch die beiden Museen. \u00abDie verstummte Bibliothek\u00bb von Joseph Kosuth thematisiert die Ordnung des Wissens, w\u00e4hrend Muda Mathis in ihrem \u00abParadies\u00bb die biblische Geschichte auf ganz unkonventionelle Art und Weise neu erz\u00e4hlt.", "url": "http://www.kunstmuseum.tg.ch", "image": "https://tgtpimtsoch.sos-ch-dk-2.exoscale-cdn.com/catalog/0/8/b/3/08b3b85fa206da9e36f970598bcb552d05ace39c_Kunstmuseum_Thurgau_750x480.jpg", "openstreetmap_id": "node/9908306266"}, "geometry": {"type": "Point", "coordinates": ["8.866288661956789", "47.58376337739829"]}}, {"type": "Feature", "properties": {"identifier": "b4380614-1e07-4934-b904-8649cd55daec", "name": "Ittinger Museum", "description": "Der reich ausgestattete Essraum sowie die pr\u00e4chtige Rokoko-Kirche pr\u00e4sentieren sich bis heute so, als lebten und beteten noch M\u00f6nche in Ittingen. Gleichzeitig erz\u00e4hlt der Billardtisch im Kapitelsaal von der Aufl\u00f6sung des Klosters 1848 und von der darauffolgenden Nutzung des Ortes als Herrschaftssitz einer Gutsherrenfamilie. Die Themen und Geschichten rund um das Kloster und den Kart\u00e4userorden werden mittels Audioguide, H\u00f6rspielen f\u00fcr Kinder und Publikationen einem breiten Publikum n\u00e4hergebracht. \n\nAuch der Aussenraum ist vom m\u00f6nchischen Leben gepr\u00e4gt, wie die Besucher auf vier Themenpfaden durch die G\u00e4rten der Kartause erfahren k\u00f6nnen. Wer mit offenen Augen durch die Anlage streift, st\u00f6sst inmitten der Bl\u00fctenpracht heutiger Bepflanzung immer wieder auch auf Fragmente historischer Gartengestaltung.", "url": "http://www.kunstmuseum.tg.ch/", "image": "https://tgtpimtsoch.sos-ch-dk-2.exoscale-cdn.com/catalog/1/1/b/7/11b7f2ba19d4cb77725f86a6f495ae1ea7a60993_0_130814_Ansicht_Kartause.1.jpg", "openstreetmap_id": "node/9908306266"}, "geometry": {"type": "Point", "coordinates": ["8.866385221481325", "47.58356066997053"]}}, {"type": "Feature", "properties": {"identifier": "bba7bf07-6af7-468a-9847-fac7a732fdde", "name": "Typorama \u2013 Museum f\u00fcr Satz und Druck", "description": "Eine Handsetzerei beherbergt in acht Gassen Hunderte von Schriftgarnituren. Auch sind dreizehn verschiedene Typen Bleisetzmaschinen voll einsatzbereit. Im Maschinensaal stehen eine Kniehebel-Handpresse, zwei Boston-Handtiegelpressen, sieben Tiegel-Schnellpressen verschiedener Bauart, eine Stoppzylinder-Schnellpresse, zwei Stoppzylinder-Automaten (einer davon vertikal), zwei Eintouren-Automaten sowie ein Zweitouren-Automat. Die Sammlung wird abgerundet durch die ersten den Bleisatz abl\u00f6senden Fotosatzger\u00e4te. Zudem erm\u00f6glicht eine komplette Buchbinderei die Produktion von B\u00fcchern. Man kann das Typorama entweder zum einfachen Rundgang besuchen oder eine komplette F\u00fchrung mit Ap\u00e9ro buchen. Das Museum ist ausserdem jeden Mittwochnachmittag f\u00fcr Kinder ge\u00f6ffnet. Die Kleinen k\u00f6nnen selber Hand anlegen und ihre Texte und Bilder unter Anleitung setzen und drucken. In den Workshops lernt man nicht nur Linolschnitt oder Buchbinden, sondern sogar die Bedienung einer Setz- oder Druckmaschine.", "url": "https://www.typorama.ch/", "image": "https://tgtpimtsoch.sos-ch-dk-2.exoscale-cdn.com/catalog/c/0/c/7/c0c78d5d863fb5d5b5c61250a95e60ee6aba2c8b_Hamm2_Klein.jpg", "openstreetmap_id": "node/4720479534"}, "geometry": {"type": "Point", "coordinates": ["9.2339237", "47.4927213"]}}, {"type": "Feature", "properties": {"identifier": "c14a3a22-c7e2-4e2b-bd8f-c4092342bd43", "name": "Schloss Kefikon", "description": "<p>Erstmals 1241 urkundlich erw&auml;hnt, geh&ouml;rte das Schloss Kefikon bis 1798 zu den Lehen des Klosters Reichenau. Bedeutende Pers&ouml;nlichkeiten wie Hans Konrad Escher von der Linth, Erbauer des Linthkanals, pr&auml;gten das Anwesen. 1906 wurde das Schloss von August Bach f&uuml;r die Gr&uuml;ndung eines Landerziehungsheims erworben. Nach einem Brand 1929 erfolgte eine Renovation, bei der unter anderem das Mansarddach und der Treppengiebel des Wohnturms entstanden. Heute ist das Schloss Kefikon vor allem als Standort der Privatschule Schloss Kefikon bekannt, die &uuml;ber 100 Jahre Tradition vereint. Das vielf&auml;ltige Gel&auml;nde mit altem Schloss, Schulhaus, Park, Schwimmbad, Spielh&uuml;gel Nufa und dem gr&ouml;ssten Naturweiher der Schweiz bietet Familien, Schulklassen und Besucherinnen und Besuchern spannende Einblicke in Geschichte, Natur und Bildung.</p>", "url": "https://de.wikipedia.org/wiki/Schloss_Kefikon", "image": "https://tgtpimtsoch.sos-ch-dk-2.exoscale-cdn.com/catalog/5/d/a/8/5da8908d93d8ac9d161930fc96fa0a79faa8c5d3_large__Kefikon_Schloss_Kefikon_2.jpg", "openstreetmap_id": "way/259723337"}, "geometry": {"type": "Point", "coordinates": ["8.8321566", "47.5492704"]}}, {"type": "Feature", "properties": {"identifier": "ca4e5120-309d-4aff-93e4-7d12822d05e2", "name": "MoM\u00f6 - Schweizer Mosterei- und Brennereimuseum", "description": "<p>Kennst du den Gr&uuml;nder der Mosterei M&ouml;hl? Du erf&auml;hrst es vor Ort im MoM&ouml;. W&uuml;rdest du dich zum Safthandwerker eignen? Unsere Mostfabrik testet dein Wissen. Kennst du die fleissigste Bienenart? Vor Ort erf&auml;hrst du alles &uuml;ber diese Best&auml;ubungsk&uuml;nstler. Du m&ouml;chtest bodenst&auml;ndiges Essen und Trinken? In der dazugeh&ouml;rigen Bar erhalten G&auml;ste kleine K&ouml;stlichkeiten aus der Region und nat&uuml;rlich M&ouml;hl-Spezialit&auml;ten. Die Familie M&ouml;hl freut sich auf deinen Besuch im Apfelparadies.&nbsp;</p>", "url": "https://www.momoe.ch", "image": "https://tgtpimtsoch.sos-ch-dk-2.exoscale-cdn.com/catalog/e/e/8/6/ee863a22a2f826118cdeda58dda485c8d33779fb_momoe_obstgarten_sommer_original_4k_grading.jpg", "openstreetmap_id": "way/630909769"}, "geometry": {"type": "Point", "coordinates": ["9.412203402045316", "47.5070748"]}}, {"type": "Feature", "properties": {"identifier": "cc9fb078-63ba-43d2-9b60-dfac3c2b3ebb", "name": "MUSE.TG Museen im Thurgau", "description": "<p>Von der Jungsteinzeit &uuml;ber das Mittelalter bis zur Industrialisierung und Zeitgeschichte &ndash; museale Erlebniswelten erz&auml;hlen von Mobilit&auml;t mit Eisenbahn, Kutsche, Schiff und Automobil, zeigen die reiche Flora und Fauna der Region und laden ein, das traditionelle Thurgauer Safthandwerk zu entdecken. Ortsmuseen machen Alltagsgeschichte und Wohnkultur lebendig, w&auml;hrend Schl&ouml;sser und Malstuben zu einer Zeitreise einladen. Mechanische Werkst&auml;tten zeigen historisches Handwerk und Erfindungen, Kirchensch&auml;tze und zeitgen&ouml;ssische Kunst verbinden Vergangenheit und Gegenwart. Ein &Uuml;berblick &uuml;ber alle Thurgauer Museen und deren vielf&auml;ltiges Angebot ist auf der Webseite von MUSE.TG verf&uuml;gbar.</p>", "url": "https://www.muse.tg/#museen", "image": "https://tgtpimtsoch.sos-ch-dk-2.exoscale-cdn.com/catalog/3/e/9/c/3e9c46f952bb79a46c6043220699dfcdc508470c_2026_Karte_4zu5.jpg", "openstreetmap_id": "way/232919858"}, "geometry": {"type": "Point", "coordinates": ["8.8971152", "47.5569556"]}}, {"type": "Feature", "properties": {"identifier": "cf73b21d-50eb-44c8-9127-9462dcb2730c", "name": "Thurgauer Schulmuseum Amriswil", "description": "<p>Das Schulmuseum ist ein Erlebnis f\u00fcr alle Generationen: Im liebevoll eingerichteten Klassenzimmer im ersten Obergeschoss f\u00fchlen sich \u00e4ltere Besuchende in ihre eigene Schulzeit zur\u00fcckversetzt, w\u00e4hrend j\u00fcngere entdecken, wie das Lernen damals ablief. Die authentische Atmosph\u00e4re von 1920 wird durch originale Schulm\u00f6bel und Materialien greifbar gemacht. So laden etwa Thurgauer Leseb\u00fccher aus den Jahren ab 1910 zum St\u00f6bern ein, und alte Hilfsmittel wie Setzk\u00e4sten, Schreibfedern, Fibeln, Schiefertafeln und Rechenschieber lassen l\u00e4ngst vergangene Unterrichtsmethoden wieder aufleben.</p><p>Das Schulmuseum bietet als ausserschulischer Lernort verschiedene museumsp\u00e4dagogisch betreute und auf den Lehrplan abgestimmte Vermittlungsangebote f\u00fcr Schulklassen vom Kindergarten bis zur Oberstufe und Mittelschule. Spannende Wechselausstellungen greifen Themen wie \u00abN\u00e4schi\u00bb oder Werken auf, und bei Museumsveranstaltungen gibt es tiefere Einblicke in die Schweizer Schulgeschichte.</p><p>Ein Besuch im Schulmuseum Amriswil ist eine Zeitreise, die Bildungsgeschichte sp\u00fcrbar und erlebbar macht.</p>", "url": "http://www.schulmuseum.ch/", "image": "https://tgtpimtsoch.sos-ch-dk-2.exoscale-cdn.com/catalog/0/9/6/f/096fabb924b067822930000c7755c0fd01128599_resized_870x450_orig_amriswil_schulmuseum.jpg", "openstreetmap_id": "node/4399903689"}, "geometry": {"type": "Point", "coordinates": ["9.2737792", "47.5443811"]}}, {"type": "Feature", "properties": {"identifier": "d0d4b080-eac0-4f15-a980-e19469c6394c", "name": "Schaudepot St. Katharinental | Volkskundliche Sammlung Historisches Museum Thurgau", "description": "Im Kornhaus des ehemaligen Dominikanerinnenklosters wird eine \u00fcberw\u00e4ltigende Vielfalt von \u00fcber 10'000 Objekten ausgestellt. Auf eindr\u00fcckliche Weise werden Besuchende hier Zeuge der Lebens- und Arbeitsweise zu Urgrossmutters Zeit. Auf 2'700 Quadratmetern heisst es Eintauchen in die Welt unserer Vorfahren. Was bewegte Pferdebesitzer dazu, ein St\u00fcck graviertes Hirschgeweih an ihr Fuhrwerk zu h\u00e4ngen? Weshalb wurde ein Scherenmotiv in einen Dachziegel gedr\u00fcckt? Auf gef\u00fchrten Touren erfahren Besuchende faszinierende Geschichten aus einer Zeit ohne Rasenroboter, Induktionsherd und Mobiltelefon. Dar\u00fcber hinaus bestaunen sie auch das gr\u00f6sste historische Holzfass der Schweiz, ein 45'000 Liter-Gigant von 1759 aus Mostindien.\n\nDas Schaudepot \u00f6ffnet seine Tore das ganze Jahr \u2013 allerdings nur auf Voranmeldung. Zur Auswahl stehen F\u00fchrungen zu verschiedenen Themen, die ca. 60 Minuten dauern.", "url": "http://www.historisches-museum.tg.ch/", "image": "https://tgtpimtsoch.sos-ch-dk-2.exoscale-cdn.com/catalog/3/e/9/1/3e9133fba4a34873ec5258b461c891a3966cc102_Schaudepot_St._Katharinental.JPG", "openstreetmap_id": "node/10209697173"}, "geometry": {"type": "Point", "coordinates": ["8.736922", "47.6909985"]}}, {"type": "Feature", "properties": {"identifier": "da48a8d3-a95a-4387-acc5-5bd9d41d8f8e", "name": "Eisenwerk Frauenfeld", "description": "In einer inspirierenden Atmosph\u00e4re, die industrielle Grossz\u00fcgigkeit und Werkstattcharakter ausstrahlt, finden weit \u00fcber hundert Veranstaltungen pro Jahr statt. Diese werden zumeist vom Verein Kultur im Eisenwerk durchgef\u00fchrt; die R\u00e4ume im Eisenwerk k\u00f6nnen aber auch f\u00fcr eigene private oder \u00f6ffentliche Veranstaltungen gemietet werden. Daneben gibt es auch kulturelle Kurse f\u00fcr Kinder, Jugendliche und Erwachsene und eine Gemeinschafts-Werkstatt mit Leihlager. Die Webseite des Eisenwerks vermittelt das ganze bunte Programm.\n \n", "url": "https://www.eisenwerk.ch/", "image": "https://tgtpimtsoch.sos-ch-dk-2.exoscale-cdn.com/catalog/7/c/9/6/7c9624f9e9bccd4f5e2fa1bf2cb340df488e14ca_DSC09196.jpg", "openstreetmap_id": "1538243123.0"}, "geometry": {"type": "Point", "coordinates": ["8.8940078", "47.5610445"]}}, {"type": "Feature", "properties": {"identifier": "daa14118-ab97-4e5f-a055-2a9f51df2315", "name": "Schloss Gachnang", "description": "<p>Urspr&uuml;nglich als Wasserburg angelegt, wurde das Schloss Gachnang 1767 durch das Kloster neu erbaut. Der Bergfried aus dem 13. Jahrhundert wurde im 16. und 17. Jahrhundert durch Wohngeb&auml;ude ummantelt. Wesentliche Zu- und Umbauten erfolgten 1741 und nach dem Brand 1929 mit einem neuen Staffelgiebel. 1916 ging das Schloss an die Gebr&uuml;der M&uuml;ller &uuml;ber, die darin eine Mosterei betrieben. Prachtvolle Portalgitter aus dem 18. und 19. Jahrhundert sowie ein Brunnen aus der zweiten H&auml;lfte des 18. Jahrhunderts pr&auml;gen das Anwesen. Innen befinden sich das Escherzimmer mit Gobelinimitationen, ein Bilderzimmer mit &Ouml;lpanneaux sowie weisse und bemalte &Ouml;fen, unter anderem von Rudolf Kuhn in Rieden. Elegante Innenr&auml;ume und ein weitl&auml;ufiger Aussenbereich machen das Schloss f&uuml;r Trauungen, Geburtstagsfeiern, Firmenanl&auml;sse und kulturelle Veranstaltungen wie Ausstellungen nutzbar, wodurch historische Atmosph&auml;re und moderne Nutzung harmonisch verbunden werden.</p>", "image": "https://tgtpimtsoch.sos-ch-dk-2.exoscale-cdn.com/catalog/6/6/0/9/66099e220ffac2ba363af6d2350be4d8bedfc618_large__Gachnang_Schloss_Gachnang_2.jpg", "openstreetmap_id": "way/230180030"}, "geometry": {"type": "Point", "coordinates": ["8.8499151", "47.5397507"]}}, {"type": "Feature", "properties": {"identifier": "dcb612c3-da0f-47e5-97a8-1c7410bc077d", "name": "Alte Badi Altnau", "description": "<p>Etwas abseits des Hafens gelegen, bietet die Alte Badi Altnau eine entspannte Alternative zu den gr&ouml;sseren Strandb&auml;dern am Bodensee. Die &ouml;ffentliche Badestelle &uuml;berzeugt mit einer gepflegten Liegewiese und direktem Zugang zum See, ideal f&uuml;r eine erfrischende Abk&uuml;hlung an warmen Sommertagen.<br>Familien profitieren von einem Spielplatz sowie einer Feuerstelle, die zum gemeinsamen Grillieren einl&auml;dt. &Ouml;ffentliche Sanit&auml;ranlagen sorgen f&uuml;r zus&auml;tzlichen Komfort.<br>Ein besonderes Highlight ist das Denkmal zur Seegfr&ouml;rne von 1963. Es erinnert an die letzte vollst&auml;ndige Vereisung des Bodensees und macht die Alte Badi auch zu einem geschichtstr&auml;chtigen Ort.<br>Ob f&uuml;r eine kurze Erfrischung, ein gem&uuml;tliches Picknick oder einen entspannten Sommertag am Wasser. Die Alte Badi Altnau verbindet Natur, Erholung und Geschichte auf besondere Weise.</p>", "image": "https://tgtpimtsoch.sos-ch-dk-2.exoscale-cdn.com/catalog/4/8/2/e/482e40b60ef0db913ebe56bc9fca2f979b230469_PIM_Eintrag_Badi__1_.jpg", "openstreetmap_id": "way/789939679"}, "geometry": {"type": "Point", "coordinates": ["9.2749203", "47.6202809"]}}, {"type": "Feature", "properties": {"identifier": "dcc4526c-68f8-4731-b59c-d7f511261513", "name": "Stammheimer Hopfentropfen Erlebnishof", "description": "Die Bier-Erlebniswelt auf dem Hopfen-Hof ist vielf\u00e4ltig. In der kleinen hofeigenen Brauerei etwa brauen G\u00e4ste ihr eigenes Bier und personalisieren es mit spezieller Etikette. Auf dem Lehrpfad erf\u00e4hrt man alles zum Hopfenanbau und degustiert nat\u00fcrlich vom hauseigenen Hopfenbr\u00e4u. Bei einer Bier Ol\u00fcmp-iade st\u00e4rken Gruppen den Teamgeist und lassen sich bei einer Degustation mit Hopfen-Spezialit\u00e4ten oder dem hofeigenen Whisky verw\u00f6hnen. Zu letzterem gibt\u2019s eigene Seminar in der neuen Whisky-Lounge. Auch f\u00fcr das leibliche Wohl wird auf dem Hopfen-Hof gesorgt. Eine Besenbeiz begr\u00fcsst Besuchende im Garten oder im Innenbereich mit w\u00e4hrschaften Speisen. Auch Feste feiern kann man in den urchig gem\u00fctlichen R\u00e4umlichkeiten des Hofs ganz wunderbar. ", "url": "http://www.hopfentropfen.ch", "image": "https://tgtpimtsoch.sos-ch-dk-2.exoscale-cdn.com/catalog/9/2/8/b/928b0a98df7238e35e213dfa9a693349b7bb5b73_Unterstammheim_Hopfentropfen_Produkte.JPG", "openstreetmap_id": "node/825272402"}, "geometry": {"type": "Point", "coordinates": ["8.7802289", "47.6335853"]}}, {"type": "Feature", "properties": {"identifier": "e1cd961d-63b5-483a-a4d3-2fb8abc58f39", "name": "Ruine Helfenberg", "description": "<p>Die Ruine Helfenberg vermittelt Einblicke in die mittelalterliche Geschichte des Thurgau. Erste schriftliche Erw&auml;hnungen stammen aus einer St. Galler Urkunde zu Beginn des 14. Jahrhunderts, ab 1413 wird nur noch von einem Burgstall berichtet, was auf eingeschr&auml;nkte Bewohnbarkeit hinweist. Die Anlage liegt im Seebachtal und ist Teil regionaler Geschichtsrundg&auml;nge, die von den pr&auml;historischen Siedlungen am Nussbaumersee bis zur r&ouml;mischen Villa Stutheien f&uuml;hren. Arch&auml;ologische Untersuchungen des Amts f&uuml;r Arch&auml;ologie Thurgau in den 1980er Jahren f&ouml;rderten Keramikfragmente und eine bronzene ovale Schnalle zutage, einige Funde datieren um 1200 und deuten darauf hin, dass die Burg &uuml;ber 100 Jahre vor ihrer ersten schriftlichen Erw&auml;hnung erbaut wurde. 1981/82 sowie 2010/11 wurde die Ruine renoviert.</p>", "url": "https://archaeologie.tg.ch/fundstellen/ausflugsziele/fundstellen-mit-tafeln-im-gelaende/huettwilen-ruine-helfenberg.html/5918", "image": "https://tgtpimtsoch.sos-ch-dk-2.exoscale-cdn.com/catalog/f/5/3/7/f5372ebf50e266d37d48a67f894fdd8553bd101e_large__H__ttwilen_Ruine_Helfenberg.jpg", "openstreetmap_id": "way/793630842"}, "geometry": {"type": "Point", "coordinates": ["8.8344929", "47.6110019"]}}, {"type": "Feature", "properties": {"identifier": "e5f520d6-2ec9-44bb-bda6-4ec92c546401", "name": "Festhalle R\u00fcegerholz", "description": "Die Festhalle R\u00fcegerholz in Frauenfeld ist die ideale Location f\u00fcr grosse Anl\u00e4sse. Sie bietet den rustikalen Rahmen, Infrastruktur und Platz f\u00fcr Konzerte, Partys, Firmenanl\u00e4sse, Tagungen, Hochzeiten, Bankette, Ausstellungen, Sportanl\u00e4sse oder \u00c4hnliches. Bis zu 1'000 Personen finden Platz bei einer Bankettbestuhlung und bis 3'500 Stehpl\u00e4tze sind vorhanden. Grosse B\u00fchne mit Einrichtung f\u00fcr Bands, Rangverk\u00fcndigungen oder Darbietungen, ein Office f\u00fcr den professionellen Betrieb einer Festwirtschaft und gen\u00fcgend Parkpl\u00e4tze in n\u00e4chster Umgebung stehen zur Verf\u00fcgung. Weitere Informationen sowie den aktuellen Belegungsplan finden G\u00e4ste auf der Website der Stadt Frauenfeld.", "url": "https://www.frauenfeld.ch/festhalle", "image": "https://tgtpimtsoch.sos-ch-dk-2.exoscale-cdn.com/catalog/9/3/e/d/93edecf1967633d789cf58c04b5139c6247310cf_StadtFrauenfeld_Festhalle_NR_075_1_RGB_WEB.jpg", "openstreetmap_id": "way/220028109"}, "geometry": {"type": "Point", "coordinates": ["8.90019304392472", "47.54942045"]}}, {"type": "Feature", "properties": {"identifier": "e9b1ecf3-8476-4775-b580-d7e72cf4b959", "name": "Planetarium - Sternwarte", "description": "Das Planetarium holt f\u00fcr die Besucherinnen und Besucher Sonne, Mond und Sterne vom Himmel - auch bei Regenwetter. Unterschiedliche Programme werden f\u00fcr Erwachsene, Familien und Kinder angeboten. Jeden Mittwochabend steht die Sternwarte der \u00d6ffentlichkeit zur Verf\u00fcgung. Nachts k\u00f6nnen der Mond, Sternhaufen, Gasnebel und Galaxien beobachtet werden. Von der Dachterrasse aus erkl\u00e4rt fachkundiges Personal die Sternbilder und Planeten, die gerade am Nachthimmel sichtbar sind.", "url": "https://bodensee-planetarium.ch/?utm_source=thurgau-bodensee&utm_medium=referral&utm_campaign=lead&utm_content=portrait", "image": "https://tgtpimtsoch.sos-ch-dk-2.exoscale-cdn.com/catalog/f/2/9/d/f29dc50ca277912f1d28d75edfbf55b3b13ac0ad_Teleskop_Beobachtung_in_der_Sternwarte_low.jpg", "openstreetmap_id": "node/2133086183"}, "geometry": {"type": "Point", "coordinates": ["9.160468", "47.6413215"]}}, {"type": "Feature", "properties": {"identifier": "fa86b384-ad55-48ca-902f-a1dd14bc9363", "name": "Historisches Museum Bischofszell", "description": "<p>Das Historische Museum Bischofszell empf&auml;ngt G&auml;ste in zwei stattlichen Patrizierh&auml;usern aus dem 18. Jahrhundert. Einst waren sie Wohnraum von Leinwandh&auml;ndlern. Heute zeigt das Museum, wie in Bischofszell von der Sp&auml;tgotik bis ins 20. Jahrhundert gelebt wurde. Neben Wohnkultur und Stadtgeschichte finden sich hier eine Keramik- und Kartensammlung, ein Drogeriezimmer und eine Apotheke wie anno dazumal. Die Spielzeugsammlung des 19. und 20. Jahrhunderts erfreut auch j&uuml;ngere Besuchende. Eine St&auml;rkung mit Getr&auml;nken und Geb&auml;ck gibt&rsquo;s in der Kaffeestube &ndash; einem b&uuml;rgerlichen Speisezimmer der 1920er.</p><p>Im historischen Gew&ouml;lbekeller des Museums sowie im angrenzenden Innenhof mit Barockgarten und dem darin liegenden H&auml;uschen &laquo;Schniderbudig&raquo; darf heute gefeiert und getagt werden. Vor mehr als 400 Jahren war die Schniderbudig Tuchhaus f&uuml;r den Leinwandhandel. Heute sorgt Gerry Scheiwiller als Gastgeber in der &laquo;Schniderbudig&raquo; bei Anl&auml;ssen mit bis zu 70 Personen f&uuml;r kulinarische Highlights.</p><p>Die Schniderbudig geh&ouml;rt zu den wenigen auserw&auml;hlten Orten im Kanton Thurgau, die standesamtliche Trauungen in einer historischen Kulisse erm&ouml;glichen.&nbsp;</p>", "url": "https://www.museum-bischofszell.ch/", "image": "https://tgtpimtsoch.sos-ch-dk-2.exoscale-cdn.com/catalog/1/f/8/8/1f88597958e7f310f12f3164c9caedc8f4e24ca8_Bischofszell_H__user_Marktgasse_4___6_2.jpg", "openstreetmap_id": "node/1129291980"}, "geometry": {"type": "Point", "coordinates": ["9.2402887", "47.4936424"]}}]}