{"type": "FeatureCollection", "features": [{"type": "Feature", "properties": {"identifier": "0dc33067-5c29-4c1b-a50c-366f426e2fc1", "name": "Bike Guide Miche", "description": "<p>Miche, der sympathische geb\u00fcrtige Bayer ist ausgebildeter Bike-Guide und f\u00fchrt Velobegeisterte durch seine Wahlheimat, den Thurgau. Von Fahrtechnik-Training, Gruppenf\u00fchrungen \u00fcber Familienrouten, F\u00fchren von Schulklassen bis zu Teamevents oder Workshops f\u00fcr Bike-Service, Reinigung oder Reparaturen unterwegs, hat Miche alles in seinem Repertoire. Bei s\u00e4mtlichen Angeboten kann ein Catering dazu gebucht werden. Die eint\u00e4gige Mostindien-Velotour ist Miches Prunkst\u00fcck und kombiniert alles, wof\u00fcr der Thurgau bekannt ist: Regionale Spezialit\u00e4ten schlemmen im Wasserschloss Hagenwil, Einblicke ins Safthandwerk der Mosterei M\u00f6hl gewinnen und herrliche Aussichten auf dem Seer\u00fccken geniessen ist hier angesagt. Gem\u00fctlichkeit hat bei dieser Tour den Vorrang.</p>", "url": "http://www.bikeguidemiche.ch", "image": "https://tgtpimtsoch.sos-ch-dk-2.exoscale-cdn.com/catalog/7/9/6/b/796bbb670f57669a111e5525b8aa51f0de0de9ce_IMG_4563__2.jpeg", "openstreetmap_id": "node/12299388438"}, "geometry": {"type": "Point", "coordinates": ["9.263039", "47.5613516"]}}, {"type": "Feature", "properties": {"identifier": "10d2a394-db4e-4160-aea6-79348f665450", "name": "Ch\u00e4s Paradies \u2013 Waldfondue \u2013 Erlebnis K\u00e4serei", "description": "Seit 1999 ist es die Leidenschaft des Ch\u00e4s Paradieses den Menschen den Genuss von K\u00e4se n\u00e4her zu bringen. Sei das bei dem originalen Waldfondue, der Erlebnis K\u00e4serei oder einem auf Wunsch massgeschneiderten K\u00e4se-Event. \n\nDas Waldfondue ist zu jeder Jahreszeit ein Hit. Die traditionelle Schweizer Speise wird \u00fcber dem offenen Feuer an einer Location nach Wahl zubereitet. Gerne werden auch Ap\u00e9ropl\u00e4ttli, Gl\u00fchmost oder andere Getr\u00e4nke angeboten. Der Anlass ist ideal f\u00fcr Familienfeste, Schulausfl\u00fcge, Vereinstreffen und Firmenfeiern.\n\nZusammen mit dem K\u00e4sermeister stellen die G\u00e4ste in der mobilen Erlebnis K\u00e4serei ihren eigenen K\u00e4se her. Ob ans Seeufer, in den Wald oder in mitten der Reben, das Ch\u00e4s Paradies kommt an den jeweiligen Lieblingsplatz. Ideal f\u00fcr Schulklassen, Team Building, Firmen- und Vereinsanl\u00e4sse.\n\nNeben den betreuten Events werden auch Bistrofondue-Tische, Caquelonfondue-Sets und Raclette\u00f6fen f\u00fcr gr\u00f6ssere Anl\u00e4sse vermietet.", "url": "http://www.chaes-paradies.ch/", "image": "https://tgtpimtsoch.sos-ch-dk-2.exoscale-cdn.com/catalog/6/1/3/3/61334b2db869f8b88fe02e283b36fa3ec414adb3__MG_8218.jpg", "openstreetmap_id": "node/10092416850"}, "geometry": {"type": "Point", "coordinates": ["8.8889779", "47.5887253"]}}, {"type": "Feature", "properties": {"identifier": "10dabd83-4534-4e12-9134-6f014d2b68ed", "name": "Ranger Senn", "description": "<p>Die gef\u00fchrten Touren bieten eine ideale M\u00f6glichkeit, die Natur in Gruppen bis maximal 20 Personen zu erleben \u2013 sei es bei einem Teamausflug, einer Familienaktivit\u00e4t oder einem Angebot f\u00fcr naturinteressierte Gruppen. Unter fachkundiger Leitung vermittelt Therry Senn auf lebendige Weise faszinierendes Wissen \u00fcber die heimische Tier- und Pflanzenwelt. Jede Exkursion wird individuell geplant und auf die Bed\u00fcrfnisse der Gruppe abgestimmt. So entstehen pers\u00f6nliche, unvergessliche Momente draussen in der Thurgauer Landschaft \u2013 nah an der Natur und mit allen Sinnen erfahrbar.</p>", "url": "https://ranger-senn.ch/", "image": "https://tgtpimtsoch.sos-ch-dk-2.exoscale-cdn.com/catalog/1/9/c/5/19c58ff22bd076620a3083816218dc0f2f087e13_Ranger_Senn_1.jpg", "openstreetmap_id": "node/12759060992"}, "geometry": {"type": "Point", "coordinates": ["8.8557205", "47.537706"]}}, {"type": "Feature", "properties": {"identifier": "12730619-68ac-4f18-b58b-6d2fd374eea5", "name": "Stadtf\u00fchrungen Diessenhofen", "description": "<p>Die Stadtf&uuml;hrungen Diessenhofen umfassen eine Auswahl thematisch unterschiedlicher Rundg&auml;nge zur Geschichte, Architektur und gesellschaftlichen Entwicklung der Stadt. Die historische Altstadt von Diessenhofen bildet den r&auml;umlichen Rahmen der F&uuml;hrungen. Zentrale Orte, pr&auml;gende Bauwerke und ausgew&auml;hlte historische Zusammenh&auml;nge werden sachlich und &uuml;bersichtlich vermittelt. Die F&uuml;hrungen sind sowohl f&uuml;r private Gruppen buchbar als auch an &ouml;ffentlichen Terminen zug&auml;nglich. Die Lage am Rhein hat die Entwicklung des St&auml;dtchens wesentlich gepr&auml;gt und ist Bestandteil der inhaltlichen Schwerpunkte.</p>", "image": "https://tgtpimtsoch.sos-ch-dk-2.exoscale-cdn.com/catalog/e/e/5/7/ee574952c4c2f26823ada4382886e2b34bb5cbd4_20250404_072845.jpg"}, "geometry": {"type": "Point", "coordinates": ["8.7492673", "47.6875317"]}}, {"type": "Feature", "properties": {"identifier": "5100bc2f-31c1-4bfc-a2f0-63e7b125443b", "name": "Golfsession", "description": "Diese neue Art des Golfens kann von allen ohne Vorkenntnisse gespielt werden. Wie der Name schon sagt, wird in urbaner Umgebung wie z.B. auf Gr\u00fcnfl\u00e4chen, industriellen Brachfl\u00e4chen, in Kiesgruben, in der Stadt etc. gespielt. Und anstatt auf ein konventionelles Loch zielt man mit den weichen B\u00e4llen auf ein Einkaufsw\u00e4geli, Strassenschild oder auf was auch immer die Umgebung zu bieten hat (sofern ungef\u00e4hrlich). Nach einer kurzen Einf\u00fchrung in die Regeln des Urban Golf werden erste Probeschl\u00e4ge ge\u00fcbt an selbst gew\u00e4hlten oder vom Urban-Golf-Team organisierten Locations (z.B. Kiesgrube, Park, o.\u00e4.). Jeder Teilnehmende erh\u00e4lt dazu einen Schl\u00e4ger und ein City Golf-Startset. In verschiedenen Gruppen wird dann der Parcours, der \u00fcblicherweise aus 9 \u00abL\u00f6chern\u00bb besteht, bespielt. Auf Wunsch mit Ap\u00e9ro w\u00e4hrend der Einf\u00fchrung oder nach der Rangverk\u00fcndigung.", "url": "http://www.golfsession.ch/", "image": "https://tgtpimtsoch.sos-ch-dk-2.exoscale-cdn.com/catalog/0/0/e/b/00ebf741a44b0cda4e463347bd8e3b798478ee49_Golfsession_urbangolf.jpg", "openstreetmap_id": "way/222031848"}, "geometry": {"type": "Point", "coordinates": ["8.89412080220134", "47.5537793"]}}, {"type": "Feature", "properties": {"identifier": "674fe10f-513f-45e8-b809-2cce7b36c4d4", "name": "Bikeness - Mountainbiketouren und Technikkurse", "description": "Bikeness aus T\u00e4gerwilen bietet individuelle Tages-, Halbtages- oder Abendtouren an. Die Region wird auf dem Bike erkundet und dem Gast n\u00e4her gebracht. Unterwegs sind keine langen Auf- und Abstiege zu meistern. Teilweise f\u00fchrt die Strecke vorbei an Sehensw\u00fcrdigkeiten wie Burgen und Schl\u00f6sser. Bei einem Mittaghalt k\u00f6nnen sich die G\u00e4ste von der regionale K\u00fcche verw\u00f6hnen lassen. Die Region des Untersees mit seinen W\u00e4ldern begeistert immer wieder von Neuem. \n\nEs k\u00f6nnen Fahrtechnikkurse gebucht werden, welche auf das K\u00f6nnen des Gastes zugeschnitten werden. Willkommen sind Erwachsene und Kinder.", "url": "https://www.bikeness.ch", "image": "https://tgtpimtsoch.sos-ch-dk-2.exoscale-cdn.com/catalog/2/e/4/9/2e49693d610b3a1d57d7789774ad0822abca2045_IMG_20220814_151007_resized_20230516_053644731__2.jpg", "openstreetmap_id": "way/103330107"}, "geometry": {"type": "Point", "coordinates": ["9.1452102", "47.6516816"]}}, {"type": "Feature", "properties": {"identifier": "6a4e8d2a-3115-4c0d-bf59-5eaa88c3d379", "name": "Kunst & Wein am Iselisberg", "description": "Auf dem Erlebnispfad Kunst & Wein am Iselisberg entdecken G\u00e4ste Skulpturen bekannter K\u00fcnstler in Kombination mit Wein und Hintergrundinformationen \u00fcber dessen Anbau. Von Anfang Mai bis Ende Oktober s\u00e4umen 23 Skulpturen den Wanderweg hinauf auf den Iselisberg, ein bekanntes Weinbaugebiet der Region Frauenfeld. Der ausgeschilderte, rund zweist\u00fcndige Rundweg f\u00fchrt von Uesslingen \u00fcber Dietingen nach Iselisberg und verw\u00f6hnt Wandernde mit ruhiger Natur und malerischen Blicken auf das Thurtal bis in die Alpen. \u00dcber den exzellenten Wein, der hier angebaut wird, erz\u00e4hlen Tafeln entlang des Weges. Und nat\u00fcrlich gilt: Probieren geht \u00fcber Studieren. Die edlen Tropfen werden am besten grad pers\u00f6nlich bei einem Winzer oder in einem Restaurant entlang des Weges degustiert.\n\nAls Wegbegleiter k\u00f6nnen die Wanderer und Geniesserinnen neu einen passenden Degustationsrucksack kaufen. Dieser ist best\u00fcckt mit Wein, Wasser, Gl\u00e4ser, Flyer zur Route und knusprigen Grissini.", "url": "https://www.kunstundwein-iselisberg.ch/", "image": "https://tgtpimtsoch.sos-ch-dk-2.exoscale-cdn.com/catalog/8/0/9/1/80910b1c465a51f054f1c1c27f96b7e7aef2f883_Iselisberg_Kunst_und_Wein_Wolkenstimmung.jpg", "openstreetmap_id": "way/347982055"}, "geometry": {"type": "Point", "coordinates": ["8.831623792648317", "47.58030389971708"]}}, {"type": "Feature", "properties": {"identifier": "9e97ddb5-b8f2-44b7-9e9c-f1b417494c18", "name": "Genial Delikat", "description": "<p>Ob Firmenanlass, privates Fest oder Teamevent \u2013 Genial Delikat entwickelt massgeschneiderte Veranstaltungskonzepte mit viel Liebe zum Detail. Im Mittelpunkt stehen dabei individuelle Inszenierungen, die Professionalit\u00e4t, Design und Gastfreundschaft vereinen. Das kulinarische Herzst\u00fcck bildet das regionale und saisonale Catering, das mit bewusst ausgew\u00e4hlten Zutaten begeistert. Erg\u00e4nzt wird das Angebot durch selbergemachte Delikatessen und den hauseigenen Gin \u2013 ein aromatisches Highlight mit pers\u00f6nlicher Note. Der Standort in Romanshorn \u2013 urban, naturnah und direkt am Bodensee gelegen \u2013 unterstreicht den besonderen Charakter der Agentur. Genial Delikat steht f\u00fcr durchdachte Erlebnisse, die Genuss, \u00c4sthetik und Nachhaltigkeit harmonisch verbinden \u2013 mit Wurzeln im Thurgau und Ausstrahlung weit \u00fcber die Region hinaus.</p>", "url": "https://genialdelikat.ch/", "image": "https://tgtpimtsoch.sos-ch-dk-2.exoscale-cdn.com/catalog/4/d/a/7/4da7584f4b5d322fc2b1b96a0e4900cade69e8e5_Genial_Delikat_Eventagentur_Gallery_852.jpg", "openstreetmap_id": "way/423641804"}, "geometry": {"type": "Point", "coordinates": ["9.3697625", "47.557274"]}}, {"type": "Feature", "properties": {"identifier": "a164dd59-7562-4c94-9aaa-d330ca942721", "name": "Eurotrek: Rundfahrt Ostschweiz", "description": "Diese Rundtour ab Schaffhausen f\u00fchrt Velofahrende innerhalb von vier Tagen an die sch\u00f6nsten Flecken der Ostschweiz. Hier ein Apfelkuchen, dort ein Sauerbraten, zum Gl\u00fcck ist der Thurgau h\u00fcgelig, so k\u00f6nnen G\u00e4ste die kulinarischen H\u00f6henfl\u00fcge mit gutem Gewissen geniessen. Doch die Liebe geht nicht nur durch den Magen. Die Ausblicke auf den silbrig-blauen Bodensee verzaubern bei der Fahrt \u00fcber den Seer\u00fccken nach Kreuzlingen und weiter nach Arbon. Schmucke Riegelh\u00e4user und die beschwingte Rosenstadt Bischofszell sind architektonische Ausrufezeichen auf der weiteren Route. Die letzte Etappe f\u00fchrt \u00fcber Weinfelden und durch die Rebberge zur\u00fcck nach Schaffhausen.  \n\nDas Package von Eurotrek beinhaltet unter anderem 3 \u00dcbernachtungen mit Fr\u00fchst\u00fcck, t\u00e4gliche Gep\u00e4cktransfers, Reiseunterlagen und Eintritte. Leihr\u00e4der k\u00f6nnen dazu gemietet werden.", "url": "https://www.eurotrek.ch", "image": "https://tgtpimtsoch.sos-ch-dk-2.exoscale-cdn.com/catalog/e/5/d/0/e5d034d875cfd23cd90611ca5ec291ae0d24e55d_Maerstetten_Ostschweizer_Weinroute_Rebberge_ST_Herbstkampagne_21.jpg", "openstreetmap_id": "way/118263557"}, "geometry": {"type": "Point", "coordinates": ["8.396726150000006", "47.4190944"]}}, {"type": "Feature", "properties": {"identifier": "a8b3db11-350d-4eed-ba15-bcda4bb33b75", "name": "Kornhaus Romanshorn", "description": "<p>Das Kornhaus Romanshorn ist ein markantes Wahrzeichen im Hafen von Romanshorn und verbindet historische Architektur mit vielf&auml;ltigen Erlebnissen am Bodensee. Das ehemalige Lagerhaus wurde sorgf&auml;ltig restauriert und beherbergt heute Ausstellungsfl&auml;chen, &Uuml;bernachtungsm&ouml;glichkeiten sowie italienische Gastronomie. <br>Ein besonderer Anziehungspunkt sind die grossz&uuml;gigen Ausstellungsfl&auml;chen. Das Kornhaus ist bekannt f&uuml;r abwechslungsreiche Themenwelten und Ausstellungen aus verschiedenen Bereichen, darunter Modellwelten und digitale Kunst (z. B. PLAYMOBIL-, LEGO- oder Digital-Arts-Ausstellungen). Die R&auml;umlichkeiten eignen sich zudem f&uuml;r private und gesch&auml;ftliche Veranstaltungen. <br>F&uuml;r Aufenthalte am Bodensee stehen Ferienwohnungen sowie m&ouml;blierte Appartements f&uuml;r l&auml;ngere Aufenthalte zur Verf&uuml;gung. Erg&auml;nzt wird das Angebot durch das Ristorante Porto mit Seeterrasse direkt am Hafen. Die Kombination aus Kultur, Genuss und Unterkunft macht das Kornhaus Romanshorn zu einem vielseitigen Ausflugs- und Aufenthaltsort in der Region Thurgau.</p>", "url": "https://www.kornhaus-romanshorn.ch", "image": "https://tgtpimtsoch.sos-ch-dk-2.exoscale-cdn.com/catalog/c/3/2/6/c326f09965188a83536026078c376b509c456bcf_1_Kornhaus_Romanshorn_210923_159.jpg"}, "geometry": {"type": "Point", "coordinates": ["9.3817187", "47.5644612"]}}, {"type": "Feature", "properties": {"identifier": "c86ad7aa-4553-4a85-9f6a-674894ae6852", "name": "blaswerk Musik Haag", "description": "In der \u00abgl\u00e4sernen\u00bb Werkstatt wird hautnah erlebt wie Blechblasinstrumente oder Klarinetten entstehen. Auch Nichtmusiker k\u00f6nnen in die Welt einer jahrhundertalten Handwerkertradition eintauchen und staunen wie Instrumente entstehen. Wer Lust hat, kann auch selbst Hand anlegen und sich im Instrumentenbau versuchen. In der Werkstatt kann dem Instrumentenbauer \u00fcber die Schultern geschaut und dabei einige Geheimisse des Instrumentenbaus kennengelernt werden. Das ganze wird multimedial unterst\u00fctzt. Auch Workshops f\u00fcr Musiker zum Thema Instrumentenpflege oder Mundst\u00fcckworkshops werden in den R\u00e4umen durchgef\u00fchrt.", "url": "https://www.blaswerkhaagshop.ch/", "image": "https://tgtpimtsoch.sos-ch-dk-2.exoscale-cdn.com/catalog/4/f/1/5/4f15ba1dfc18b9c0b321417538a0ec159edddcf7_BlaswerkHaag35.jpg", "openstreetmap_id": "node/7279876941"}, "geometry": {"type": "Point", "coordinates": ["9.0988037", "47.5696512"]}}, {"type": "Feature", "properties": {"identifier": "e3371ac4-e48b-4406-bd4c-f0be3687aeed", "name": "Around The Bodensee CleanUp", "description": "Das Grosse Around the Bodensee CleanUp findet in der See- und Nichtsee-Region vom Kanton Thurgau und rund um den Bodensee f\u00fcr zwei Monate statt. Das Projekt ist jeweils im Herbst, da dann keine Brutzeit ist.\n \nTermine und Orte k\u00f6nnen auf Wunsch und Anmeldung individuell gew\u00e4hlt werden.\n \nVor Ort werden geboten: Einf\u00fchrung, Abschluss, Ausr\u00fcstung, jahrelange Erfahrung im In- und Ausland, Jahresfilm und Fotografie (nat\u00fcrlich nur bei Einwilligung), Zn\u00fcni/Jausen, Teilnehmerprojekt usw.\n\nEs ist sch\u00f6n, gemeinsam Gutes f\u00fcr die Umwelt zu tun und neue Erinnerungen zu schaffen.", "url": "https://aroundthebodenseecleanup.org", "image": "https://tgtpimtsoch.sos-ch-dk-2.exoscale-cdn.com/catalog/5/7/3/4/5734051c5372fdee77fb98640e3c3a206635ed53_DSC06052.JPG", "openstreetmap_id": "relation/1684503"}, "geometry": {"type": "Point", "coordinates": ["9.0179057", "47.6742604"]}}, {"type": "Feature", "properties": {"identifier": "e817272c-f627-49fe-ba88-5e780cc92584", "name": "F\u00fchrung Stadtdetektive Arbon", "description": "Gross und Klein begeben auf eine spannende Zeitreise durch Arbon. Die jungen Sp\u00fcrnasen st\u00f6bern w\u00e4hrend eineinhalb Stunden unheimliche Orte und versteckte Ecken auf und erforschen so auf spielerische Art und Weise die Altstadt. Welche Schuhgr\u00f6sse hatte Gallus? Wie lebten die R\u00f6mischen Kinder? Wie besuchten Asterix und Obelix die Stadt Arbon? Diesen und vielen anderen R\u00e4tseln und Geheimnissen sind die Stadtdetektive auf der Spur. Die F\u00fchrung kostet pauschal CHF 150.00 bis 25 Personen und ist f\u00fcr Kinder im Alter von 6 bis 9 Jahren gedacht. Die Kinder m\u00fcssen in Begleitung von mindestens einer erwachsenen Person sein.", "url": "https://thurgau-bodensee.ch/", "image": "https://tgtpimtsoch.sos-ch-dk-2.exoscale-cdn.com/catalog/0/0/4/f/004ffe452cb7c9eef0b0a610e966cc9b24e72855_F__hrung_Stadtdetektive_1.jpeg", "openstreetmap_id": "way/767706123"}, "geometry": {"type": "Point", "coordinates": ["9.43548182884779", "47.51648985"]}}, {"type": "Feature", "properties": {"identifier": "fbb4832c-79fe-487d-8049-388445011308", "name": "Street Art F\u00fchrung", "description": "<p>Im Sommer 2023 verwandelte sich ganz Frauenfeld in eine riesige Open-Air-Galerie f&uuml;r Besucher jeden Alters &ndash; und auch letzten Sommer lud die thurgauische Kantonshauptstadt erneut zum Staunen ein! Renommierte nationale K&uuml;nstler wie Bane, One Truth und LPVDA sowie zahlreiche weitere Schweizer Kunstschaffende haben die Stadt mit beeindruckenden Wandgem&auml;lden, Fresken und Installationen bereichert.</p><p>Wer mit einer Gruppe tiefer in die Welt der Frauenfelder Street Art eintauchen m&ouml;chte, kann eine spannende, rund 90-min&uuml;tige F&uuml;hrung buchen. Dabei werden die H&ouml;hepunkte der aktuellen und vergangenen Freiluft-Ausstellung gezeigt und erl&auml;utert.</p><p>Die Street Art Tour kostet pauschal CHF 220.&ndash; f&uuml;r Gruppen bis zu 25 Personen.</p><p>Optional kann ein alkoholfreier Abschlussdrink dazugebucht werden &ndash; dieser ist f&uuml;r CHF 5.&ndash; pro Person erh&auml;ltlich.</p><p>Lieber gleich selbst Hand anlegen? Workshops sinde ebenfalls buchbar, mehr Infos gibt's hier: <a href=\"https://thurgau-bodensee.ch/maps/street-art-workshop-inkl-fuhrung-b5e22c40-b194-4057-b4d5-e47fbcf1fd0f.html\">Street Art Workshop inkl. F&uuml;hrung</a>.</p><p>Weitere Infos zur Street Art in Frauenfeld: <a href=\"https://www.isaff.ch/festival2025/fuhrungen-workshops-vortrage-2025\" target=\"_blank\" rel=\"noopener noreferrer\">isaff.ch</a></p>", "url": "https://www.isaff.ch/street-art-tour-fuhrungen", "image": "https://tgtpimtsoch.sos-ch-dk-2.exoscale-cdn.com/catalog/7/f/6/0/7f609e68c589038dc438008e97be190d0bb7aaca_Foto_F__hrung.jpg", "openstreetmap_id": "node/1532558657"}, "geometry": {"type": "Point", "coordinates": ["8.8965359", "47.5580736"]}}, {"type": "Feature", "properties": {"identifier": "ff0ba13d-d6db-430a-b4f2-60642f034c82", "name": "Bernina Creative Center", "description": "Wie der Name schon sagt, dreht sich im Bernina Creative Center alles um den kreativen Umgang mit Textilien. Nebst Informationen zu den Bernina N\u00e4hmaschinenprodukten f\u00fcr Kaufinteressierte werden hier inspirierende Kurse angeboten. Die Workshops umfassen Themen wie N\u00e4hen, Sticken, Textilkunst und Quilten. Hilfreiche Tipps und Tricks werden von erfahrenen und anerkannten Kursleitenden verraten. Teilnehmende haben das Privileg, mit den neusten N\u00e4h-, Overlock- und Quiltmaschinen aus dem Steckborner Bernina-Werk zu arbeiten. Das aktuelle Programm ist ersichtlich auf der Bernina-Homepage: https://kurse.bernina.com", "url": "http://kurse.bernina.com/", "image": "https://tgtpimtsoch.sos-ch-dk-2.exoscale-cdn.com/catalog/3/d/0/0/3d00c3243c354785d30ee552ea511a7cbcc951fa_bernina_creative_center_1.jpg", "openstreetmap_id": "215784640.0"}, "geometry": {"type": "Point", "coordinates": ["8.97589", "47.66226"]}}]}