{"type": "FeatureCollection", "features": [{"type": "Feature", "properties": {"identifier": "05b07de1-47b6-473f-9f8e-2195e96d8822", "name": "Gottlieber Seecaf\u00e9 & Manufakturladen", "description": "F\u00fcr viele Schokoladen- und Spezialit\u00e4tenliebhaber gelten Gottlieber H\u00fcppen und Gottlieber Produkte als feinste Leckerbissen. Sie geh\u00f6ren zum kulinarischen Erbe der Schweiz. Die bekannte Gottlieber Konditorkunst wird im inhabergef\u00fchrten Manufakturbetrieb gepflegt und stetig verfeinert. Die hauchzarten warmen Cr\u00eapes, nicht dicker als 0,7 mm, werden immer noch wie fr\u00fcher einzeln gebacken und einzeln wie das Blatt einer wertvollen Havanna-Zigarre gerollt. Das geschieht ganz vorsichtig und genau, wie von Hand.\n\nIm Gottlieber Seecaf\u00e9 mit Manufakturladen k\u00f6nnen s\u00e4mtliche Gottlieber Spezialit\u00e4ten wie H\u00fcppen, Cacaomandeln und Schokolade eingekauft werden. Gem\u00fctliche Momente erleben die Besucher in sch\u00f6nem Ambiente auf der wundersch\u00f6nen Seeterrasse bei einem k\u00fchlen Bier, Champagner oder einem guten Glas Wein. Aber auch an nebligen Herbst- und Wintertagen k\u00f6nnen G\u00e4ste die Seele baumeln lassen und das fliessende Wasser des Seerheins bei einer heissen und duftenden Tasse Kaffee beobachten.", "url": "https://www.gottlieber.ch/de/shops-cafes/seecafe-gottlieben", "image": "https://tgtpimtsoch.sos-ch-dk-2.exoscale-cdn.com/catalog/e/6/1/3/e613ceac5571fddba07dc75be1abeb4883d56564_Titelbild_Seecafe.jpg", "openstreetmap_id": "node/503492050"}, "geometry": {"type": "Point", "coordinates": ["9.1323091", "47.6650975"]}}, {"type": "Feature", "properties": {"identifier": "06354418-3b46-41cc-9496-7fc6e674864d", "name": "Weingut T\u00fcrmliwy", "description": "Bereits in der vierten Generation bewirtschaftet Familie L\u00f6pfe den idyllisch gelegenen Hof Thalacker in Buchackern. Rund um das Anwesen wachsen \u00fcber drei Hektaren Reben, die mit viel Liebe, Sachverstand und in Verbundenheit mit der Natur gepflegt werden. Die umsichtige Anbauweise spiegelt sich auch in der Qualit\u00e4t der T\u00fcrmlyprodukte wieder: Die preisgekr\u00f6nten Weine \u00fcberzeugen mit ehrlichem Stil, klarem Geschmack und einer geraden Linie. An Degustationstagen, kleinen Festen bis zu 20 Personen oder Degustationen mit Rebbergf\u00fchrungen entdecken G\u00e4ste das Weingut und kommen in den Genuss der edlen Tropfen, die es hervorbringt. Eine Freude f\u00fcr Herz und Gaumen f\u00fcr alle Weinliebhabenden.", "url": "https://www.tuermliwy.ch/", "image": "https://tgtpimtsoch.sos-ch-dk-2.exoscale-cdn.com/catalog/c/8/a/6/c8a6e1815194c4c5d0f79c8a8501ad1db5bb4a53_IMG_3514.JPG", "openstreetmap_id": "node/3523611852"}, "geometry": {"type": "Point", "coordinates": ["9.224717617034914", "47.53880347298692"]}}, {"type": "Feature", "properties": {"identifier": "06ac682f-23ad-431f-8c66-eb71c2704f81", "name": "Str\u00e4hl K\u00e4se", "description": "Was 1934 als Einmann-Betrieb begonnen hatt, entwickelte sich bis heute zu einem dynamischen Familienunternehmen mit rund 70 Mitarbeitenden. Das handwerkliche Geschick steht im Vordergrund, wenn es darum geht, die verschiedenen K\u00e4se-Spezialit\u00e4ten mit aufw\u00e4ndiger Pflege zum optimalen Reifegrad zu begleiten. Die meisten K\u00e4sesorten kennt man weit \u00fcber die Kantonsgrenze. Kein Wunder, denn t\u00e4glich werden im kleinen Dorf bis zu 150'000 Liter Thurgauer Kuhmilch zu feinem K\u00e4se verarbeitet.\n\nProdukte\nDie \u00e4ltere Generation erinnert sich noch an den \u00abStr\u00e4hl-Ch\u00e4s\u00bb \u2013 so nannten die Thurgauer den gr\u00fcnen Tilsiter. Heute trifft man in fast allen guten K\u00e4sevitrinen auf viele weitere Spezialit\u00e4ten mit Namen wie Thurgauer Rahmk\u00e4se, Echter Thurgauer, Bonaparte, Bonapepe, Arenenberger, Farmer, Landrauchk\u00e4se, Valbella K\u00fcmmelk\u00e4se oder ausgezeichneter Raclette-K\u00e4se in 4 Sorten.", "url": "https://www.straehl.ch", "image": "https://tgtpimtsoch.sos-ch-dk-2.exoscale-cdn.com/catalog/8/4/3/8/84386785380514f095364e74965596f293661bfb_Str__hl_K__se_AG_K__sekeller_mit_Person.jpg", "openstreetmap_id": "4171946489.0"}, "geometry": {"type": "Point", "coordinates": ["9.1676012", "47.6109626"]}}, {"type": "Feature", "properties": {"identifier": "07f21f72-2e02-41a0-8b45-f1b4864c1aef", "name": "Giusis Restaurant & Palaver Bar", "description": "<p data-start=\"348\" data-end=\"607\">Giusis Restaurant begeistert mit frischer, saisonaler K&uuml;che und einer einmaligen Atmosph&auml;re. Der kulinarische Geheimtipp im Herzen von Amriswil liegt nur wenige Schritte vom Bahnhof entfernt &ndash; ideal f&uuml;r G&auml;ste, die nachhaltig mit dem Zug in den Thurgau reisen. Das stilvolle, gem&uuml;tliche Ambiente, die herzliche Gastfreundschaft und die feinen Gerichte aus regionalen Zutaten lassen den Alltag vergessen. Ob f&uuml;r die Mittagspause, einen entspannten Abend oder eine Familienfeier &ndash; im Giusis in Amriswil findet man f&uuml;r jede Gelegenheit das passende kulinarische Erlebnis.&nbsp;Die vielseitigen R&auml;umlichkeiten eignen sich perfekt f&uuml;r unvergessliche Momente &ndash; sei es ein Ausflug mit der Familie oder ein festlicher Anlass. An warmen Tagen l&auml;dt die idyllische Gartenterrasse zum Verweilen ein. Direkt nebenan &uuml;berrascht die stilvolle Palaver Bar mit einer feinen Auswahl an erlesenen Weinen. Ob ein Glas nach Feierabend oder eine exklusive Weinverkostung &ndash; hier kommen alle auf ihre Kosten, die Wein lieben.</p>", "url": "https://www.giusisamriswil.ch", "image": "https://tgtpimtsoch.sos-ch-dk-2.exoscale-cdn.com/catalog/8/2/4/f/824f06a5d5371d7e331b843ab8236b0464ba0dcf_Bild_Amriswil.jpg", "openstreetmap_id": "way/279350590"}, "geometry": {"type": "Point", "coordinates": ["9.302375", "47.5494085"]}}, {"type": "Feature", "properties": {"identifier": "080963d0-9350-4826-9441-28dab02c2056", "name": "US-MEX Terraza Kreuzlingen", "description": "In der grossz\u00fcgigen Strandbar direkt am Bodensee und an der Grenze zu Deutschland lassen sich die Sommertage und lauen Sommern\u00e4chte genussvoll erleben und den Alltag vergessen. Es erwarten die G\u00e4ste erfrischende Ap\u00e9ros und s\u00fcffige Drinks bei unvergesslichen Sonnenunterg\u00e4ngen. Nat\u00fcrlich im gewohnten US-MEX Style: Grossz\u00fcgige Portionen zu fairen Preisen bei hoher Qualit\u00e4t.\n\nDie US-MEX Terraza Kreuzlingen ist von April bis September bei gutem Wetter t\u00e4glich ge\u00f6ffnet. Informationen \u00fcber den \u00d6ffnungsstatus sind auf der Website oder Facebookseite zu finden.\n\nEine weitere US-MEX Terraza ist in Steckborn am Untersee sowie in Frauenfeld an der Murg zu finden. Das dazugeh\u00f6rige US-MEX Restaurant gibt es an vier weiteren Standorten: Frauenfeld, Schaffhausen, St. Gallen, Weinfelden.\n\nHinweis: Das US-MEX ist keine Einl\u00f6sestelle des Thurgau-Gutscheins.", "url": "https://www.usmex.ch/terraza-strandbar/welcome/", "image": "https://tgtpimtsoch.sos-ch-dk-2.exoscale-cdn.com/catalog/d/4/c/5/d4c5488d2a5453dfc9383e2b2e5da659049ec265_usmex_terraza_kreuzlingen_terrasse.jpg", "openstreetmap_id": "node/108817940"}, "geometry": {"type": "Point", "coordinates": ["9.182043671607973", "47.655451937808"]}}, {"type": "Feature", "properties": {"identifier": "09479141-0244-487e-9f23-c0da708aea60", "name": "Biotta ", "description": "In der Biotta Saftmanufaktur im Thurgauischen T\u00e4gerwilen werden direkt gepresste, naturbelassene S\u00e4fte und Smoothies hergestellt. Dabei stehen die biologische Ausrichtung, hohe Qualit\u00e4tsstandards und der Genuss im Vordergrund. Wenn immer m\u00f6glich, bezieht Biotta seine Rohstoffe von lokalen Bauern. Mit den Anbaupartnern in der Region aber auch im Ausland werden langj\u00e4hrige und vertrauensvolle Beziehungen gepflegt. Ergebnis sind geschmackvolle gesunde Frucht- und Gem\u00fcses\u00e4fte, Smoothies, Shots und gar eine nat\u00fcrliche Alternative von Energydrink. \n\nVom Feld in die Flasche und in die Verkaufsregale von Schweizer Superm\u00e4rkten und Drogerien. Die leckeren Biottas\u00e4fte sind auch in diversen Online-Shops erh\u00e4ltlich.", "url": "https://biotta.ch/de/", "image": "https://tgtpimtsoch.sos-ch-dk-2.exoscale-cdn.com/catalog/a/5/1/f/a51f3e34e29976cafd79a7fd9fb75648c9f03f0e_Biotta_Vita_7.png", "openstreetmap_id": "194559103.0"}, "geometry": {"type": "Point", "coordinates": ["9.138273", "47.655565"]}}, {"type": "Feature", "properties": {"identifier": "0b6835b4-cc7c-4fd3-b0ee-070de9453316", "name": "US-MEX Lake House", "description": "<p>Das US-MEX Lake House in Arbon im Kanton Thurgau liegt direkt am Bodensee beim Seeparksaal und steht f&uuml;r unkomplizierten Genuss, Seeblick und entspannte Atmosph&auml;re.</p><p>Aktuell wird der Standort als Warm-Up Betrieb mit Aussenkonzept gef&uuml;hrt: Barcontainer, Foodtruck, gem&uuml;tliche Sitzgelegenheiten und die Terrasse am See machen bereits erlebbar, was sp&auml;ter als festes US-MEX Restaurant und Seeterrasse weitergef&uuml;hrt wird. Der Warm-Up Betrieb ist nur bei sch&ouml;nem Wetter ge&ouml;ffnet.</p><p>Die Lage direkt am Wasser, die Aussicht auf den Bodensee und die N&auml;he zum Seeparksaal machen das US-MEX Lake House zu einem attraktiven Treffpunkt f&uuml;r Einheimische, Ausfl&uuml;gler, Spazierg&auml;nger und G&auml;ste in Arbon. Im Fokus stehen entspannte Sundowner-Stimmung, unkomplizierte US-MEX Kulinarik und eine moderne Gastronomie-Erfahrung am See.</p>", "url": "https://www.usmex-lakehouse.ch", "image": "https://tgtpimtsoch.sos-ch-dk-2.exoscale-cdn.com/catalog/8/8/7/8/88786eb6826aae081bdbe79538fd03e1d9e59682_260716_usmex_lakehouse.jpg", "openstreetmap_id": "way/123850631"}, "geometry": {"type": "Point", "coordinates": ["9.433559", "47.5193278"]}}, {"type": "Feature", "properties": {"identifier": "12a307a8-d577-4f99-9bdb-367fd992dd94", "name": "Veranda Arbon", "description": "<p>Im Veranda gibt es ein kleines und feines Angebot mit frischen, regionalen und saisonalen Zutaten. Zudem werden auch Fingerfood-Lovers mit knusprig frittierten Leckereien serviert. Eine grosse Auswahl an sommerlichen Drinks mit und ohne Alkohol findet man nat\u00fcrlich auch auf der Karte. Hello Sunshine! Die Sonntags-Langschl\u00e4fer d\u00fcrfen ihren ersten Kaffee auf der Veranda trinken. Von 10 bis 13.30 Uhr gibts dazu sogar noch hausgemachtes Bircherm\u00fcesli, Zmorge Bagel oder Gipfeli.</p>", "url": "https://verandaarbon.ch/", "image": "https://tgtpimtsoch.sos-ch-dk-2.exoscale-cdn.com/catalog/8/1/f/9/81f9aed73e7d27f429974a9194beb1ebff82062f_hauptbild.jpg", "openstreetmap_id": "node/12299503706"}, "geometry": {"type": "Point", "coordinates": ["9.4343397", "47.5113927"]}}, {"type": "Feature", "properties": {"identifier": "152c4a82-ab06-402f-ba5a-edebd8dca2aa", "name": "Weingut Schmid", "description": "Im thurgauischen Schlattingen bewirtschaftet das Weingut rund 6 Hektar Reben. Auf dem idyllischen Familienbetrieb werden alle Arbeitsschritte von der Rebe bis ins Glas vereint, die einzigartigen Weine wurden schon mehrfach national und international ausgezeichnet.", "url": "http://www.weingut-schmid.ch", "image": "https://tgtpimtsoch.sos-ch-dk-2.exoscale-cdn.com/catalog/2/c/e/d/2ced2acaa6669eb77a6098cf3705001503129b27_DSC_2628.jpg", "openstreetmap_id": "way/101981340"}, "geometry": {"type": "Point", "coordinates": ["8.7686167", "47.6619907"]}}, {"type": "Feature", "properties": {"identifier": "1637d55b-4c62-4c7d-9499-575b681605f5", "name": "Hafenlounge Romanshorn", "description": "Direkt am F\u00e4hrhafen von Romanshorn k\u00f6nnen die G\u00e4ste in der Hafenlounge auf einem der bequemen Strandst\u00fchle die einfahrenden Schiffe beobachten und erhalten obendrauf eine grandiose Aussicht auf die Bergketten des Alpsteins. Hier kann man von April bis September im Beachsand, in einer gem\u00fctlichen Lounge, oder auf einem der 200 weiteren stilvollen Sitzpl\u00e4tze einen k\u00fchlen Drink geniessen und entspannen. Kulinarisch verw\u00f6hnt werden die G\u00e4ste mit den regionalen und frisch zubereiteten Speisen direkt vom Grill.", "url": "http://hafenlounge.ch/", "image": "https://tgtpimtsoch.sos-ch-dk-2.exoscale-cdn.com/catalog/1/4/4/8/1448bfe06738ee63b09608d64ad691ed6f2277ac_Gro____IMG_0087___4.jpeg", "openstreetmap_id": "node/4784401821"}, "geometry": {"type": "Point", "coordinates": ["9.3808081", "47.5674689"]}}, {"type": "Feature", "properties": {"identifier": "1a8156e2-f397-42e2-8f19-8ebe0ebc6857", "name": "Presswerk Gastronomie & Eventhalle", "description": "Ein historisches Backsteingeb\u00e4ude im Industriestil, weitl\u00e4ufige, lichtdurchflutete Hallen mit hohen Decken und moderner Ausstattung: Das Presswerk in Arbon pr\u00e4sentiert sich als einzigartige Location, gepr\u00e4gt von industriellem Flair und urbaner Romantik. Das zwischen 1905 und 1910 erbaute Geb\u00e4ude diente zuerst der Stickereifabrik Heine bis in die 1940erJahre als Energiezentrale. Danach wurde es von Adolph Saurer gekauft und als Presserei sowie f\u00fcr den Rahmenbau genutzt. Nach einer aufw\u00e4ndigen Renovierung erstrahlt das Industriegeb\u00e4ude seit Ende 2018 in neuem Glanz und richtet sich multifunktional aus. Hier wird getanzt, gefeiert, gegessen und musiziert. Das Presswerk ist heute ein kreativer Treffpunkt mit einem vielf\u00e4ltigen Raumangebot \u2013 sowohl f\u00fcr kulturelle Ereignisse als auch f\u00fcr private Anl\u00e4sse.", "url": "http://www.presswerk-arbon.ch/", "image": "https://tgtpimtsoch.sos-ch-dk-2.exoscale-cdn.com/catalog/f/d/6/3/fd63160a37cf59840c83a7d12a827541aa955dc3_Arbon_Presswerk_Restaurant_7.jpg", "openstreetmap_id": "node/6957952547"}, "geometry": {"type": "Point", "coordinates": ["9.4312402", "47.5101523"]}}, {"type": "Feature", "properties": {"identifier": "1c9f7866-513a-4ac3-a8be-31cf932705ae", "name": "Restaurant Seegarten", "description": "<div>Das Restaurant Seegarten besticht durch die frische Zubereitung der Speisen. In der K\u00fcche verarbeitet Charlie G\u00fcnter Produkte aus der Region: Das Gem\u00fcse stammt von den umliegenden Bauernh\u00f6fen, die Fischer aus der Nachbarschaft sorgen f\u00fcr saisonale Angebote auf der Speisekarte. Besonders anspruchsvolle G\u00e4ste k\u00f6nnen sich auf die t\u00e4glich wechselnden Empfehlungen des Hauses verlassen.</div><div>Im Weinkeller des Seegartens lagern \u00fcber 750 edle Tropfen, ein Drittel davon aus der Schweiz. Die Auswahl umfasst exzellent gelagerte Jahrg\u00e4nge, die sowohl Kenner als auch Geniesser begeistern. </div><div><br></div><div>Die Weinkarte des Restaurants wurde 2002 in die \u00abBest Wine List\u00bb aufgenommen, eine renommierte Liste, in der nur Weinkarten vertreten sind, die im Newsletter \u00abWein Wisser\u00bb mindestens 18 von 20 Punkten erhalten haben. Zurzeit geh\u00f6ren nur 19 Weinkarten in der Schweiz zu dieser exklusiven Auswahl.</div><div><br></div>", "url": "http://www.seegarten.ch/", "image": "https://tgtpimtsoch.sos-ch-dk-2.exoscale-cdn.com/catalog/2/3/5/1/23516d6a01e48af652fb77afe7a49d15ba8fddd4_AF1QipMWTQks51ySbzdz2NfT441Li9i3BBUZgTJLeAni_s1600_h1479.jpg", "openstreetmap_id": "node/461753294"}, "geometry": {"type": "Point", "coordinates": ["9.1957184", "47.6469607"]}}, {"type": "Feature", "properties": {"identifier": "1fc7797e-c3e5-4e82-8b37-6bd39c1cbf47", "name": "Restaurant Miski Takiy  - Peru", "description": "Im Herzen der Altstadt Frauenfelds, umgeben von mittelalterlichen Geb\u00e4uden, liegt das einzige peruanische Restaurant des Kantons Thurgau: Miski-Takiy. Dank des lateinamerikanischen Flairs und der passenden Musik stellt sich bei Besuchenden bald ein exotisches Urlaubsgef\u00fchl ein. G\u00e4ste erleben hier eine kulinarische Entdeckungsreise von der peruanischen K\u00fcste, \u00fcber die Anden bis hin zum Amazonasgebiet, von exotischen Pisco-Cocktails bis hin zu frischen Ceviche. Die Gastgebenden tragen die K\u00fcche ihres Landes im Herzen und in der Seele und haben sich zum Ziel gesetzt, ihre G\u00e4ste durch das w\u00fcrzige, pikante und erfrischende kulinarische Abenteuer ihres Heimatlandes zu f\u00fchren. Peru wurde \u00fcbrigens bei den World Travel Awards bereits zum 10. Mal als \u00abWeltweit f\u00fchrendes kulinarisches Reiseziel\u00bb ausgezeichnet. Ein Besuch lohnt sich.", "url": "https://www.miskitakiy.ch", "image": "https://tgtpimtsoch.sos-ch-dk-2.exoscale-cdn.com/catalog/3/6/e/b/36ebdf992d36bbf1def5ab69eb0a36a4c812b0a1_IMG_9004.jpg", "openstreetmap_id": "node/3729000125"}, "geometry": {"type": "Point", "coordinates": ["8.897946", "47.5561887"]}}, {"type": "Feature", "properties": {"identifier": "225e182b-7742-4c04-83e6-0651f5aef821", "name": "Restaurant & Bar Adler Berlingen", "description": "<p>Direkt am idyllischen Untersee, einem Teil des Bodensees, l&auml;dt das Restaurant Adler in Berlingen zum Geniessen und Verweilen ein. Kulinarische Spezialit&auml;ten wie Fleisch auf dem heissen Stein oder das klassische Entrec&ocirc;te Caf&eacute; de Paris werden mit Sorgfalt und Frische zubereitet. Der Stammtisch und die Bar laden zu geselligen Stunden ein und bieten eine erlesene Auswahl an Weinen, ausgew&auml;hlten Bieren und erstklassigen Cocktails.</p>\n<p>F&uuml;r einen Aufenthalt in der Region stehen komfortable Unterk&uuml;nfte zur Verf&uuml;gung: Ein gem&uuml;tliches Doppelzimmer sowie eine grossz&uuml;gige 3,5-Zimmer-Wohnung bieten den idealen Rahmen f&uuml;r entspannte Tage am Bodensee. Nur wenige Schritte entfernt laden das Ufer des Bodensees und der nahegelegene Hafen zu abwechslungsreichen Freizeitaktivit&auml;ten ein &ndash; ob Baden, Spazieren oder einfach die Natur geniessen. Der Adler vereint kulinarische Erlebnisse, geselliges Beisammensein und erholsame Tage am Bodensee &ndash; ein Ort zum Wohlf&uuml;hlen inmitten des sch&ouml;nen Thurgaus.</p>", "url": "https://www.adler-berlingen.ch", "image": "https://tgtpimtsoch.sos-ch-dk-2.exoscale-cdn.com/catalog/1/9/4/7/1947b570dd9cff6db8e8524c2aa4f75f8ddcc881_0092_KB_Q_1300x867.jpg", "openstreetmap_id": "way/419552597"}, "geometry": {"type": "Point", "coordinates": ["9.016196126643113", "47.67398085000001"]}}, {"type": "Feature", "properties": {"identifier": "22e409f1-67dd-49d4-ab66-3cfb79102cee", "name": "Restaurant & Biergarten Fischerhaus", "description": "Das Restaurant m\u00fcsste wohl in vier Bereiche aufgeteilt sein. Ein sch\u00f6nes St\u00fcbli, eine typische Terrasse und der verglaste Restaurant-Pavillon. Hier gibt es frischen Fisch, eine feine Auswahl an Vegi- und Fleischgerichten und ein umfangreiches Weinangebot.\n\nAn sch\u00f6nen Tagen im Sommer l\u00e4dt der unkomplizierte Biergarten mit 250 Sitzpl\u00e4tzen zum Verweilen ein. Hier werden die G\u00e4ste mit Burgern, Salaten, Schnitzel und Steinofen-Pizza verw\u00f6hnt.", "url": "http://www.fischerhaus.ch/", "image": "https://tgtpimtsoch.sos-ch-dk-2.exoscale-cdn.com/catalog/0/f/7/6/0f76c9c7dc1e9375da0ae9d072260297fee71986_AF1QipN5JG4UQ74KTrnoRjpNKVH4MjeLPv4FbMooJRh4_s1600_h1536.jpg", "openstreetmap_id": "node/478088639"}, "geometry": {"type": "Point", "coordinates": ["9.199285", "47.6471854"]}}, {"type": "Feature", "properties": {"identifier": "246fb02b-01a5-4624-b76d-a32b9a509010", "name": "Quellpark Kundelfingerhof", "description": "Der Natur- und Angelpark bietet ein ideales Ziel f\u00fcr einen Genuss-, Firmen- oder Familienausflug. Im Restaurant spielt der eigene Fisch die Hauptrolle. Eine idyllische Atmosph\u00e4re, gepaart mit herzlicher Gastfreundschaft und kulinarische K\u00f6stlichkeiten, erwartet die Besuchenden. Auf die kleinen G\u00e4ste wartet ein Spielplatz draussen und Mal- und Spielsachen drinnen. Die K\u00fcche zaubert zudem feine kindergerechte Gerichte. Der Bankettpavillon direkt am Wasser ist die ideale Lokalit\u00e4t f\u00fcr Hochzeiten und Bankette bis 150 Personen. Alle R\u00e4umlichkeiten sind barrierefrei und rollstuhlg\u00e4ngig.\n\nDer Selbstbedienung-Hofladen pr\u00e4sentiert ein grosse Auswahl an lokalen Spezialit\u00e4ten in der Region. Viele Produkte stammen aus der eigenen Hofmanufaktur. Der Angelshop dient als Anmeldung f\u00fcr den Angelpark und bietet eine Auswahl an Angelzubeh\u00f6r und K\u00f6dern. Der Hofladen und der Angelshop sind 24/7 ge\u00f6ffnet. Bezahlt wir an einer Selfscanning-Kasse.", "url": "http://www.kundelfingerhof.ch/", "image": "https://tgtpimtsoch.sos-ch-dk-2.exoscale-cdn.com/catalog/3/4/4/3/34438809f09d8559fd0db20d86e75105fcda4e0c_DSC001612019.jpg", "openstreetmap_id": "node/1074203189"}, "geometry": {"type": "Point", "coordinates": ["8.7078125", "47.6771618"]}}, {"type": "Feature", "properties": {"identifier": "257aa86f-c296-4898-8c2a-167acaa95bf2", "name": "erMarina Event- & Gastroschiff", "description": "Schon \u00fcber 65 Jahre alt ist das ehemalige Kursschiff MS Kreuzlingen. Trotzdem wurde es nicht in Pension geschickt \u2013 nein, es erhielt eine Verj\u00fcngungskur. Stilvoll renoviert und zum Restaurant umgebaut liegt es nun seit 2021 als \u00aberMarina\u00bb in Ermatingen an der neuen Hafenanlage Stedi in Ermatingen. Mit gek\u00fchltem Drink in der Hand und sanft geschaukelt relaxt man hier auf der Decklounge oder l\u00e4sst sich im Restaurant raffinierte regionale Spitzenkulinarik schmecken. Immer mit dabei: ein herrlicher Blick auf den Untersee. Das Schiff kann ausserdem t\u00e4glich f\u00fcr Veranstaltungen und Ausfahrten f\u00fcr bis zu 180 Personen gebucht werden. Von Oktober bis M\u00e4rz geniesst man im Winterschiff \u00abSeeChalet\u00bb das beste K\u00e4sefondue der Region.", "url": "https://www.ermarina.ch", "image": "https://tgtpimtsoch.sos-ch-dk-2.exoscale-cdn.com/catalog/e/1/6/7/e1677ed3ffc9a1c575e9e7c73a9620829ada3897_2021_07_22_20_21_54.JPG", "openstreetmap_id": "348733187"}, "geometry": {"type": "Point", "coordinates": ["9.08575773239136", "47.675010848212"]}}, {"type": "Feature", "properties": {"identifier": "2cb39645-e586-4e46-8ea8-a1760320f5f7", "name": "Brauhaus Sternen", "description": "Die Sternenbeiz ist mit viel Holz ausgestattet und l\u00e4dt zum Geniessen ein. Zu den Bierspezialit\u00e4ten stehen klassische Gerichte wie Hefeteigfladen, Quarkteigkrapfen, Bagels, Brauhaus-Burger, M\u00fcnchner Weisswurst und auch Bierwurst zur Auswahl. \n\nJeden Sonntag wird ein feiner Brauhaus-Bier-Brunch mit Bier zum Selberzapfen angeboten. Zudem k\u00f6nnen Bankette, Seminare und Feste im Brauhaus gefeiert werden. F\u00fchrungen, Degustationen sowie Braukurse runden die Erlebnisgastronomie ab. \n\nWenn es ums Bier geht, ist man im Brauhaus Sternen genau an der richtigen Adresse.", "url": "http://www.brauhaus.ch/", "image": "https://tgtpimtsoch.sos-ch-dk-2.exoscale-cdn.com/catalog/c/8/9/6/c896aa8ba55514f8c59e4b263eac1664d3ff6fa5_Brauhaus_Sternen.jpg", "openstreetmap_id": "567443026.0"}, "geometry": {"type": "Point", "coordinates": ["8.9006159", "47.5585"]}}, {"type": "Feature", "properties": {"identifier": "31b26585-89d4-4076-8656-c87c6bc63e5c", "name": "pipo\u2018s BAR", "description": "pipo\u2019s BAR in Berlingen ist ein ganzj\u00e4hrig gef\u00fchrter Betrieb direkt am Untersee, der durch die Kombination aus Sommer-Outdoorbetrieb und Winter-Indoorbetrieb auff\u00e4llt. In den Sommermonaten pr\u00e4sentiert sich die Bar als offene Beach-Lounge am Wasser mit Blick auf See und Sonnenuntergang. Im Mittelpunkt stehen entspannte Stunden in Liegest\u00fchlen, leichte Snacks wie Salate und Pinsa, Grilladen sowie eine sorgf\u00e4ltig zusammengestellte Auswahl an Drinks und Aperitivi. In der Wintersaison verwandelt sich pipo\u2019s BAR in eine stimmungsvolle Indoor-Cocktailbar mit \u00fcberschaubarer, aber hochwertiger Spirituosenauswahl, Signature Cocktails, Hot Dogs und Pinsa. Die Lage direkt am See, das pers\u00f6nliche Gastgeberkonzept und der klare Fokus auf unkomplizierte Auszeiten machen pipo\u2019s BAR zu einem Treffpunkt f\u00fcr Einheimische, Ausflugs- und Ferieng\u00e4ste, die ein authentisches, saisonal gepr\u00e4gtes Angebot im Thurgau suchen.", "url": "https://www.pipos-bar.ch", "image": "https://tgtpimtsoch.sos-ch-dk-2.exoscale-cdn.com/catalog/d/7/1/0/d7101b30fea12b883bbab8990437884b63765218_IMG_7645.jpeg", "openstreetmap_id": "node/875621076"}, "geometry": {"type": "Point", "coordinates": ["9.0111", "47.6721194"]}}, {"type": "Feature", "properties": {"identifier": "38e9c8c1-607e-4c91-a2dc-a2bc7893462c", "name": "US-MEX Frauenfeld", "description": " Eintreten und das Leben geniessen! Das im US-Mexikanischen Stil gestaltete Restaurant mit grossz\u00fcgiger Sonnenterrasse ist direkt an der Murg gelegen und l\u00e4sst Urlaubsgef\u00fchle aufkommen! Die US-MEX Speisekarte bietet Klassiker und eigene Kreationen aus der mexikanischen und amerikanischen K\u00fcche, die durch geschmackliche Vielfalt, Frische und Qualit\u00e4t \u00fcberzeugen. Es werden angemessen Portionen zu fairen Preisen serviert.\n\nDirekt neben dem US-MEX Restaurant befindet sich der US-MEX Sal\u00f3n; eine Caf\u00e9 Bar mit dem Flair eines gem\u00fctlichen Wohnzimmers. Serviert werden feine Kaffees & auserw\u00e4hlte Tees, s\u00fcffige Cocktails sowie leckere Snacks f\u00fcr den kleinen Hunger.\n\nVon April bis September lassen sich die Sonnentage am entspanntesten in der US-MEX Terraza, der Strandbar an der Murg ausklingen. Freuen d\u00fcrfen sich die G\u00e4ste \u00fcber gem\u00fctliche Lounges, ein passendes Getr\u00e4nkeangebot und unwiderstehliche US-MEX Snacks.", "url": "http://www.usmex.ch/", "image": "https://tgtpimtsoch.sos-ch-dk-2.exoscale-cdn.com/catalog/9/d/4/1/9d41e6f7f8ccbbd6536ca2fc8aaae917a2e9146d_170622_USM_FF_Terrasse_dunkel_031.jpg", "openstreetmap_id": "3662213913.0"}, "geometry": {"type": "Point", "coordinates": ["8.8963718", "47.5547915"]}}, {"type": "Feature", "properties": {"identifier": "3dad61a4-8f0d-4650-ba63-ca6764dcbdf6", "name": "Bistro Live Weinfelden", "description": "<p>Seit 1987 ist das Bistro Live ein Ort der Begegnung, an dem Gastfreundschaft und Genuss gelebt werden. Mit wechselnden Mittags- und Wochenmen\u00fcs, feinen Grillspezialit\u00e4ten und besten Weinen zu fairen Preisen sorgen wir f\u00fcr Kulinarik, die Freude macht. Unsere Gerichte werden frisch zubereitet und wenn immer m\u00f6glich verwenden wir saisonale Produkte aus der Schweiz von hochwertiger Qualit\u00e4t. Abgerundet durch einen pers\u00f6nlichen Service sorgen wir f\u00fcr eine famili\u00e4re Atmosph\u00e4re, in welcher sich jeder willkommen und wie zu Hause f\u00fchlen darf.</p>", "url": "https://bistro-live.ch", "image": "https://tgtpimtsoch.sos-ch-dk-2.exoscale-cdn.com/catalog/c/9/e/3/c9e3cdf7704d51c900e4bfc97b6fe0ec4a65c38d_bistro_live_gastraum.jpg", "openstreetmap_id": "node/894553995"}, "geometry": {"type": "Point", "coordinates": ["9.1253678", "47.5630951"]}}, {"type": "Feature", "properties": {"identifier": "4b0bf48d-7799-4421-bc31-d90d6da4ad26", "name": "Huus-Braui", "description": "Handwerklich gebraut mit reinem Roggwiler Quellwasser, auserlesenem Malz und Hopfen. Nicht filtriert, nicht pasteurisiert und frei von Konservierungsmitteln. Ehrlich! Prost!\n\nDie Brauerei liegt im Herzen von Roggwil TG, gleich neben einer der sch\u00f6nsten Schlossanlagen des Kantons. Wer die Bar besucht, steht gleichzeitig \u00abin\u00bb oder \u00ab\u00fcber\u00bb der Brauerei und hat Einsicht auf die grossen Tankanlagen. Auf Anfrage kann man sich durch die Brauerei f\u00fchren lassen und so einiges \u00fcber die Bierbraukunst erfahren. Die gem\u00fctliche Bar in den sch\u00f6n ausgebauten Kellerr\u00e4umen der \u00abalten \u00d6li\u00bb ist zu einem beliebten Treffpunkt geworden. Direkt in der Brauerei geniessen die G\u00e4ste ihr Feierabendbier. Ob hell, dunkel, gold oder das momentane Spezialbier, das Personal ist bei der Wahl gerne behilflich. Auch der kleine Hunger kommt nicht zu kurz. Die kleinen aber feinen Snacks runden das Biererlebnis in der Huus-Braui ab.", "url": "http://www.huus-braui.ch/", "image": "https://tgtpimtsoch.sos-ch-dk-2.exoscale-cdn.com/catalog/a/f/3/8/af387b55eb180c25e7f5cd7ddab6c9ead6048d29_Bier__2.jpg", "openstreetmap_id": "node/2355421358"}, "geometry": {"type": "Point", "coordinates": ["9.3954834", "47.5005029"]}}, {"type": "Feature", "properties": {"identifier": "542e5e0c-7d3a-45e1-938d-69313b292003", "name": "US-MEX Terraza Steckborn", "description": "Direk am Wasser am Untersee lassen sich die Sommertage und die lauen Sommern\u00e4chte genussvoll erleben \u2013 Unvergessliche Sonnenunterg\u00e4nge garantiert! Serviert werden s\u00fcffige Drinks und unwiderstehliche US-MEX Snacks. Nat\u00fcrlich im gewohnten US-MEX Style: Grossz\u00fcgige Portionen zu fairen Preisen bei hoher Qualit\u00e4t. \n\nDie US-MEX Terraza Steckborn ist von April bis September bei gutem Wetter t\u00e4glich ge\u00f6ffnet. Informationen \u00fcber den \u00d6ffnungsstatus sind auf www.usmex-terraza.ch zu finden.\n\nWeitere US-MEX Terrazas sind in Kreuzlingen direkt am Bodensee sowie in Frauenfeld an der Murg zu finden. US-MEX Restaurants gibt es an vier Standorten: Frauenfeld, Schaffhausen, St. Gallen, Weinfelden.", "url": "https://www.usmex.ch/terraza-strandbar/welcome/", "image": "https://tgtpimtsoch.sos-ch-dk-2.exoscale-cdn.com/catalog/c/8/6/e/c86e80574650aedfc15a1b565d6ce1c1ec0e1ba6_Steckborn_US_Mex_Terraza_Hauptbild.jpg", "openstreetmap_id": "5630165520.0"}, "geometry": {"type": "Point", "coordinates": ["8.9716976", "47.6623611"]}}, {"type": "Feature", "properties": {"identifier": "55143370-d26f-4a91-9803-f9bc93cb990a", "name": "Firehouse Weinfelden", "description": "Waren es fr\u00fcher nur die legend\u00e4ren Partyn\u00e4chte, pr\u00e4sentieren wir uns heute als vielseitigen Treffpunkt f\u00fcr Kulinarik und Events. Nach wie vor feiern wir regelm\u00e4ssig zu altbekannten Partyformaten und bieten ein attraktives Eventprogramm mit abwechslungsreichem DJ-Line-Up. \n\n<p>Seit 2025 bietet das Firehouse zudem einen festen Restaurant-und Barbetrieb mit einem vielf\u00e4ltigen Angebot, diversen Cocktails &amp; Mockktails und attraktiven \u00d6ffnungszeiten. Von ofenfrischen Pizzen \u00fcber kreative Tapas bis hin zu abwechslungsreichen Hauptgerichten, im Firehouse steht Vielfalt an oberster Stelle. \n\nNeben dem regul\u00e4ren Betrieb kann das Firehouse auch f\u00fcr private Anl\u00e4sse oder Corporate Events gemietet werden. Erg\u00e4nzend zum passenden Setting und der notwendigen Infrastruktur steht ein komplettes Rundumpacket, von der Eventplanung bis zur Durchf\u00fchrung mit Catering, zur Verf\u00fcgung. \n\nWeitere Infos zum Firehouse &amp; Eventprogramm sind auf der Website zu finden.</p>", "url": "http://www.firehouse.ch/", "image": "https://tgtpimtsoch.sos-ch-dk-2.exoscale-cdn.com/catalog/7/4/e/9/74e9aeee09cfde9e68cbcff60cdb304807a511cb_250116_fh_sg_location_web__13__2.jpg", "openstreetmap_id": "node/1111145348"}, "geometry": {"type": "Point", "coordinates": ["9.1256513", "47.5629874"]}}, {"type": "Feature", "properties": {"identifier": "5f33e642-c024-4471-8147-8293d9e68a48", "name": "Restaurant Schwan\u00e4 dini Beiz", "description": "<p>Cordonbleu, hausgemachte \u00abCh\u00e4schn\u00f6pfli\u00bb mit Apfelmus, Schwan\u00e4-Burger mit Schafsfleisch von den Hofschafen oder Salate mit selbst gebackenem Brot kommen im gem\u00fctlichen Restaurant Schwan\u00e4 auf den Tisch \u2013 und zwar zu einem fast unschlagbaren Preis und serviert mit viel Herzlichkeit. Der landwirtschaftliche Betrieb, der zum Restaurant geh\u00f6rt, l\u00e4dt Kinder zum Entdecken ein. In den Stallungen d\u00fcrfen die Schafe besucht werden. Es stehen auch Stellpl\u00e4tze f\u00fcr Wohnmobile zur Verf\u00fcgung.<br><br>Die l\u00e4ndliche Gegend um Altnau erfreut mit unz\u00e4hligen Obstb\u00e4umen. Dem Apfel ist hier sogar ein Erlebnispfad gewidmet: der Altnauer Apfelweg. Der Schwan\u00e4 liegt direkt an dessen Route. Auch per Kutschenfahrt kann der Apfelweg absolviert werden, wobei Ross und Wagen beim Schwan\u00e4-Team reserviert werden. Alternativ l\u00e4sst sich die Gegend mit einem spannenden Outdoor-Escape Game, das Magische Portal, erkunden, das zwei Routen zur Auswahl bietet: die kleinere dauert eine Stunde, die gr\u00f6ssere zwei Stunden.</p><p></p>", "url": "https://www.schwan\u00e4.ch", "image": "https://tgtpimtsoch.sos-ch-dk-2.exoscale-cdn.com/catalog/8/5/5/6/8556e4c3f27c2588d58ab722d4ba207d334eb6d3_Aussenansicht__2_von_7_.jpg", "openstreetmap_id": "way/234922281"}, "geometry": {"type": "Point", "coordinates": ["9.257399006594795", "47.60682665"]}}, {"type": "Feature", "properties": {"identifier": "679203ce-81c2-4082-9801-5cd3e0cf6a34", "name": "Restaurant Pier", "description": "Ein k\u00fchler Drink oder ein heisses Getr\u00e4nk, eine kleine Zwischenmahlzeit oder ein gepflegtes Essen, im Restaurant Pier ist alles m\u00f6glich. Zu den Spezialit\u00e4ten geh\u00f6ren Felchenchnusperli, Hamburger, Diverse Salate und auch feine Weine. Eine sehr sch\u00f6ne Terrasse direkt am See mit einem Boots Steeg und sch\u00f6nen Sonnenunterg\u00e4ngen l\u00e4dt zum Verweilen ein.\nMit dem Velo, Motorrad, Auto oder zu Fuss bei uns sind alle G\u00e4ste willkommen.\n\n\nIm ersten Stock bietet das Restaurant einen mit allen technischen Hilfsmitteln ausgestatteten Sitzungs- und Tagungsraum f\u00fcr bis zu 25 Personen.", "url": "http://www.pier-uttwil.ch", "image": "https://tgtpimtsoch.sos-ch-dk-2.exoscale-cdn.com/catalog/a/c/b/5/acb568b21477453fddca67be10b9a72d4ace312a_Uttwil_Pier_Terrasse_1.jpg", "openstreetmap_id": "node/503215526"}, "geometry": {"type": "Point", "coordinates": ["9.3429954", "47.5859876"]}}, {"type": "Feature", "properties": {"identifier": "70d2b4d3-c124-4f0b-bd1a-67a74975f4a7", "name": "Bioweingut Lenz", "description": "Das Bioweingut Lenz gewinnt regelm\u00e4ssig Auszeichnungen und Preise f\u00fcr seine Bioweine. Diese k\u00f6nnen aber nicht nur bei Wettbewerben, sondern auch direkt auf dem Weingut in Iselisberg degustiert und gekauft werden.  Bei einer 1.5 st\u00fcndigen Betriebsf\u00fchrung mit anschliessender Weindegustation erfahren die G\u00e4ste Interessantes \u00fcber das Bioweingut, die Philosophie und das Nachhaltigkeitskonzept des Betriebes.\n\nF\u00fcr Gruppen bietet die Erlebniskellerei diverse M\u00f6glichkeiten: Betriebsrundg\u00e4nge, gef\u00fchrte Degustationen oder Bankette im sch\u00f6nen Eventraum f\u00fcr bis zu 80 Personen.", "url": "http://www.weingut-lenz.ch/", "image": "https://tgtpimtsoch.sos-ch-dk-2.exoscale-cdn.com/catalog/e/7/7/1/e771f976a2bb37d6fafb936f371878a95d41761b_Iselisberg_BioweingutLenz_oben.jpg", "openstreetmap_id": "307324639.0"}, "geometry": {"type": "Point", "coordinates": ["8.8288048", "47.5870214"]}}, {"type": "Feature", "properties": {"identifier": "7202273f-3a34-4537-9832-222394d2512e", "name": "DOCKeins Hafenbeiz", "description": "Erfrischende Drinks, auserlesene Weine, ein k\u00fchles Bier, etwas Prickelndes ohne Alkohol! Oder doch lieber Kaffee oder Tee? Im DOCKeins findet man einiges gegen den Durst. Dazu erwarten die G\u00e4ste feine Kleinigkeiten: Schweizer Fischknusperli, verschiedene hausgemachte Dinkelschiffli oder ein Ap\u00e9ro-Pl\u00e4ttli. Desserts, Glac\u00e9es oder Schleckereien f\u00fcr die kleinen G\u00e4ste findet man nat\u00fcrlich auch. Sollte mal kein freies Pl\u00e4tzchen zu finden sein, das Food- und Drinkangebot gibt es auch \u00abto go\u00bb - und das nat\u00fcrlich in \u00f6kologischem Einweggeschirr aus kompostierbarem Biokunststoff oder Reststoffen der Zuckerproduktion.", "url": "https://dockeins.ch/", "image": "https://tgtpimtsoch.sos-ch-dk-2.exoscale-cdn.com/catalog/4/9/2/9/4929b09f28890850bf963182bf53c7318809a98b_IMG_2740.jpeg", "openstreetmap_id": "node/10095103696"}, "geometry": {"type": "Point", "coordinates": ["9.4380174", "47.5138088"]}}, {"type": "Feature", "properties": {"identifier": "742a96e2-7aeb-4122-a081-48470b3f3f24", "name": "Billy&Bugga Artsy Chocolate Boutique & Caf\u00e9", "description": "<p>Billy&amp;Bugga Artsy Chocolate ist eine Schweizer Schokoladenmarke, die handwerkliche Confiserie mit k&uuml;nstlerischer Gestaltung verbindet. Unter der Leitung der in Brasilien geborenen und in der Schweiz ausgebildeten Chocolati&egrave;re Juliana Hassler entstehen handgefertigte Premium-Schokoladenkreationen, award-winning Pralin&eacute;s, Confiserie-Spezialit&auml;ten sowie kreative Dessert- und Brunch-Konzepte. Charakteristisch sind mutige Geschmackskombinationen, hochwertige Zutaten und ein unverwechselbares &laquo;artsy Finish&raquo; mit lebendigen Farben und besonderen Texturen. Zum Angebot z&auml;hlen neben dem Boutique- und Caf&eacute;-Erlebnis auch Chocolate Tastings, Pairings, kuratierte Chocolate Experiences sowie der Signature-&Eacute;tag&egrave;re-Brunch. Die regionale Verankerung im Thurgau und das Engagement f&uuml;r nachhaltigen Kakao pr&auml;gen die Identit&auml;t von Billy&amp;Bugga. Taste the Art.</p>", "url": "https://www.billybugga.com", "image": "https://tgtpimtsoch.sos-ch-dk-2.exoscale-cdn.com/catalog/9/b/8/c/9b8c7d34fb4122b89632f8131c1e86c7aa059baf_30_06_25_Billy_Bugga_Daily_pictures_WEB_001.jpg", "openstreetmap_id": "way/452944806"}, "geometry": {"type": "Point", "coordinates": ["8.9862248", "47.4501173"]}}, {"type": "Feature", "properties": {"identifier": "8d6e99e5-9c6a-4a7d-b638-928ed940945c", "name": "Weinbau Salath\u00e9", "description": "Im Stadtschryber, dem bekanntesten Rebberg im Weinbaudorf H\u00fcttwilen, reifen die Trauben durch sorgf\u00e4ltige Pflege zu bester Qualit\u00e4t. Der \u00abStadtschryber\u00bb mit seiner eleganten und noblen Art zeigt feine Fruchtaromen und \u00fcberzeugt mit einem sch\u00f6nen und dichten K\u00f6rper. \n\nDer Perlwein \u00abKiss me\u00bb und der \u00abBlanc de Noir\u00bb  sind die perfekten Ap\u00e9robegleiter. Auf Anmeldung werden Rebbergf\u00fchrungen, Oldtimertraktorfahrten durch Rebberge und Seebachtal, Degustationen und Ap\u00e9ros angeboten. Genuss ist das Betriebsmotto.", "url": "http://www.salathe-weinbau.ch", "image": "https://tgtpimtsoch.sos-ch-dk-2.exoscale-cdn.com/catalog/4/0/1/5/40151df2c2cc0fe6a024a4f60fff1f1a304af64a_F821F75E_4B5C_40B9_BF31_C9B5F854A1B0.jpeg", "openstreetmap_id": "node/12304314752"}, "geometry": {"type": "Point", "coordinates": ["8.8743659", "47.6066571"]}}, {"type": "Feature", "properties": {"identifier": "92ccd7e9-da6a-4328-88d5-43225e0aed8d", "name": "Barfuss Brauerei", "description": "<p>Die Brauerei ist im alten Stellwerk, idyllisch am B\u00fcrgler Kanal gelegen. Es werden F\u00fchrungen, Degustationen, Firmenessen und diverse Events rund um das Thema Bier angeboten. In der Brauerei finden regelm\u00e4ssig Veranstaltungen statt. Die Brauerei kann aber auch als Eventlocation f\u00fcr bis zu 90 Personen gebucht werden. Die selbstgebrauten Biere sind entweder im Onlineshop oder in diversen Spezialit\u00e4tenl\u00e4den erh\u00e4ltlich. Die Biersommeli\u00e8re beraten ihre Kunden gerne bei der Bierauswahl. Ab 24 Bieren k\u00f6nnen diese mit einer eigenen Etikette bestellt werden. <br>Der Name Barfuss Brauerei stammt \u00fcbrigens nicht daher, dass der Brauer und sein Team ihre Biere barfuss brauen, sondern von den ersten Brauversuchen, die direkt am Barfussweg in Wuppenau stattgefunden haben.</p>", "url": "http://www.barfuss-brauerei.ch/", "image": "https://tgtpimtsoch.sos-ch-dk-2.exoscale-cdn.com/catalog/7/3/6/3/7363b14302f584457d9aca3c688d4b97a62ce4de_DSCF1076__2.jpg", "openstreetmap_id": "199258216.0"}, "geometry": {"type": "Point", "coordinates": ["9.1173151", "47.5167513"]}}, {"type": "Feature", "properties": {"identifier": "9513334c-e24e-4cd7-bb5e-92b9c8385118", "name": "Restaurant M\u00fchle \u2013 Kartause Ittingen", "description": "\u00dcber die Region hinaus bekannt sind die Produkte aus dem eigenen Gutsbetrieb. Die Bewirtschaftung erfolgt nachhaltig, umweltschonend und tierfreundlich. In den Weinbergen werden 10 verschiedene Traubensorten kultiviert, die Milch wird direkt vor Ort zu K\u00e4sespezialit\u00e4ten verarbeitet. Selbstversorgung war f\u00fcr die Kart\u00e4userm\u00f6nche eine Selbstverst\u00e4ndlichkeit. Heute werden die G\u00e4ste kulinarisch verw\u00f6hnt, sei es im Restaurant oder im Klosterladen, wo \u00fcber 200 Produkte aus eigenem Anbau pr\u00e4sentiert werden. Besonders zu empfehlen sind die kreativen 0-Kilometer-Gerichte.", "url": "https://www.kartause.ch/de/restaurant/", "image": "https://tgtpimtsoch.sos-ch-dk-2.exoscale-cdn.com/catalog/c/4/9/c/c49cace30b33c2b37c97fe8a83e8dced6d8eed32_Reestaurant_M__hle__3_.jpg", "openstreetmap_id": "node/426784033"}, "geometry": {"type": "Point", "coordinates": ["8.8663322", "47.5830331"]}}, {"type": "Feature", "properties": {"identifier": "9c1ab804-ba7d-447e-a486-f9d792cc0519", "name": "Huberwein", "description": "Huberwein ist ein nachhaltiges Familienunternehmen zwischen Weinfelden und Amriswil in G\u00f6tighofen. Neben dem Standort im Thurgau gibt\u2019s auch einen im Piemont. Im Thurgau bieten heimische Rebsorten die Grundlage f\u00fcr facettenreiche, geschmackvolle und einzigartige Thurgauer Weine. Im Piemont liegt der Schwerpunkt auf charakterstarken Rotweinen. Die Nachhaltigkeit beh\u00e4lt die Familie bei ihrer Arbeit in zwei L\u00e4ndern stets im Fokus. Viel Herzblut und Handarbeit fliessen ein. Ged\u00fcngt wird nur biologisch, auf Herbizid verzichtet. Wiesenblumen, Haselnuss oder Obstb\u00e4ume bl\u00fchen rund um den Thurgauer Rebberg und f\u00f6rdern die Biodiversit\u00e4t. In ansprechendem Ambiente degustieren G\u00e4ste in G\u00f6tighofen die Huberweine. Gew\u00e4hlt wird zwischen verschiedenen mehr oder weniger umfangreichen Degustationsangeboten. Eine Weinbar, die jeden ersten Freitag im Monat abends \u00f6ffnet, erfreut mit ausgew\u00e4hlten Weinen im Offenausschank und l\u00e4sst G\u00e4ste in die Huberweinwelt eintauchen, kleines Ap\u00e9ro-H\u00e4ppchen pro Glas inbegriffen.", "url": "https://www.huberwein.ch/", "image": "https://tgtpimtsoch.sos-ch-dk-2.exoscale-cdn.com/catalog/c/c/a/1/cca1aaa18da6d0a465df063e8080c9861d589eca_Huber_Wein_Mai_2023_510__2.jpg", "openstreetmap_id": "node/780011658"}, "geometry": {"type": "Point", "coordinates": ["9.206280112266542", "47.53642784543936"]}}, {"type": "Feature", "properties": {"identifier": "9cb2beb9-1a66-4bee-87c7-96724dfedb82", "name": "Gustav Kahn", "description": "Gustav Gleis, Lokomotivf\u00fchrer und Weltenbummler, erf\u00fcllt sich seinen lang ersehnten Traum und erkundet neu auch mit seinem Kahn die Welt. \n\nSein neues Zuhause hat Gustav liebevoll mit Souvenirs von seinen Reisen eingerichtet: Knallig farbige Vintage-M\u00f6bel aus Italien verbreiten auf dem Hafenplatz eine fr\u00f6hliche Stimmung. Ein Gesp\u00fcr f\u00fcrs Detail hat Gustav auch bei Gaumenfreuden. Ja, er ist ein nachhaltiger Feinschmecker. Eine gesunde und regionale Ern\u00e4hrung ist ihm so wichtig, dass er eigene Salate und Kr\u00e4uter anpflanzt. Aber bei aller Regionalit\u00e4t bleibt er doch weltoffen: Auf Hawaii hat er die Zubereitung von k\u00f6stlichen Pok\u00e9 Bowls erlernt, in S\u00fcdamerika wurde er zum Grillspezialisten und die Briten haben ihn f\u00fcr Fish & Chips begeistert. Unterwegs in der T\u00fcrkei befasste er sich mit Kaffeebr\u00fchen, und seit er in Spanien war, lebt er sein Flair f\u00fcr Cocktails aus. All diese K\u00f6stlichkeiten bereitet er f\u00fcr seine G\u00e4ste in seinem immer verl\u00e4sslichen Kahn zu.", "url": "https://www.gustavkahn.ch", "image": "https://tgtpimtsoch.sos-ch-dk-2.exoscale-cdn.com/catalog/6/5/d/c/65dcadb399004686d35e2818c4c6690fc31b1091_DSC_5026_Bearbeitet.jpg", "openstreetmap_id": "way/335761499"}, "geometry": {"type": "Point", "coordinates": ["9.384310310857634", "47.567691901761"]}}, {"type": "Feature", "properties": {"identifier": "9d0f20b1-c95d-4bbe-b0d7-1a929f4ee6e4", "name": "Erlebnisweingut Burkhart - Thurgau Tourismuspreisgewinner 2022", "description": "<p>Das Erlebnisweingut Burkhart verf&uuml;gt &uuml;ber einen Rebberg von 8 Hektaren. Bei einem Rundgang mit dem Winzer durch Weinberg, Keller und anschliessender Degustation wird der Weinfelder Rebbau mit allen Sinnen erlebt. Das Eventgeb&auml;ude mit herrlicher Aussicht &uuml;ber den Rebberg bietet Platz f&uuml;r Ap&eacute;ros, Fest- und Firmenessen, Seminare sowie Workshops. Tradition, Innovation und Nachhaltigkeit stehen auf dem Weingut im Einklang mit Mensch und Natur, dies mitten im Thurgau. Das Weingut Burkhart in Weinfelden ist bei Gault Millau unter den besten 150 Weing&uuml;tern der Schweiz, im Vinum unter den Besten 200 gelistet und erhielt f&uuml;r das Jahr 2026 den Handwerkspreis von Best of Swiss Wine Tourism.</p>", "url": "http://www.weingut-burkhart.ch/", "image": "https://tgtpimtsoch.sos-ch-dk-2.exoscale-cdn.com/catalog/2/f/d/e/2fdee0da7d7747d1cdf5276d8a954c872a4d66fa_IMG_0666.JPG", "openstreetmap_id": "node/7325738759"}, "geometry": {"type": "Point", "coordinates": ["9.1033572", "47.5770368"]}}, {"type": "Feature", "properties": {"identifier": "a215c2e2-6b83-4bcf-bfca-e74763f75b81", "name": "Restaurant Krone am See", "description": "Das Restaurant Krone liegt im Thurgauer Apfeldorf Altnau direkt am Bodensee. Es ist aufgeteilt in zwei Teile. Drinnen erwartet G\u00e4ste ein stilvolles Fine Dining Restaurant mit moderner K\u00fcche, wo viele regionale Produkte einfliessen, und auch kreative vegetarische und vegane Gerichte dazu geh\u00f6ren. Die Weinkarte gl\u00e4nzt mit exzellenten Weinen aus dem Thurgau, aber auch aus der Schweiz und Europa. Der zweite Teil draussen heisst \u00abKrone Easy\u00bb. Dies ist eine gesellige Sommerterrasse mit einfachen Menus in Selbstbedienung oder f\u00fcr Take Away. Hier k\u00f6nnen Bestellungen vor Ort, online vom Altnauer Badestrand grad nebenan oder gar vom Boot aus gemacht und abgeholt werden. Beide Teile der Krone, Restaurant und Terrasse, haben eins gemein: die wunderbare Seesicht. Die Krone ist zudem ein idealer Start- oder Endpunkt f\u00fcr Ausfl\u00fcge um und \u00fcber den Bodensee. Oberhalb des Dorfes startet der Altnauer Apfelweg, ein Themenweg \u00fcber das rotbackige Fr\u00fcchtchen, f\u00fcr das der Thurgau so bekannt ist.", "url": "https://www.krone-altnau.ch/", "image": "https://tgtpimtsoch.sos-ch-dk-2.exoscale-cdn.com/catalog/c/c/b/9/ccb97cf9576d852a1ca4c7a5e1aa5f5c99fdaf4c_Restaurant_Krone_240624_038.jpg", "openstreetmap_id": "node/1997230018"}, "geometry": {"type": "Point", "coordinates": ["9.2675946", "47.6226731"]}}, {"type": "Feature", "properties": {"identifier": "a777068e-2359-4194-bf44-670017c7f86c", "name": "Restaurant Linde", "description": "Im Bistro werden den G\u00e4sten einfachere Gerichte f\u00fcr den kleinen Hunger serviert. Der lauschig-schattige Garten bietet im Sommer zus\u00e4tzlichen Platz zum Verweilen und Geniessen.\n\nDas Bier wird von der huus-braui aus Roggwil bezogen. Von den unfiltrierten Bierspezialit\u00e4ten sind jeweils mindestens drei Sorten im Offenausschank erh\u00e4ltlich. Zwei Mal j\u00e4hrlich findet zudem der Anlass \u00abBier und so\u00bb statt. Zu jedem der sieben G\u00e4nge wird ein passendes Bier serviert. Ein echter Tipp f\u00fcr Bierfans und Geniesser!", "url": "http://www.linde-roggwil.ch/", "image": "https://tgtpimtsoch.sos-ch-dk-2.exoscale-cdn.com/catalog/5/0/5/d/505dfaffa71859272b0c2930764fb73d07bbe3f2_131_garten_und_restaurant_linde_roggwil_2021.jpg", "openstreetmap_id": "way/243203300"}, "geometry": {"type": "Point", "coordinates": ["9.398261200000004", "47.502164050000005"]}}, {"type": "Feature", "properties": {"identifier": "a90b0978-6c7b-43e6-9558-0d17632fc354", "name": "US-MEX Schaffhausen", "description": "In der Fussg\u00e4ngerzone der Schaffhauser Altstadt liegt das Restaurant US-MEX. In einer unkomplizierten Atmosph\u00e4re begr\u00fcssen die Gastgeber die G\u00e4ste an 365 Tagen im Jahr. Es verf\u00fcgt \u00fcber 200 Sitzpl\u00e4tze inkl. Wintergarten. An warmen Tagen kommt eine grossz\u00fcgige Terrasse und ein charmanter Innenhof dazu. \n\nDie US-MEX Speisen zeichnen sich aus durch eigene Interpretationen und Kreationen aus der mexikanischen und amerikanischen K\u00fcche. Frische und Qualit\u00e4t sind genauso wichtig wie faire Preise und angemessene Portionen. Ob ein kleiner Snack zwischendurch, ein Lunch mit Arbeitskollegen oder ein Dinner mit deinen Liebsten  \u2013 wanna eat? Go US-MEX!", "url": "http://www.usmex.ch/", "image": "https://tgtpimtsoch.sos-ch-dk-2.exoscale-cdn.com/catalog/0/1/d/d/01dd698f3da9a9f3ce2ca34babb9e2209f9ab9ae_180126_USM_SH_Restaurant_059.jpg", "openstreetmap_id": "node/8621647085"}, "geometry": {"type": "Point", "coordinates": ["8.6361913", "47.6960895"]}}, {"type": "Feature", "properties": {"identifier": "bb79a276-4f55-46f0-a520-76f66d139b1d", "name": "Stella Bernrain", "description": "Das unabh\u00e4ngige und weltweit ausgerichtete Familienunternehmen stellt Produkte f\u00fcr private Labels sowie die Marken Bernrain und Stella her. Das Unternehmen legt grossen Wert auf Nachhaltigkeit sowohl beim Rohstoffeinkauf als auch in der Produktion. Ausserdem bekennt es sich ohne Einschr\u00e4nkungen zum Produktionsstandort Schweiz.\n\nIm Fabrikladen \u00abSchokoLaden\u00bb und dem integrierten Caf\u00e9 Stella k\u00f6nnen Schoko-Liebhaber sich von all den K\u00f6stlichkeiten direkt ab Produktion verf\u00fchren lassen. Die Auswahl ist gross und l\u00e4sst keine W\u00fcnsche offen, Tafelschokoladen nach jedem Gusto, feinste Pralin\u00e9s und Saisonspezialit\u00e4ten. Wer mehr erleben m\u00f6chte, darf sich auf weitere Highlights freuen: Im Schokoladen verwandeln sich G\u00e4ste in Chocolatiers und veredeln ihre Bio-Schokolade mit den eigenen Lieblingszutaten. Wer mehr \u00fcber die Schokoladenherstellung erfahren m\u00f6chte, stillt seine Neugier einfach bei einem Blick in die Produktion.", "url": "https://www.stellabernrain.ch/de", "image": "https://tgtpimtsoch.sos-ch-dk-2.exoscale-cdn.com/catalog/6/b/0/c/6b0c6e7ba567fe8bfce51d1b28cf9ee8c3711184_2021_Logo_auf_Schokoturm.jpg", "openstreetmap_id": "135183448.0"}, "geometry": {"type": "Point", "coordinates": ["9.1617545", "47.6422824"]}}, {"type": "Feature", "properties": {"identifier": "bf4baa36-ad81-4ec8-9e54-417b9dcf8542", "name": "US-MEX Weinfelden", "description": "Eintreten und das Leben geniessen! Das im US-Mexikanischen Stil dekorierte Restaurant mit einer grossz\u00fcgigen Sonnenterrasse l\u00e4sst Urlaubsgef\u00fchle aufkommen. Die US-MEX Speisekarte bietet Klassiker und eigene Kreationen aus der mexikanischen und amerikanischen K\u00fcche, die durch geschmackliche Vielfalt, Frische und Qualit\u00e4t \u00fcberzeugen. Es werden angemessen Portionen zu fairen Preisen serviert.\n\nOb f\u00fcr einen Besuch mit der Familie, einen Lunch mit Arbeitskollegen oder ein Dinner mit Freunden \u2013 wanna eat? GO US-MEX!\n\nUS-MEX Restaurants gibt es mittlerweile an vier Standorten: Frauenfeld, Schaffhausen, St. Gallen und Weinfelden. Von April bis September auch direkt am See, US-MEX Terraza Strandbar in Steckborn und ab 2021 in Kreuzlingen.\n\n", "url": "https://www.usmex.ch/", "image": "https://tgtpimtsoch.sos-ch-dk-2.exoscale-cdn.com/catalog/7/a/c/d/7acd8fbb17c940c394485c28f011d899de1726b8_Weinfelden_US_Mex_Restaurant.jpg", "openstreetmap_id": "267349350.0"}, "geometry": {"type": "Point", "coordinates": ["9.1258333", "47.5628599"]}}, {"type": "Feature", "properties": {"identifier": "d348bb7e-577f-4c37-9b08-978051324476", "name": "TIKI Strandbar Goldach", "description": "<p>TIKI geh\u00f6rt zu einer der sch\u00f6nsten Strandbars der Deutschschweiz. Auch die Mojito\u2019s und Burger z\u00e4hlen zu den Besten am Bodensee. Die TIKI Strandbar liegt direkt beim Hafen Goldach und ist w\u00e4hrend der Sommersaison, von April bis September, jeden Tag bei sch\u00f6nem Wetter offen. Die gem\u00fctlichen Sonnenbetten und rustikalen Holzm\u00f6bel im Vintage-Look schaffen eine einzigartige Atmosph\u00e4re und bieten viele verschiedenen Sitz- und Liegefl\u00e4chen. Die Strandbar ist der perfekte Ort f\u00fcr unvergessliche Momente, neue Bekanntschaften und atemberaubende Sonnenunterg\u00e4nge.</p>", "url": "https://tikistrandbar.ch/", "image": "https://tgtpimtsoch.sos-ch-dk-2.exoscale-cdn.com/catalog/a/7/6/4/a764b559d188be033c071d76fbfbff24d4dad77f_MMZL2008.jpg", "openstreetmap_id": "node/2450055638"}, "geometry": {"type": "Point", "coordinates": ["9.4790537", "47.4828408"]}}, {"type": "Feature", "properties": {"identifier": "d3f7deac-7eb3-42f0-abdd-df386545d68f", "name": "Haag Weine - Vinothek", "description": "Die charmant eingerichtete Vinothek Haag, umgeben von den 400 Jahre alten Mauern, l\u00e4dt am Freitag und Samstag oder nach Vereinbarung zum Einkaufen und Degustieren ein. Mit 30 Pl\u00e4tzen bietet sie ideale M\u00f6glichkeiten f\u00fcr Gruppendegustationen, Ap\u00e9ros und andere Festivit\u00e4ten. Nicole Haag, als passionierte Gastgeberin, organisiert Anl\u00e4sse individuell und pers\u00f6nlich. Die Vinothek ist die ideale R\u00e4umlichkeit f\u00fcr besondere Anl\u00e4sse in sch\u00f6nem Ambiente. \n\nIm Weinbau setzt die Familie Haag alles daran, aus gesunden, reifen Trauben klare und authentische Weine hervorzubringen. Auf 4 ha pflegt die Familie Haag sechs verschiedene Traubensorten: M\u00fcller-Thurgau, Cabernet Blanc, Sauvignon Blanc, Pinot Gris, Pinot Noir und Zweigelt. Sortenreine, klar strukturierte Weine, Innovation aber auch viel Passion, Begeisterung und Herzblut f\u00fcr das Handwerk zeichnet die Winzerfamlie aus. Tipp: Degustieren Sie Nicole's Lieblingswein, den Goldgr\u00fcebli bei Ihrem n\u00e4chsten Besuch.", "url": "http://www.haag-weine.ch/", "image": "https://tgtpimtsoch.sos-ch-dk-2.exoscale-cdn.com/catalog/7/e/c/9/7ec9d0bddc5b31597dd60ef1dce1c8774acb5b69_Huettwilen_Haa_gWeine_Portrait.jpg", "openstreetmap_id": "way/298906049"}, "geometry": {"type": "Point", "coordinates": ["8.869737775940624", "47.60669985"]}}, {"type": "Feature", "properties": {"identifier": "d894442d-0090-428f-9c8f-624c48664144", "name": "Seerestaurant Buchhorn", "description": "<p>Mit viel Engagement wird das Seerestaurant Buchhorn im Strandbad Arbon betrieben. Neben der Speisekarte sorgen die t\u00e4glich wechselnden Mittagsmen\u00fcs f\u00fcr Abwechslung auf dem Esstisch und der vielf\u00e4ltigen Auswahl am Buffet kann niemand widerstehen. Zur Spezialit\u00e4t des Hauses geh\u00f6ren die feinen Fischknusperli in w\u00fcrziger Kr\u00e4uterpanade sowie der unverwechselbare Buchhorn-Burger. Das Restaurant Buchhorn in Arbon erfrischt auch als vielseitige Anlage f\u00fcr Feste. Neben dem t\u00e4glichen Betrieb ist das Seerestaurant Buchhorn auch die perfekte B\u00fchne f\u00fcr gediegene, festliche Begegnungen jeglicher Art. Es gibt wenige Orte, die sich f\u00fcr ein Fest so ideal eignen wie dieses einzigartige Bijou. Direkt am See gelegen l\u00e4sst es sich auf vielf\u00e4ltige Weise bespielen. Das Seerestaurant Buchhorn ist ein tolles Ausflugsziel und liegt an diversen Velo- und Wanderwegen.</p>", "url": "https://seerestaurant-buchhorn.ch", "image": "https://tgtpimtsoch.sos-ch-dk-2.exoscale-cdn.com/catalog/e/b/a/9/eba92eeb2821330ebbec02b61388f74dca5694eb_Arbon_Restaurant_Strandbad_Buchhorn_Aussicht.jpg", "openstreetmap_id": "node/259196142"}, "geometry": {"type": "Point", "coordinates": ["9.418526964195179", "47.5265206"]}}, {"type": "Feature", "properties": {"identifier": "e0ac20d6-f7f9-4cac-a1f5-aef1c3a8e667", "name": "Restaurant Tannzapfe \u2013 mehr als ein Restaurant", "description": "Das gepflegte Restaurant mit Gartensitzplatz (in den Sommermonaten) bietet t\u00e4glich wechselnde Mittagsmen\u00fcs sowie innovative \u00c0-la-carte-Angebote. Ganz im Sinne von Pfarrer Sebastian Kneipp werden nebst den Klassikern des Hauses auch vollst\u00e4ndig vegetarische Gerichte angeboten, die je nach pers\u00f6nlichem Geschmack individuell mit hochwertigem Fleisch oder Fisch aus der Region erg\u00e4nzt werden k\u00f6nnen. Mit Liebe zum Detail richtet die K\u00fcchenmannschaft jeden Teller individuell an und die zuvorkommende Gastgebermentalit\u00e4t des Serviceteams rundet das Besuchserlebnis ab. \n\nDas Restaurant ist Teil der modernen Rehaklinik Dussnang, welche neben den zeitgem\u00e4ssen medizinischen Therapien auch f\u00fcr seine Kneipp-Angebote bekannt ist.\n\nTipp: Die legend\u00e4ren hausgemachten Cremeschnitten gelten als die besten der Alpennordseite. Noch heute werden sie nach altem Geheimrezept der Klosterfrauen t\u00e4glich frisch zubereitet. Sie sind sowohl in Normalgr\u00f6sse als auch im Miniformat und zum Mitnehmen erh\u00e4ltlich.", "url": "https://www.restaurant-tannzapfe.ch", "image": "https://tgtpimtsoch.sos-ch-dk-2.exoscale-cdn.com/catalog/8/1/2/0/8120e208637ab9a9e593e7e8ae38b58d5d6a6f07_KlinikDussnang_AMMANN_20220906_587.jpg", "openstreetmap_id": "node/2417371708"}, "geometry": {"type": "Point", "coordinates": ["8.9635126", "47.4300691"]}}, {"type": "Feature", "properties": {"identifier": "e9889a9c-034a-4747-a3a2-44ef49d838b4", "name": "Landgasthof Wartegg", "description": "<p>Der in zweiter Generation gef\u00fchrte Familienbetrieb lebt das Gastgeben mit Leib und Seele. Das sp\u00fcrt man, sobald die T\u00fcren ge\u00f6ffnet werden. Tradition und Moderne werden im historischen Gasthof geschmackvoll verbunden. Wer heimelige R\u00e4umlichkeiten, Individualit\u00e4t und Genuss miteinander verbinden will, liegt hier goldrichtig. Mit seiner kreativen K\u00fcche begeistert Christoph Frei seine G\u00e4ste stets aufs Neue. Die Speisekarte wartet mit saisonalen \u00dcberraschungen auf. Die Grundlagen f\u00fcr die Zufriedenheit der G\u00e4ste wird bereits bei der bewussten Auswahl der regionalen Produkte gelegt. Und seine Leidenschaft f\u00fcr edle Tropfen, dr\u00fcckt Christoph Frei in einer ausgew\u00e4hlten Weinkarte aus. Ob private Feierlichkeiten, genussvolle Diners oder erfolgreiche Gesch\u00e4ftsmeetings \u2013 vier verschiedene, charmante R\u00e4ume bieten f\u00fcr jeden Anlass die richtige Atmosph\u00e4re. Die modernen, hellen Hotelzimmer laden zum \u00dcbernachten im Herzen des Thurgaus ein.</p>", "url": "http://www.landgasthof-wartegg.ch/", "image": "https://tgtpimtsoch.sos-ch-dk-2.exoscale-cdn.com/catalog/7/4/d/7/74d719fe16cfe0230f0a1acb152ab1ab58900adf_Computerformat_4_3_Wigoltingen_Landgasthof_Wartegg_Aussenansicht.jpg", "openstreetmap_id": "node/321848664"}, "geometry": {"type": "Point", "coordinates": ["9.0138914", "47.5885859"]}}, {"type": "Feature", "properties": {"identifier": "f1182eb6-4631-4cf8-813c-6eecb64b5d55", "name": "Gasthof Eisenbahn", "description": "Der heimelige Gasthof bietet seinen G\u00e4sten modern renovierte, lichtdurchflutete Zimmer mit schlichter, sch\u00f6ner Einrichtung. Die Liebe zum Detail bescheren den G\u00e4sten einen Aufenthalt zum rundum wohlf\u00fchlen und entspannen. Der Gasthof eignet sich durch seine zentrale Lage f\u00fcr Gesch\u00e4ftsreisende wie Ferieng\u00e4ste gleichermassen.\n\nDie K\u00fcche im Gasthof Eisenbahn ist saisonal und regional, Thurgauer Gem\u00fcse, Fleisch und Wein, als besondere Spezialit\u00e4ten \u00abThurgauer Waldforelle\u00bb und \u00abWild\u00bb aus einheimischer Jagd kommen auf den Tisch. Mit Liebe und \u00abGilde-Manier\u00bb zubereitet, nach einheimischen Rezepten, entstehen aus den besten Zutaten \u00fcberraschende Gerichte.\n\nDas Familienzimmer Schlossblick verf\u00fcgt \u00fcber eine Kindernische (140x140cm) und ist geeignet f\u00fcr Kinder bis 8 Jahre.", "url": "http://www.gasthof-eisenbahn.ch/", "image": "https://tgtpimtsoch.sos-ch-dk-2.exoscale-cdn.com/catalog/d/6/a/f/d6afe6749e940be6f159d29113d053eaa526548c_Weinfelden_Eisenbahn_Weinkeller_Depot.JPG", "openstreetmap_id": "251369007.0"}, "geometry": {"type": "Point", "coordinates": ["9.107957", "47.5658956"]}}, {"type": "Feature", "properties": {"identifier": "f72f4178-dd2e-46a8-b7c7-08da92862c30", "name": "Saurer Garten", "description": "Die Mischung aus urbanem Ambiente des ehemaligen Industrieareals dahinter und der Arboner Seepromenade davor, machen den Saurer Garten zu einem Lieblingsplatz. G\u00e4ste erfreut ein breites und sch\u00f6nes Angebot an Getr\u00e4nken. Vom Morgenkaffee bis zum Ap\u00e9ro und erfrischenden Drinks ist hier alles zu haben. Daneben bietet der Foodtruck Feines zum Naschen. F\u00fcr Kinder ist ein Sandkasten zum Spielen aufgestellt. Das Industriegeb\u00e4ude hinter dem Garten beherbergt das Saurer Museum. Dieses zeigt die eindrucksvolle Geschichte der Adolf Saurer AG, die lange Zeit bedeutendste Schweizer Herstellerin von Lastwagen und sp\u00e4ter auch von Textilmaschinen war. Produziert wurde unter anderem am Ort, der heute das Museum beherbergt. Ein Fahrzeug aus der Saurer Erfolgsgeschichte steht denn auch stimmungsvoll im Saurer Garten \u2013 ein umgebautes Postauto. H\u00f6hepunkt f\u00fcr Kinder: es darf auf dem Fahrersitz Platz genommen werden. Der alte Saurer Bus l\u00e4sst sich f\u00fcr geschlossene Gesellschaften mieten oder bietet Platz f\u00fcr den Drink und die Ap\u00e9roplatte bei zweifelhaftem Wetter. Events wie Kindergeburtstage, ein Fondueplausch oder eine private Musiksession werden gerne ausgerichtet. ", "url": "https://www.saurergarten.ch", "image": "https://tgtpimtsoch.sos-ch-dk-2.exoscale-cdn.com/catalog/b/b/c/7/bbc7d82c81d617336eb3329efab3f4c7a47a90bc_IMG_1337.jpeg", "openstreetmap_id": "node/1564845064"}, "geometry": {"type": "Point", "coordinates": ["9.437921047210693", "47.517494214567634"]}}, {"type": "Feature", "properties": {"identifier": "fa9df1d9-d504-4b3d-9b48-bf340d3664f6", "name": "Mosteria Bussinger", "description": "Die Mosterei Bussinger besteht seit 1955 und ist seither ein Familienunternehmen. Neben der Mosterei f\u00fchrt der Familienbetrieb einen Verkaufsladen, bietet Betriebsf\u00fchrungen an und stellt eine Fl\u00e4che f\u00fcr Events und Degustationen zur Verf\u00fcgung. \n\nIm Eventbereich werden unbeschwerte Feste gefeiert. Die Familie Bussinger geht gerne auf die W\u00fcnsche der G\u00e4ste ein. Die Mosteria bietet Platz f\u00fcr 40 Personen und hat eine \u00fcberdachte Terrasse f\u00fcr ungef\u00e4hr 20 Personen.\n\nDer Verkaufsladen bietet verschiedene Apfel- und Most-Spezialit\u00e4ten an. Ein spezieller Hingucker sind die Produkte aus der Apfelsorte \u00abRed Love\u00bb. Die Getr\u00e4nke k\u00f6nnen in gem\u00fctlicher Atmosph\u00e4re degustiert werden. Es werden auch gerne individuelle Geschenke zusammengestellt.\n\nF\u00fcr Gruppen ab zehn Personen werden F\u00fchrungen durch die modern eingerichtete Mosterei angeboten. Anschliessend werden die beliebten Most- und Ciderspezialit\u00e4ten von Bussingers in der Mosteria degustiert.", "url": "https://mosteria.ch/", "image": "https://tgtpimtsoch.sos-ch-dk-2.exoscale-cdn.com/catalog/f/1/7/6/f1761fc05c00c6b645991d506ba7a4282c2db1e9_Huettwilen_Mosterei_Bussinger_4.jpg", "openstreetmap_id": "node/10095123816"}, "geometry": {"type": "Point", "coordinates": ["8.8678717", "47.6089177"]}}, {"type": "Feature", "properties": {"identifier": "fd00ea7f-4e33-491a-a97f-47f468bf2757", "name": "Wirtschaft zum Frohsinn Landschlacht", "description": "In der Wirtschaft zum Frohsinn in Landschlacht werden in urgem\u00fctlichem Ambiente vielf\u00e4ltige Schweizer Saison- und Grillspezialit\u00e4ten serviert. Das Geschnetzelte mit R\u00f6sti etwa ist ein H\u00f6hepunkt auf der Speisekarte, aber auch die Grilladen \u00fcberzeugen. In dem altehrw\u00fcrdigen Reigelhaus in Landschlacht steht ein Meister am Grill. Hervorragende Qualit\u00e4t wird hier auf den Punkt gebraten. Fleischliebhabende kommen im Frohsinn also auf ihre Kosten. Aber auch die mit viel Leidenschaft gekochten vegetarischen Speisen, der famili\u00e4re und zuvorkommende Service, die vern\u00fcnftigen Preise und das urgem\u00fctliche Ambiente erfreuen die G\u00e4ste. Im Sommer spendet die Plantane auf dem Gartensitzplatz Schatten und angenehm k\u00fchle Temperaturen.  \n\nEine vorg\u00e4ngige Reservation im oft ausgebuchten Restaurant wird empfohlen. ", "url": "https://thurgau-bodensee.ch/de/maps/wirtschaft-zum-frohsinn-fd00ea7f-4e33-491a-a97f-47f468bf2757.html", "image": "https://tgtpimtsoch.sos-ch-dk-2.exoscale-cdn.com/catalog/9/9/0/d/990d45b28fca1b2f6a5eff4d2100026acf41668c_Landschlacht_Frohsinn_Aussenansicht.jpg", "openstreetmap_id": "node/678581067"}, "geometry": {"type": "Point", "coordinates": ["9.2480474", "47.6246928"]}}, {"type": "Feature", "properties": {"identifier": "ff92ed64-5612-4226-a2eb-5ba6bb66e35c", "name": "Badi Beiz Strandbad Ermatingen", "description": "<p>Das Strandbad Ermatingen besticht durch seine ruhige Lage und den direkten Zugang zum Bodensee und ist der ideale Ort f&uuml;r erholsame Stunden am See. Eingebettet in die herrliche Natur l&auml;dt es zum Schwimmen, Sonnenbaden oder einfach zum Entspannen ein. Die Badi Beiz, ein gem&uuml;tlicher Kiosk, rundet das Erlebnis ab: Hier geniessen die G&auml;ste erfrischende Getr&auml;nke und regionale K&ouml;stlichkeiten. Der Blick auf den See und die entspannte Atmosph&auml;re machen die Badi Beiz zu einem beliebten Treffpunkt. Ein besonderer Tipp: Den Tag bei Sonnenuntergang in dieser traumhaften Kulisse ausklingen lassen. Regelm&auml;ssige Live-Musik-Anl&auml;sse sorgen zus&auml;tzlich f&uuml;r stimmungsvolle Abende und in den Wintermonaten bietet ein Pop-up-Restaurant im beheizten Zelt gem&uuml;tliche Stunden direkt am See.<br><br>Die Badi Beiz ist in der Regel w&auml;hrend den &Ouml;ffnungszeiten des Strandbades ge&ouml;ffnet.</p>", "url": "https://www.badi-ermatingen.ch", "image": "https://tgtpimtsoch.sos-ch-dk-2.exoscale-cdn.com/catalog/3/b/7/1/3b71f7f546c6bfb848de5cd25f631c6dc86daf34_c5a4591fc78115b5ec5a315bd206132b9d372271_steg.jpg", "openstreetmap_id": "node/3440981983"}, "geometry": {"type": "Point", "coordinates": ["9.0729008", "47.6714048"]}}]}