{"type": "FeatureCollection", "features": [{"type": "Feature", "properties": {"identifier": "05b4fb3c-a047-48b3-884c-0722751b9c70", "name": "Veloverleih Regivelo.ch", "description": "Rund 80 Regivelos sind in der Region Kreuzlingen unterwegs: In den Gemeinden Bottighofen, Kreuzlingen, Lengwil, M\u00fcnsterlingen und T\u00e4gerwilen k\u00f6nnen sie an 20 Stationen ausgeliehen und wieder abgestellt werden. Die Mietstationen sind so positioniert, dass sich die Fahrten auf den honiggelben E-Bikes und Fahrr\u00e4dern optimal mit dem \u00f6ffentlichen Verkehr verbinden lassen. Das Mieten der Regivelos funktioniert \u00fcber das System von Donkey Republic, das bereits in anderen Schweizer St\u00e4dten erfolgreich im Einsatz ist. Einloggen, mieten und auf zu Entdeckungen in der Bodenseeregion.", "url": "https://www.regivelo.ch", "image": "https://tgtpimtsoch.sos-ch-dk-2.exoscale-cdn.com/catalog/0/f/0/8/0f081b284e1ef9f87b2a149ccc8d9201e20161db_2_ekke_fuchs_regivelo.jpg", "openstreetmap_id": "way/136911160"}, "geometry": {"type": "Point", "coordinates": ["9.174692430236657", "47.6485486"]}}, {"type": "Feature", "properties": {"identifier": "06ac682f-23ad-431f-8c66-eb71c2704f81", "name": "Str\u00e4hl K\u00e4se", "description": "Was 1934 als Einmann-Betrieb begonnen hatt, entwickelte sich bis heute zu einem dynamischen Familienunternehmen mit rund 70 Mitarbeitenden. Das handwerkliche Geschick steht im Vordergrund, wenn es darum geht, die verschiedenen K\u00e4se-Spezialit\u00e4ten mit aufw\u00e4ndiger Pflege zum optimalen Reifegrad zu begleiten. Die meisten K\u00e4sesorten kennt man weit \u00fcber die Kantonsgrenze. Kein Wunder, denn t\u00e4glich werden im kleinen Dorf bis zu 150'000 Liter Thurgauer Kuhmilch zu feinem K\u00e4se verarbeitet.\n\nProdukte\nDie \u00e4ltere Generation erinnert sich noch an den \u00abStr\u00e4hl-Ch\u00e4s\u00bb \u2013 so nannten die Thurgauer den gr\u00fcnen Tilsiter. Heute trifft man in fast allen guten K\u00e4sevitrinen auf viele weitere Spezialit\u00e4ten mit Namen wie Thurgauer Rahmk\u00e4se, Echter Thurgauer, Bonaparte, Bonapepe, Arenenberger, Farmer, Landrauchk\u00e4se, Valbella K\u00fcmmelk\u00e4se oder ausgezeichneter Raclette-K\u00e4se in 4 Sorten.", "url": "https://www.straehl.ch", "image": "https://tgtpimtsoch.sos-ch-dk-2.exoscale-cdn.com/catalog/8/4/3/8/84386785380514f095364e74965596f293661bfb_Str__hl_K__se_AG_K__sekeller_mit_Person.jpg", "openstreetmap_id": "4171946489.0"}, "geometry": {"type": "Point", "coordinates": ["9.1676012", "47.6109626"]}}, {"type": "Feature", "properties": {"identifier": "09479141-0244-487e-9f23-c0da708aea60", "name": "Biotta ", "description": "In der Biotta Saftmanufaktur im Thurgauischen T\u00e4gerwilen werden direkt gepresste, naturbelassene S\u00e4fte und Smoothies hergestellt. Dabei stehen die biologische Ausrichtung, hohe Qualit\u00e4tsstandards und der Genuss im Vordergrund. Wenn immer m\u00f6glich, bezieht Biotta seine Rohstoffe von lokalen Bauern. Mit den Anbaupartnern in der Region aber auch im Ausland werden langj\u00e4hrige und vertrauensvolle Beziehungen gepflegt. Ergebnis sind geschmackvolle gesunde Frucht- und Gem\u00fcses\u00e4fte, Smoothies, Shots und gar eine nat\u00fcrliche Alternative von Energydrink. \n\nVom Feld in die Flasche und in die Verkaufsregale von Schweizer Superm\u00e4rkten und Drogerien. Die leckeren Biottas\u00e4fte sind auch in diversen Online-Shops erh\u00e4ltlich.", "url": "https://biotta.ch/de/", "image": "https://tgtpimtsoch.sos-ch-dk-2.exoscale-cdn.com/catalog/a/5/1/f/a51f3e34e29976cafd79a7fd9fb75648c9f03f0e_Biotta_Vita_7.png", "openstreetmap_id": "194559103.0"}, "geometry": {"type": "Point", "coordinates": ["9.138273", "47.655565"]}}, {"type": "Feature", "properties": {"identifier": "0cfb782f-a7b1-4fc6-915a-466e0467fd27", "name": "Tank & Trank ", "description": "Tank & Trank in Mammern am Bodensee ist ein reich best\u00fcckter Tankstellenshop der besonderen Art. Neben einem breiten Sortiment an t\u00e4glichen Gebrauchsartikeln, Getr\u00e4nken und Lebensmitteln finden sich hier auch Leckereien aus der Region wie t\u00e4glich frisches Brot vom Beck, die zarten Caramelh\u00e4ppli \u00abM\u00fcrbel\u00bb oder der fruchtig frische alkoholfreie Apfelschaumwein Tr\u00f6pfel. Der Familienbetrieb in dritter Generation gibt w\u00e4hrend seiner Kiosk-\u00d6ffnungszeiten gerne Ausflugs- und Erlebnistipps f\u00fcr Mammern und die Unterseeregion. Ausserhalb der \u00d6ffnungszeiten steht ein Info-Point f\u00fcr touristische Ausk\u00fcnfte zur Verf\u00fcgung. Leere E-Bike-Akkus k\u00f6nnen hier f\u00fcr 50 Rappen geladen werden. Eine Lounge neben dem Haus und ein St\u00fcbli laden w\u00e4hrenddessen zum Verweilen, St\u00f6bern und zum Zn\u00fcni oder Zvieri ein. Im St\u00fcbli liegen weitere Prospekte der Region auf sowie Geschenkartikel als Mitbringsel f\u00fcr den Besuch. Tank & Trank ist auch Gasdepot und Swisslos-Verkaufsstelle. ", "url": "https://www.tankundtrank.ch", "image": "https://tgtpimtsoch.sos-ch-dk-2.exoscale-cdn.com/catalog/8/8/2/8/88288a89c678afc864eb4ea8e28cf8814d7d5eee_IMG_9752.jpg", "openstreetmap_id": "7334479582.0"}, "geometry": {"type": "Point", "coordinates": ["8.913481", "47.644822"]}}, {"type": "Feature", "properties": {"identifier": "214cfc4f-d3a7-4399-8e99-9b3d02be9d13", "name": "Dampfromantik am Bodensee", "description": "Die historische Komposition, gezogen von der MThB-Dampflok Ec 3/5 Nr. 3, besteht aus dem roten Salonwagen, dem gr\u00fcnen Gep\u00e4ck-/Postwagen und dem blauen Aussichtswagen, sowie einem direkten Kurswagen (Panoramawagen) nach Heiden. Die G\u00e4ste steigen ein und erleben die Langsamkeit wie in fr\u00fcherer Zeit. Auf allen Fahrten wird ein kleines Gastro-Angebot mitgef\u00fchrt.\n\nDer Verein hat auch andere Sonderfahrten auf dem Jahresprogramm.\n\nDas Rollmaterial ist in der historischen Lokremise (Locorama Romanshorn) stationiert. Dort steht auch der bekannte \u00abThurgauer Zug\u00bb, ein elektrischer Pendelzug der ehemaligen Mittel-Thurgau-Bahn, mit dem exklusiven Salonwagen Bodan. Diese Komposition darf auf den meisten normalspurigen Bahnstrecken der Schweiz verkehren.\n\nDer Verein organisiert gerne eine individuelle Fahrt f\u00fcr pers\u00f6nliche Anl\u00e4sse, sei es mit Dampf oder elektrisch.", "url": "http://www.mthb.ch", "image": "https://tgtpimtsoch.sos-ch-dk-2.exoscale-cdn.com/catalog/c/d/9/3/cd9356e2ea34da4d5f5b1a9a3bf0c18db3f3f61c_MThB_Ec_MIE_01.jpg", "openstreetmap_id": "10098426949"}, "geometry": {"type": "Point", "coordinates": ["9.377057", "47.559628"]}}, {"type": "Feature", "properties": {"identifier": "2d05456f-3034-4bd3-a7fc-ef282c048067", "name": "Hallenbad Weinfelden", "description": "<p>Das Hallenbad Weinfelden ist eine moderne Schwimm- und Freizeitanlage im Herzen von Weinfelden und ein beliebter Ort f&uuml;r Bewegung, Gesundheit und Erholung. Herzst&uuml;ck der Anlage ist das 25-Meter-Becken mit f&uuml;nf Bahnen, das ideale Bedingungen f&uuml;r Schwimmtraining, Fitness und entspannte Bahnen bietet. Erg&auml;nzt wird das Angebot durch eine Sprunganlage mit 1- und 3-Meter-Brett sowie ein separates Nichtschwimmerbecken f&uuml;r unterschiedliche Bed&uuml;rfnisse.</p><p>Ein vielseitiges Angebot an Schwimm- und Aquafitkursen erweitert die Nutzungsm&ouml;glichkeiten der Anlage und macht das Hallenbad zu einem wichtigen Treffpunkt f&uuml;r Sport und Freizeit in der Region. Die zentrale Lage in Weinfelden sorgt f&uuml;r eine gute Erreichbarkeit und unterstreicht die Bedeutung der Anlage als Freizeit- und Bewegungszentrum im Thurgau.</p>", "url": "https://www.weinfelden-erleben.ch/sportanlagen/hallenbad", "image": "https://tgtpimtsoch.sos-ch-dk-2.exoscale-cdn.com/catalog/3/8/7/d/387d88ea7c5a039f46fabfe982c90316a5b0cf31_PIM_Eintrag_Badi__1_.jpg", "openstreetmap_id": "node/251364449"}, "geometry": {"type": "Point", "coordinates": ["9.104563", "47.5649841"]}}, {"type": "Feature", "properties": {"identifier": "2d804325-f36b-4218-96e7-ead3359b1168", "name": "Ochsen Metzgerei Wattinger", "description": "\u00abRegionale Fleisch- und Wurstwaren aus eigener Produktion, Artgerechte Tierhaltung und kurze Transportwege, Verhindern von Foodwaste durch die Verwertung des ganzen Tiere.\u00bb In unserem Familienunternehmen sind das keine Mode-Erscheinungen.\nMit unserer hauseigenen Schlachtung pflegen wir diese Traditionen seit 1985. Bis heute sind das die Voraussetzungen f\u00fcr h\u00f6chste Qualit\u00e4t.\n\nMetzgerei:\nIhr Fleischfachgesch\u00e4ft am Bodensee! Profitieren Sie von einer kompetenten Beratung und geniessen Sie unsere hausgemachten Fleisch- und Wurstspezialit\u00e4ten.\n\nCatering:\nJeder Anlass ist einzigartig. Wir umrahmen Ihren ganz individuellen Event gerne mit einem passenden Menu und dem kompletten Service. Ihr Genuss ist unsere Leidenschaft!\n\nFestinventar:\nGeschirr, Gl\u00e4ser, Turbo-Kaffeemaschine, K\u00fchlschr\u00e4nke, einzigartige Grills... Ein gelungener Anlass setzt eine einwandfreie Infrastruktur voraus. Wir r\u00fcsten Sie f\u00fcr jeden Event aus!\n\n24h-Verkaufsautomat:\nBezahlung auch kontaktlos mit Karte und Twint!", "url": "http://www.ochsen-metzgerei.ch/", "image": "https://tgtpimtsoch.sos-ch-dk-2.exoscale-cdn.com/catalog/5/6/5/2/5652966325825f0e41200aaeb7a71814c0fc6a38_Geb__ude_1.jpg", "openstreetmap_id": "node/8171482014"}, "geometry": {"type": "Point", "coordinates": ["9.2592022", "47.6127295"]}}, {"type": "Feature", "properties": {"identifier": "3ceabd8f-2872-4a51-bdb4-2e888f59ee9b", "name": "Kunsthalle Arbon", "description": "Mit dem \u00fcber die letzten Jahre gesch\u00e4rften Profil f\u00fcr experimentelle, installative Kunst in der charaktervollen Halle nimmt die Kunsthalle Arbon eine einzigartige Rolle unter den Ausstellungsr\u00e4umen in der Schweiz wahr.\n\nDie Ausstellungen wollen nicht das etabliert-museale Kunstverst\u00e4ndnis vermitteln, sondern dessen Weiterentwicklung und Erweiterung, wo Kunst Widerspruch, Irritation und Wagnis, nicht Best\u00e4tigung ist.\n\nDie Ausstellungen in der Kunsthalle Arbon sollen \u00fcberraschen und die Kunst einem breiten, vielschichtigen Publikum als besonderes Erlebnis und als Mehrwert erfahrbar machen. Die qualitativ hochstehende Kunst jenseits des Mainstreams will zudem auch dem Fachpublikum einen Ausflug in die Region lohnend machen.\n\nDer Eintritt in die Ausstellungen der Kunsthalle Arbon ist frei.", "url": "http://www.kunsthallearbon.ch/", "image": "https://tgtpimtsoch.sos-ch-dk-2.exoscale-cdn.com/catalog/7/3/e/a/73eaebbc948177176aead0ff9f2665f681d3200c_Ana_Strika_Kunsthalle_Arbon_2022_2.jpg", "openstreetmap_id": "way/258506399"}, "geometry": {"type": "Point", "coordinates": ["9.43403513194969", "47.51791455"]}}, {"type": "Feature", "properties": {"identifier": "3f11830d-a224-4365-a4a5-e0fcd9196ee3", "name": "1001 Freizeit Arena", "description": "Die 1001 Freizeit Arena pr\u00e4sentiert nicht nur 10 topmoderne Bowlingbahnen, sondern auch eine grossz\u00fcgige Tennis- und Badmintonhalle. F\u00fcr Liebhaber von Billard, Snooker und Dart gibt es hier ebenso ein vielf\u00e4ltiges Angebot.\n\nEin einzigartiges und actiongeladenes Spielerlebnis erwartet die G\u00e4ste in der 1001-Virtual Arena. Dank modernster Wireless-VR-Technologie kann die aufregende Welt des Free-Roam Virtual Gaming in voller Bewegungsfreiheit erkundet werden.\n\nDas moderne Spielparadies f\u00fcr Kinder begeistert mit erlebnisreichen Spielger\u00e4ten und Attraktionen wie Rutschen, Riesentrampolin, Kletterlabyrinth, Ballgruben, uvm. Langeweile ist bei diesem bunten und vielf\u00e4ltigen Angebot f\u00fcr Kinder jeden Alters ausgeschlossen.\n\nIn den hauseigenen Event-Restaurants, die besonders bei geselligen Firmen-, Vereins- oder Gruppenanl\u00e4ssen beliebt sind, werden verschiedene Plauschangebote wie Raclette- oder Pizzaplausch angeboten. Die Event-Restaurants bieten sich auch optimal f\u00fcr Kindergeburtstage an.", "url": "http://www.sport1001.ch/", "image": "https://tgtpimtsoch.sos-ch-dk-2.exoscale-cdn.com/catalog/4/e/9/1/4e91652d444f3bb2234e8e94f96831aeaf81476c_1001_Freizeit_AG_mit_Logo.jpg", "openstreetmap_id": "3595906777.0"}, "geometry": {"type": "Point", "coordinates": ["9.28957", "47.54096"]}}, {"type": "Feature", "properties": {"identifier": "450f04be-6022-4684-8e8d-7ec6d5eb99c8", "name": "Kanuschule Bodensee \u2013 Kanu- und SUP-Erlebnisse", "description": "<p class=\"isSelectedEnd\">Mit der Kanuschule Bodensee entdecken G&auml;ste die Faszination des Paddelns in Arbon: Interessierte profitieren von einer Vielzahl an Kursen &ndash; vom Seekajak &uuml;ber Surfski bis hin zu spezialisierten Techniktrainings. Als f&uuml;hrendes Testzentrum f&uuml;r Epic-, Nelo-, Tiderace- und die faltbaren Oru Kayaks bietet die Kanuschule Bodensee h&ouml;chste Qualit&auml;t und neuste Innovationen im Paddelsport. Das Angebot richtet sich sowohl an Einzelpersonen als auch an Gruppen, inklusive Firmenausfl&uuml;gen und Teambuilding-Events mit Grosskanadiern.</p><p>Der Wassersport-Shop h&auml;lt alles bereit, was f&uuml;r ein Paddelabenteuer ben&ouml;tigt wird. Hier gibt es nicht nur die perfekte Ausr&uuml;stung, sondern auch ein Team, das seine Leidenschaft f&uuml;r den Wassersport teilt. Interessierte erleben den Bodensee von seiner sch&ouml;nsten Seite &ndash; auf dem Wasser, gest&auml;rkt durch Sport und umgeben von Natur. Die Kanuschule Bodensee sorgt f&uuml;r unvergessliche Paddelerlebnisse.</p>", "url": "http://www.kanuschule-bodensee.ch/", "image": "https://tgtpimtsoch.sos-ch-dk-2.exoscale-cdn.com/catalog/9/f/0/1/9f01ab311e142ad860d1276efe3375d369f8dd8d_Teamfoto__2.jpeg", "openstreetmap_id": "way/259196140"}, "geometry": {"type": "Point", "coordinates": ["9.419058233648066", "47.525958200000005"]}}, {"type": "Feature", "properties": {"identifier": "4b78549d-c828-46e2-84f5-560c6e922c49", "name": "Tr\u00f6pfel \u2013 alkoholfreier Trinkgenuss", "description": "Als die Promillegrenze in der Schweiz gesenkt wurde, waren die Zeit, zwei Thurgauer Frauen und die Fr\u00fcchte reif f\u00fcr Tr\u00f6pfel! Patricia D\u00e4hler und Esther Schaefer kreierten ihren ersten alkoholfreien Schaumwein aus Ostschweizer Trauben und \u00c4pfeln. Dieser erhielt diverse Auszeichnungen. An den Erfolg kn\u00fcpften die Frauen mit drei weiteren Tr\u00f6pfeln, wie etwa dem Kingwer, leicht scharf, mit K\u00fcrbis und Schweizer Ingwer, sowie mit dem Paes an. Letzteres ist ein isotonisches Powergetr\u00e4nk in zwei Geschmacksrichtungen und perfekte Erfrischung nach sportlicher Aktivit\u00e4t. Der bisher letzte Coup der Tr\u00f6pfel-Erfinderinnen ist der Sansbulle, ein stilvoller Essensbegleiter zum Anstossen ohne Kohlens\u00e4ure und nat\u00fcrlich auch ohne Alkohol. Es gibt ihn in rot aus Regenttrauben, Haskap- und Aroniabeeren oder weiss mit Lavendel, Salbei, Quitten und weissen Traube. Auf dem Schweizer Regionalprodukte-Wettbewerb erhielt der Sansbulle die Goldmedaille. Mittlerweile werden j\u00e4hrlich \u00fcber 70\u2019000 Flaschen Tr\u00f6pfel-Getr\u00e4nke produziert und schweizweit vertrieben.", "url": "https://www.troepfel.ch/", "image": "https://tgtpimtsoch.sos-ch-dk-2.exoscale-cdn.com/catalog/5/6/6/9/5669642d091741bb174f0b9a6711d27d8252a0c9_Mammern_Troepfel_Detail_Flasche.jpg", "openstreetmap_id": "7334276086.0"}, "geometry": {"type": "Point", "coordinates": ["8.934338300000036", "47.6495936"]}}, {"type": "Feature", "properties": {"identifier": "554babe1-f965-4a55-aeb3-3e7d5f9440f9", "name": "Schlossbadi Frauenfeld", "description": "<p class=\"isSelectedEnd\">Mit Hallenbad und Freibad vereint die Schlossbadi im Herzen von Frauenfeld ganzj&auml;hriges Badevergn&uuml;gen. Mit einem grossz&uuml;gigen Schwimmbecken, attraktiven Wasserfl&auml;chen und gepflegten Anlagen schafft sie ideale Bedingungen f&uuml;r sportliches Schwimmen, entspanntes Verweilen und gemeinsame Erlebnisse mit der Familie.</p>", "url": "https://www.frauenfeld.ch/kultur-freizeit/freizeit/freizeitanlagen-sport/schlossbadi-frauenfeld.html/295", "image": "https://tgtpimtsoch.sos-ch-dk-2.exoscale-cdn.com/catalog/6/c/9/0/6c9093e94cdaaeeea4132a7a0c17d3839238bb0d_Schlossbadi.jpg", "openstreetmap_id": "way/1234896569"}, "geometry": {"type": "Point", "coordinates": ["8.8959382", "47.55251"]}}, {"type": "Feature", "properties": {"identifier": "6136c2c5-5338-4eba-bbbe-e328f51fee45", "name": "Hofladen Schloss Herdern", "description": "<p>Schloss Herdern ist eine Wohn-, Arbeits- und Besch\u00e4ftigungsst\u00e4tte. Im Zentrum steht dabei das Wohl und die F\u00f6rderung jedes Einzelnen und die Schaffung eines Umfelds, in dem sich die Klienten geborgen und unterst\u00fctzt f\u00fchlen.<br><br>In der hauseigenen Genussk\u00fcche werden regionale Produkte der Eigenmarke \u00abGenuss Handwerk\u00bb hergestellt. Die Klienten leisten einen wertvollen Beitrag, angefangen beim R\u00fcsten \u00fcber das Abf\u00fcllen bis hin zum Anbringen von Etiketten. Im Kreativatelier werden in entspannter Arbeitsatmosph\u00e4re Gegenst\u00e4nde unter der Eigenmarke \u00abDesign Handwerk\u00bb hergestellt. Diese und weitere Produkte werden im Schlossladen wundersch\u00f6n pr\u00e4sentiert, auf M\u00e4rkten verkauft oder \u00fcber den Web-Shop vertrieben.<br><br>Verschiedene Anl\u00e4sse auf Schloss Herdern locken immer wieder zahlreiche Besucher an wie der j\u00e4hrliche Tag des offenen Weinkellers, der Tag der offenen T\u00fcr, der Herbst- oder Weihnachtsmarkt.<br></p>", "url": "https://www.schlossherdern.ch/", "image": "https://tgtpimtsoch.sos-ch-dk-2.exoscale-cdn.com/catalog/e/f/0/4/ef04b2c7bc43c2d16c9c2cb6ea76c8f48c8bd3e7_Herdern_Schloss.JPG", "openstreetmap_id": "node/5300918721"}, "geometry": {"type": "Point", "coordinates": ["8.9100273", "47.6041186"]}}, {"type": "Feature", "properties": {"identifier": "624ba23d-3707-4423-bd57-5d973fbb17e3", "name": "SUP4YOU", "description": "<p>SUP4YOU betreibt in der Badi Steckborn am Untersee eine moderne Selbstbedienungs-Mietstation f&uuml;r Stand-up-Paddleboards (SUP). Das Angebot erweitert das Freizeit- und Wassersportangebot im Kanton Thurgau und erm&ouml;glicht einen unkomplizierten Zugang zum Stand-up-Paddling direkt am See. Dank der digitalen Mietstation k&ouml;nnen SUP-Boards spontan und bequem in rund einer Minute mit dem Smartphone gemietet werden: QR-Code an der Mietstation scannen, Board aus dem Fach entnehmen und direkt aufs Wasser starten. Die Lage in der Badi Steckborn bietet ideale Voraussetzungen f&uuml;r entspannte Touren mit Blick auf den Untersee und die gegen&uuml;berliegende Uferlandschaft. Die automatisierte L&ouml;sung verbindet moderne Technologie mit einem unkomplizierten Naturerlebnis und schafft maximale Flexibilit&auml;t f&uuml;r Einheimische und Ferieng&auml;ste.</p>", "url": "https://sup4you.ch/de/strandbad-steckborn/", "image": "https://tgtpimtsoch.sos-ch-dk-2.exoscale-cdn.com/catalog/3/f/0/2/3f02c1cc61d68018adf88758aabd54df1cb49710_IMG_6954.jpeg", "openstreetmap_id": "way/97385114"}, "geometry": {"type": "Point", "coordinates": ["8.9694971", "47.6587281"]}}, {"type": "Feature", "properties": {"identifier": "6775e80e-7ff2-43ae-8623-89656e71b786", "name": "Ein T\u00f6ffli-Tag mit Mofun", "description": "<p>Bei Mofun in Schaffhausen lassen sich T\u00f6ffli f\u00fcr eine Rundfahrt mit Freunden, einen Vereinsausflug, Poltertag oder Firmenevent mieten. Das Schwelgen in Erinnerungen ist garantiert \u2013 wer denkt nicht gerne an seine Jugend zur\u00fcck, als das T\u00f6ffli das erste St\u00fcck Freiheit bedeutet? Heute f\u00e4hrt man mit den Mopeds von Mofun auf einen erlebnisreichen Ausflug durch die Region Schaffhausen, entlang von Rhein und Rebhang. Unterwegs ist man auf den legend\u00e4ren Pony Mofas, die seit 1961 in Feuerthalen hergestellt werden. Die T\u00f6ffli haben nur einen Sprung \u00fcber den Rhein zu Mofun gemacht und sind weiterhin in ihrem Heimatgebiet unterwegs. Mofun unterst\u00fctzt bei der Routenwahl, Organisation eines Rahmenprogramms oder F\u00fchrungen. Die komplette Ausr\u00fcstung wie Helm, Handyhalter, Routenplaner, Kindersitz und Notfallset wird bereitgestellt. Sollte ein Problem auftreten, geh\u00f6rt auch ein Pikett-Dienst zum Angebot.</p>", "url": "https://www.mofun.ch", "image": "https://tgtpimtsoch.sos-ch-dk-2.exoscale-cdn.com/catalog/2/6/d/0/26d0e339ead63e3ab14e7661a27264a7252110b1_1_Mofun_Hauptbild.jpg", "openstreetmap_id": "way/279142034"}, "geometry": {"type": "Point", "coordinates": ["8.5017088", "47.7019479"]}}, {"type": "Feature", "properties": {"identifier": "693c4db0-e530-400e-b299-51b569251b80", "name": "Meier Schreinerei", "description": "<p>Die Meier Schreinerei in Weinfelden ist ein traditionsreicher Handwerks-Familienbetrieb in vierter Generation. Hier trifft modernste CNC-Technologie auf klassisches Handwerk &ndash; vom digitalen Pr&auml;zisionsschnitt bis zum Arbeiten mit dem traditionellen Handhobel.</p>\n<p>In den Workshops kommen beide Techniken zum Einsatz. Die Teilnehmenden arbeiten mit Schreinermaschinen und traditionellen Werkzeugen und erhalten wertvolle Tipps von versierten Handwerkern. Unter fachkundiger Anleitung entstehen einzigartige Massivholzst&uuml;cke &ndash; vom klassischen Schneidebrett &uuml;ber eine stilvolle Sommerliege bis hin zu einem modernen Weihnachtsbaum.</p>\n<p>Mehr als nur ein Kurs: Dieser Workshop schafft Raum f&uuml;r Kreativit&auml;t und f&ouml;rdert den Teamgeist. Ob als Teamevent, Polterabend oder Firmenausflug &ndash; diese Erfahrung bleibt unvergessen. Vorkenntnisse sind nicht erforderlich.</p>", "url": "https://legno-vivo.meier-schreinerei.ch/home.html", "image": "https://tgtpimtsoch.sos-ch-dk-2.exoscale-cdn.com/catalog/0/c/6/a/0c6a69beaf7d9732bf2078852a720bcc24b75bfb_MeierSchreinerei_Weinfelden_Sommerstuhl__2.jpg", "openstreetmap_id": "way/219952765"}, "geometry": {"type": "Point", "coordinates": ["9.123382731334871", "47.560791800000004"]}}, {"type": "Feature", "properties": {"identifier": "8de3fbb5-377f-4413-8453-a2579914cfd6", "name": "Hallenbad Egelsee", "description": "<p>Die moderne Wasserwelt vereint Sport, Erholung und Familienerlebnisse an einem Ort. Herzst&uuml;ck der Anlage ist das Sportbecken f&uuml;r Schwimmtraining und Bewegung im Wasser. Erg&auml;nzt wird das Angebot durch ein Lehrschwimmbecken mit variablem Beckenboden, ein Familienbecken mit Sprungbereich sowie ein Erlebnisbecken mit Massaged&uuml;sen, Schwallduschen und Sprudelsitzen.</p><p>F&uuml;r Familien steht ein eigener Kleinkindbereich mit flachem Wasser, Rutsche und Wasserspielen zur Verf&uuml;gung. Die Rutschbahn mit mehreren Kurven sorgt f&uuml;r zus&auml;tzlichen Badespass. Sprungplattformen mit separatem Eintauchbereich bieten attraktive M&ouml;glichkeiten f&uuml;r sportliche Aktivit&auml;ten im Wasser.</p><p>Der Wellnessbereich mit Sauna und Dampfbad erg&auml;nzt das Angebot und schafft Raum f&uuml;r Entspannung. Dank der modernen Infrastruktur, der vielf&auml;ltigen Wasserattraktionen und der Lage in Kreuzlingen nahe dem Bodensee ist das Bad Egelsee ein beliebtes Ausflugsziel f&uuml;r Freizeit, Sport und Erholung im Thurgau.</p>", "url": "https://www.bad-egelsee.ch/", "image": "https://tgtpimtsoch.sos-ch-dk-2.exoscale-cdn.com/catalog/a/6/1/8/a618672e2439a99be5bc94a5a629731c4a8f4e19_Kreuzlingen_BadEgelsee.jpg", "openstreetmap_id": "node/13034930361"}, "geometry": {"type": "Point", "coordinates": ["9.1768507", "47.6456745"]}}, {"type": "Feature", "properties": {"identifier": "a4623f8e-dc49-421c-a6b3-2d48bde9c3fe", "name": "Minigolf Buchs (am Werdenbergersee)", "description": "Die Minigolfanlage, welche von Angelica und Beat Finsterwald in zweiter Generation mit Herzblut gef\u00fchrt wird, bietet des Weiteren eine Pit Pat Anlage (eine Art Tischminigolf) mit 18 verschiedenen Bahnen, einen Kinderverkehrsgarten mit Elektroautos, Fahrsimulatoren und Tischtennis spielen. Der Kiosk mit Selbstbedienung rundet einen gelungenen Ausflug ab. ", "image": "https://tgtpimtsoch.sos-ch-dk-2.exoscale-cdn.com/catalog/f/1/5/1/f151d6628ee042e83d49a71fb51df9b89a89cfbf_FreizeitanlageWerdenberg_2024.jpg", "openstreetmap_id": "way/1127819989"}, "geometry": {"type": "Point", "coordinates": ["9.463251275602586", "47.16540365"]}}, {"type": "Feature", "properties": {"identifier": "a4ebe6ef-10cc-4e32-8a71-15dd73ac0777", "name": "La Canoa \u2013 Kanuzentrum Konstanz", "description": "Es gibt kaum einen sch\u00f6neren Weg den Bodensee mit seiner einzigartigen Natur- und Kulturlandschaft zu entdecken als paddelnd vom Wasser aus. La Canoa, das Kanuzentrum in Konstanz, r\u00fcstet Wasserbegeisterte aus mit Paddel-Equipment und bietet ein vielf\u00e4ltiges Kursangebot und Routenvorschl\u00e4ge. Wie w\u00e4re es zum Beispiel beim Aufenthalt am Bodensee bis zur Unterkunft mit dem Kanu zu paddeln? Oder den Bodensee-Kanuweg unter die Ruder zu nehmen? 25 Abgabestationen rund um den Bodensee machen diese etwas andere Art des Reisens m\u00f6glich. Auf Schweizer Bodenseeseite finden sich SUP- und Kanustationen in Romanshorn, Kreuzlingen, Gottlieben, Steckborn, Stein a.R., Schaffhausen. Hier k\u00f6nnen Boote und SUP's gemietet und abgegeben werden. F\u00fcr Gruppen-, Schulklassen-, Firmen- und Teambuildingausfl\u00fcge bietet La Canoa gef\u00fchrte Kanutouren an. Das gemeinsame Fortbewegen auf dem Wasser st\u00e4rkt den Zusammenhalt, denn nur mit vereinten Kr\u00e4ften gelangt man ans Ziel. Ein spritziger und erlebnisreicher Tag ist garantiert.", "url": "http://www.lacanoa.com/", "image": "https://tgtpimtsoch.sos-ch-dk-2.exoscale-cdn.com/catalog/2/4/e/2/24e2e75e2db027db6c2e1691a0fec4579049982b_Konstanz_Kajak_Kanu_Inselhotel_Muenster_30_2020_Quelle_LaCanoa.JPG", "openstreetmap_id": "way/194904580"}, "geometry": {"type": "Point", "coordinates": ["9.148033261299135", "47.6755384976673"]}}, {"type": "Feature", "properties": {"identifier": "ae0b0604-7b19-4a73-9129-72a026929dc0", "name": "Kantonsbibliothek Thurgau", "description": "Ein Aufenthaltshort zum Lesen, Lernen und Verweilen...\nEin grosser Lesesaal, WLAN, PC- und diverse Einzelarbeitspl\u00e4tze stehen f\u00fcr Katalog- und Internetrecherchen zur Verf\u00fcgung und erm\u00f6glichen vertieftes Arbeiten. Ausserdem bietet die Kantonsbibliothek Zugang zu zahlreichen digitalen Angeboten, darunter ein Presseportal mit \u00fcber 300 vorwiegend deutschsprachigen Tages- und Wochenzeitungen, Sprachkurse, Film- und Musikstreaming und mehrere Plattformen mit E-Books, E-Paper und E-Magazines.\n\nDie gr\u00f6sste kantonale Bibliothek ist auch die zentrale Sammel- und Vermittlungsstelle f\u00fcr thurgauisches Schriftentum. Sie beherbergt einen bemerkenswerten historischen Buchbestand; alte, kostbare, ja einmalige Werke (Handschriften, Inkunabeln und alte Drucke), von denen nicht wenige aus aufgehobenen Thurgauer Kl\u00f6stern stammen.", "url": "https://kantonsbibliothek.tg.ch/", "image": "https://tgtpimtsoch.sos-ch-dk-2.exoscale-cdn.com/catalog/3/2/7/b/327b53cd251c54fd27f7ed6fe555bf1772bdd61f_Frauenfeld_Kantonsbibliothek_Thurgau.jpg", "openstreetmap_id": "way/220908319"}, "geometry": {"type": "Point", "coordinates": ["8.899457323304771", "47.55621805"]}}, {"type": "Feature", "properties": {"identifier": "b51310cc-e78d-4191-a97f-239ad031d7f4", "name": "Schwimmbad Amriswil", "description": "<p>Das Schwimmbad Amriswil z&auml;hlt zu den beliebten Freizeit- und Sportanlagen im Thurgau und bietet ein abwechslungsreiches Angebot f&uuml;r Erholung, Bewegung und Wasserspass. Die weitl&auml;ufige Anlage vereint sportliche Infrastruktur mit familienfreundlichen Attraktionen und grossz&uuml;gigen Gr&uuml;nfl&auml;chen.</p><p>Herzst&uuml;ck der Anlage ist das 50-Meter-Schwimmbecken, das ideale Bedingungen f&uuml;r Schwimmsport und Training bietet. Erg&auml;nzt wird das Angebot durch ein Nichtschwimmerbecken, einen Str&ouml;mungskanal sowie einen Sprudelbereich. F&uuml;r zus&auml;tzliche Abwechslung sorgen die lange Rutschbahn und die 1- und 3-Meter-Sprungt&uuml;rme. Kinder finden im Planschbecken mit Wasserspielen sowie auf dem Spielplatz vielf&auml;ltige M&ouml;glichkeiten zum Spielen und Entdecken.</p><p>Neben den Wasserattraktionen verf&uuml;gt das Schwimmbad Amriswil &uuml;ber Beachvolleyballfelder, Tischtennistische, eine Ballwiese sowie weitl&auml;ufige Liegewiesen mit zahlreichen Schattenpl&auml;tzen. Die Kombination aus Sport, Erholung und familienfreundlicher Infrastruktur macht die Badi zu einem vielseitigen Ausflugsziel in Amriswil und im Thurgau.</p>", "url": "https://www.amriswil.ch/badi", "image": "https://tgtpimtsoch.sos-ch-dk-2.exoscale-cdn.com/catalog/8/1/1/9/81195c40e33c9b51b69d691931abd7406d13f4db_PIM_Eintrag_Badi__1_.jpg", "openstreetmap_id": "way/332845140"}, "geometry": {"type": "Point", "coordinates": ["9.301176667213442", "47.543341050459524"]}}, {"type": "Feature", "properties": {"identifier": "ca17e3df-fd1e-47f1-b886-408519c24e19", "name": "indicis.ch \u2013 E-Bike Verleih und Touren", "description": "<p>Am Untersee verbindet indicis.ch E-Bike Verleih mit gef&uuml;hrten Touren direkt am Bodenseeradweg. So er&ouml;ffnen sich ideale M&ouml;glichkeiten, den Thurgau aktiv zu entdecken. Die Routen f&uuml;hren durch sanfte H&uuml;gellandschaften, vorbei an Obstg&auml;rten, Rebbergen und idyllischen Uferwegen. Erfahrene Guides vermitteln Hintergr&uuml;nde zu Natur, Kultur und Geschichte und er&ouml;ffnen neue Einblicke in die Bodenseeregion. Neben Tagesausfl&uuml;gen organisiert das Unternehmen auch mehrt&auml;gige Reisen rund um den Bodensee oder bis in das Elsass. Moderne E-Bikes mit tiefem Einstieg sorgen f&uuml;r Komfort und erm&ouml;glichen es, auch l&auml;ngere Strecken m&uuml;helos zu bew&auml;ltigen. Damit ist indicis.ch ein verl&auml;sslicher Partner f&uuml;r Gruppen und Teams, die die Vielfalt des Thurgaus und des Bodenseeraums nachhaltig erleben m&ouml;chten.</p>", "url": "http://www.indicis.ch", "image": "https://tgtpimtsoch.sos-ch-dk-2.exoscale-cdn.com/catalog/4/2/d/2/42d2914bd5b6c98ad13cc225035ec4ef0958c056_20250511_115204__1_.jpg", "openstreetmap_id": "way/204655966"}, "geometry": {"type": "Point", "coordinates": ["9.0753813", "47.6701352"]}}, {"type": "Feature", "properties": {"identifier": "d64cd5cc-7555-4225-92da-70dbcda9c2b0", "name": "\u00d6pfelfarm", "description": "G\u00e4ste erleben in der \u00d6pfelfarm in Steinebrunn die Verarbeitung und Veredelung von \u00c4pfeln und vielen anderen Fr\u00fcchten und Beeren zu den verschiedensten Gaumenfreuden. Die Familie Kauderer hat sich diesem Genusshandwerk verschrieben und \u00f6ffnet in ihrem Hofladen die T\u00fcren zu einer Welt voller K\u00f6stlichkeiten. Nebst Trockenfr\u00fcchten, Backwaren und vielen anderen regionalen Spezialit\u00e4ten, sind im Hofladen und im dazugeh\u00f6rigen Onlineshop auch viele individuell zusammengestellte Geschenksideen zu finden. Gruppen haben zudem die M\u00f6glichkeit, die Produktion der Trockenfr\u00fcchte zu besichtigen und einen Einblick in die Welt der Familie Kauderer zu erlangen.", "url": "http://www.oepfelfarm.ch/", "image": "https://tgtpimtsoch.sos-ch-dk-2.exoscale-cdn.com/catalog/4/6/c/2/46c255f9d27708d92fe25e82c62b7931ff6af556___pfelfarm_in_Steinebrunn.jpg", "openstreetmap_id": "3015821507.0"}, "geometry": {"type": "Point", "coordinates": ["9.3484775", "47.5297754"]}}, {"type": "Feature", "properties": {"identifier": "e5e0fb90-e18d-4ac4-b7ac-819891946a54", "name": "Padel District", "description": "<p>Padel District Affeltrangen bietet modernes Padel-Erlebnis im Thurgau mit hochwertigen Courts, Trainings, Events und Turnieren f&uuml;r alle, die Padel neu entdecken oder bereits regelm&auml;ssig spielen &ndash; in sportlicher Atmosph&auml;re mit Community-Feeling.&nbsp;Die moderne Anlage in Affeltrangen bringt die dynamische Trendsportart Padel in den Thurgau und ist gut aus der Region Thurgau, dem Bodenseegebiet und der Ostschweiz erreichbar. Eingebettet in die l&auml;ndlich gepr&auml;gte Umgebung des Kantons verbindet Padel District Bewegung, Spiel und Begegnung zu einem unkomplizierten Sporterlebnis.<br>Die hochwertigen Courts schaffen ideale Bedingungen f&uuml;r entspannte Matches mit Freunden, sportliche Duelle, Gruppenevents oder Trainings. Ob erste Erfahrungen auf dem Court oder ambitioniertes Spiel: Hier treffen moderne Infrastruktur, aktive Community und echte Spielfreude aufeinander.</p>", "url": "https://padeldistrict.ch", "image": "https://tgtpimtsoch.sos-ch-dk-2.exoscale-cdn.com/catalog/6/a/c/4/6ac4e2f8dadefba8634220587da95c698e041085_Affeltrangen_Padel_District_Halle.jpg.jpg", "openstreetmap_id": "node/13377891413"}, "geometry": {"type": "Point", "coordinates": ["9.036399722099306", "47.52620706363991"]}}, {"type": "Feature", "properties": {"identifier": "ecc389c6-d7bf-4efe-b736-1ad1b485c4b3", "name": "Wieland Beeren und Glac\u00e9", "description": "Der Pilgerhof wird von Familie Wieland in zweiter Generation bewirtschaftet und liegt mitten im Thurgau.  Der Anbau von geschmacksintensiven Erdbeeren, Himbeeren, Heidelbeeren sowie Brombeeren geh\u00f6ren zu ihren St\u00e4rken. \n\nIn der hofeigenen Glac\u00e9manufaktur entstehen die \u00abThurgauer Glac\u00e9 Perlen\u00bb. Fr\u00fcchte vom Hof und weitere regionale Zutaten sowie viel Liebe und Leidenschaft f\u00fcr feine Produkte lassen Glac\u00e9-Tr\u00e4ume wahr werden.\n\nIm Hofladen werden tagesfrische Beeren, Glac\u00e9 und weitere Spezialit\u00e4ten werden angeboten.\n\nEin kleiner Rastplatz im Gr\u00fcnen l\u00e4dt zudem Wanderer und Velofahrer ein, eine Pause zu machen und aufzutanken. Familien mit Kindern geniessen die ruhige Umgebung sowie den nahen Kontakt zu den H\u00fchnern, Kaninchen und Zwergziegen.", "url": "https://www.wieland-beeren.ch/", "image": "https://tgtpimtsoch.sos-ch-dk-2.exoscale-cdn.com/catalog/6/b/9/7/6b979d2a9c29fb0108b6ffd46ddc522890746d8c_wielands_beerenliebe__2.png", "openstreetmap_id": "node/8363961502"}, "geometry": {"type": "Point", "coordinates": ["9.071643", "47.5844232"]}}, {"type": "Feature", "properties": {"identifier": "ecdfa0eb-c8de-4e05-92ec-b10eb7307227", "name": "Mostgut B\u00e4renmost", "description": "<p>Seit 1910 bewirtschaftet die Familie B&auml;r ihren Biohof im Herzen von Mostindien. Mit Leidenschaft wird hier Apfelsaft angebaut, gepresst, vermarktet und genossen. Das Mostgut steht f&uuml;r famili&auml;re Produktion &ndash; von der Scholle bis ins Glas. Purer Geschmack, eleganter Genuss, stilvolles Ambiente und echte Thurgauer Gastfreundschaft machen diesen Ort besonders. Der B&auml;renmost entsteht aus voll ausgereiften, saftigen Bio&auml;pfeln, die direkt auf dem Hof mit einem innovativen Verfahren gepresst werden &ndash; naturrein und ohne Zus&auml;tze. Das Mostgut ist ein kleines, feines Familienunternehmen mit kreativen Ideen. Mit viel Herzblut werden hier authentische Erlebnisse rund um den Apfel geschaffen &ndash; mitten im Thurgau.</p>", "url": "https://baerenmost.ch/", "image": "https://tgtpimtsoch.sos-ch-dk-2.exoscale-cdn.com/catalog/4/2/d/b/42db40174b5eeb66cf894b20a7de26c548dbc864_ba__renmost_2022_127_2.jpg", "openstreetmap_id": "node/8548146457"}, "geometry": {"type": "Point", "coordinates": ["9.173830747604372", "47.561324341945365"]}}, {"type": "Feature", "properties": {"identifier": "f6dd71ca-4bc4-4e5b-99e4-581483f51fc4", "name": "WAMU", "description": "<p>WAMU aus dem Thurgau denkt Standup Paddling neu. Das Unternehmen kombiniert klassische SUP-Technologie mit einem innovativen Ansatz. Boards lassen sich magnetisch miteinander verbinden.<br>Die WAMU SUP Boards sind so konzipiert, dass sie einzeln gefahren werden k&ouml;nnen und sich bei Bedarf nahtlos zusammenschliessen lassen. Durch ein integriertes Magnetsystem verbinden sich mehrere Boards stabil miteinander &ndash; schnell, sicher und ohne komplizierte Handgriffe. So entstehen aus einzelnen Elementen gr&ouml;ssere Fl&auml;chen, die vielseitig genutzt werden k&ouml;nnen. Diese Funktion verwandelt den See in einen modularen Erlebnisraum.<br>Doch WAMU geht noch weiter. Die verbundenen Boards schaffen auch Raum f&uuml;r Bewegung und Spiel. Aus der Plattform wird ein Spielfeld f&uuml;r Aktivit&auml;ten wie Volleyball oder andere Gruppenspiele. Die Innovation aus dem Thurgau verbindet Natur, Bewegung und Gemeinschaft zu einem vielseitigen Erlebnis.<br>Die WAMU SUP Boards k&ouml;nnen direkt beim Wakepark Romanshorn gemietet werden.&nbsp;</p><p>&nbsp;</p>", "url": "https://wamu.ch/", "image": "https://tgtpimtsoch.sos-ch-dk-2.exoscale-cdn.com/catalog/f/c/8/d/fc8d3043d17d4f56f47ec0e1ec17e7d9743cddf9_Wamu_Standup_Paddles_zum_verbinden_4.jpg", "openstreetmap_id": "node/7072212427"}, "geometry": {"type": "Point", "coordinates": ["9.3594235", "47.5744142"]}}, {"type": "Feature", "properties": {"identifier": "f7862546-f1ae-4283-9fd9-2825d167ec3f", "name": "Fussballgolf Thurgau", "description": "Fussballgolf ist eine noch recht junge, aufstrebende Trendsportart, welche die beiden Sportarten Fussball und Golf kombiniert. Dieses Outdoor-Erlebnis ist f\u00fcr Gross und Klein, f\u00fcr Familien, Vereine und Firmen ein Freizeitspass \u2013 sowohl f\u00fcr Fussballer als auch f\u00fcr Nichtfussballer. Gespielt wird in Gruppen und Ziel ist es, einen Fussball durch oder \u00fcber Hindernisse zu spielen und in ein Loch zu versenken. Es gewinnt, wer am wenigsten Sch\u00fcsse ben\u00f6tigt. Ein Durchgang f\u00fcr vier Personen dauert rund zwei Stunden. Die Anlage mit den 18 Bahnen auf einer Spielfl\u00e4che von 35'000 Quadratmetern ist naturnah gestaltet. Zwischen den Bahnen vermitteln Informations-Tafeln Wissenswertes zum Thema Biodiversit\u00e4t.\n\nIm rollstuhl- und kinderwagenfreundlichen Bistro k\u00f6nnen sich Besucherinnen und Besucher mit warmen und kalten Speisen und Getr\u00e4nken verpflegen. Von der Terrasse aus geniessen die G\u00e4ste den Blick \u00fcber das gesamte Spielfeld. Die Kinder k\u00f6nnen sich in der Spielzone mit Sandkasten und Torschusswand vergn\u00fcgen.", "url": "https://fussballgolf.ch", "image": "https://tgtpimtsoch.sos-ch-dk-2.exoscale-cdn.com/catalog/8/c/6/2/8c62bbe53dae707ed08b01643e9ec764954fd7a1_Fu__ballGolf_079.jpg", "openstreetmap_id": "way/34638393"}, "geometry": {"type": "Point", "coordinates": ["9.006557464599611", "47.58863665571785"]}}, {"type": "Feature", "properties": {"identifier": "fa11ee44-c008-4174-b5a7-2367d2ba3f82", "name": "ArboPark Action & Fun Center", "description": "<p>\u00dcber 25 High-End-Attraktionen sorgen f\u00fcr Abwechslung und den richtigen Adrenalinkick \u2013 darunter Gokart, DriftPark, Mixed Reality Playground, AR-Darts, die virtuelle Musikshow \u00abThe Voice\u00bb, interaktives Minigolf und einzigartige CUBE Challenges. Wer eine Pause braucht, st\u00e4rkt sich im hauseigenen Bistro. Ob mit der Familie, in der Gruppe oder im Team \u2013 im ArboPark sind Geschick, Teamgeist und K\u00f6pfchen gefragt. Dank \u00fcberdachter Halle und Abend\u00f6ffnung ist der Besuch bei jedem Wetter m\u00f6glich \u2013 ideal f\u00fcr spontane Tagesausfl\u00fcge und abwechslungsreiche Abende.&lt;/p&gt;&lt;p&gt;Der ArboPark liegt nur 10 Minuten vom Bahnhof Arbon entfernt und bietet \u00fcber 400 Parkpl\u00e4tze direkt vor Ort. Das n\u00e4chste Abenteuer ist also ganz nah.</p>", "url": "https://www.arbopark.ch/", "image": "https://tgtpimtsoch.sos-ch-dk-2.exoscale-cdn.com/catalog/7/3/d/4/73d46b1e86af9adcbbd3a2ec0bb6fb050d7e2345_indoor_freizeitpark2.png", "openstreetmap_id": "node/10578653436"}, "geometry": {"type": "Point", "coordinates": ["9.4295678", "47.5069449"]}}]}