{"type": "FeatureCollection", "features": [{"type": "Feature", "properties": {"identifier": "20a42452-c5d5-48d6-ad8d-5b15f1fcf5c5", "name": "Linie Frauenfeld-Wil", "description": "Im Murgtal zwischen Frauenfeld und Wil ist der rot-weisse Zug der Appenzeller Bahnen unterwegs. Die sch\u00f6nsten Ausgangspunkte zu Wanderungen und Ausfl\u00fcge zum Wiler Turm, dem Waldlehrpfad M\u00fchletobel in Frauenfeld und nat\u00fcrlich dem Murgweg sind mit dem Zug gut erreichbar. \n\nF\u00fcr Zugreisende bietet die Linie Frauenfeld-Wil optimale Anschl\u00fcsse in Frauenfeld Richtung Z\u00fcrich und Romanshorn und in Wil Richtung Z\u00fcrich und St. Gallen. Zu den Hauptverkehrszeiten verkehrt der Zug zwischen W\u00e4ngi und Wil im Viertelstundentakt.", "url": "https://appenzellerbahnen.ch/de/", "image": "https://tgtpimtsoch.sos-ch-dk-2.exoscale-cdn.com/catalog/f/b/5/2/fb52e364234d122be1b064a8a5f5ad980f016ef6_Appenzeller_Bahnen_Linie_Frauenfeld_Wil.jpg", "openstreetmap_id": "node/10004560606"}, "geometry": {"type": "Point", "coordinates": ["9.282066", "47.3927145"]}}, {"type": "Feature", "properties": {"identifier": "5306975d-5d96-43e3-bbc7-525d8e0aae64", "name": "Strandwirtschaft Schl\u00f6ssli", "description": "Die Strandwirtschaft Schl\u00f6ssli liegt direkt neben der Schiffsanlegestelle und bietet damit die perfekte Gelegenheit, dem regen Geschehen auf dem Bodensee zuzusehen. \n\nIn der geselligen Runde geniesst man im Sch\u00f6ssli eine feine Tavolata mit verschiedenen Fisch- und Fleischspezialit\u00e4ten. Auch vegetarische Gerichte und leckere Salatkombinationen stehen auf der Speisekarte. ", "image": "https://tgtpimtsoch.sos-ch-dk-2.exoscale-cdn.com/catalog/5/2/5/f/525f0b625e63bb52c2065de6fd409b02520c8a3b_Hauptbild.jpg", "openstreetmap_id": "node/5030067"}, "geometry": {"type": "Point", "coordinates": ["9.2098597", "47.6440984"]}}, {"type": "Feature", "properties": {"identifier": "6cd21ded-8cc5-46b4-8dd5-31a920915322", "name": "SGR Schweizer Gruppenreisen", "description": "Keine z\u00fcndende Idee f\u00fcr den n\u00e4chsten Abteilungs- oder Betriebsausflug, Team- oder Teambuilding-Event? Keine Zeit, sich um die Organisation des Betriebsausflugs oder der Vereinsreise zu k\u00fcmmern? Wird ein Partner gesucht, der bei der Organisation und bei der kreativen Ideenfindung f\u00fcr die n\u00e4chste Incentive-Reise unterst\u00fctzt? SGR Schweizer Gruppenreisen erarbeitet massgeschneiderte Vorschl\u00e4ge und vermittelt und organisiert Gruppenreisen in der ganzen Schweiz. Speziell in der Ostschweiz ist SGR sehr aktiv und pflegt einen engen Austausch mit weiteren Ostschweizer Destinationen. \n\nKurz und b\u00fcndig: SGR ist der optimal Partner f\u00fcr Gruppenreisen, Teamevents, Incentives und Vereinsausfl\u00fcge. Die Ideen sind individuell, massgeschneidert und einzigartig. Die Planung \u00fcbernehmen kreative und engagierte Profis, sodass der Anlass zum Erfolg wird.", "url": "https://www.schweizergruppenreisen.ch/", "image": "https://tgtpimtsoch.sos-ch-dk-2.exoscale-cdn.com/catalog/6/0/5/8/6058bd14c6874bc67c83f1c1d931d820b41848eb_3c0783aa_069f_4b9e_82d1_c92943ecf17b.jpg", "openstreetmap_id": "node/9604790013"}, "geometry": {"type": "Point", "coordinates": ["9.173995", "47.6499281"]}}, {"type": "Feature", "properties": {"identifier": "6e9b6fdd-62cc-40f8-bef0-30f7b8b08a84", "name": "Lohr Wassersport", "description": "Stand Up Paddling (SUP) bietet ein ausgewogenes Training fu\u0308r den ganzen Ko\u0308rper. Auch wenn du es nur einmal ausprobieren mo\u0308chtest, ist dieser Sport ein Erlebnis. Unabha\u0308ngig von Alter, Ko\u0308nnen und perso\u0308nlichem Fitnesslevel ist SUP fu\u0308r alle Personen geeignet. Lohr Wassersport bietet dazu passende Vermietung, Kurse und gemeinsame SUP-Sessions an.", "url": "http://lohrsport.ch/project/stand-up-paddling/", "image": "https://tgtpimtsoch.sos-ch-dk-2.exoscale-cdn.com/catalog/b/b/e/8/bbe8be60419c508b39e2cc542c03c621bac206ad_hauptbild.png", "openstreetmap_id": "way/212500011"}, "geometry": {"type": "Point", "coordinates": ["9.19804131630271", "47.6471903"]}}, {"type": "Feature", "properties": {"identifier": "b12dc784-f6eb-4a2c-a77b-06704a010313", "name": "Smilestones Miniaturwelt am Rheinfall", "description": "Ob f\u00fcr Erwachsene oder Kinder - die moderne Miniaturwelt Smilestones zeigt einige der bekanntesten Schweizer Destinationen wie das Alpsteingebiet, das Berner Oberland, den Rheinfall und vieles mehr. Die modellierte Landschaft gleicht einem dreidimensionalen Wimmelbild und bietet extrem viele kleine Szenen und witzige Details, die es zu entdecken gibt. Rund 23'000 Minimenschen und 12'000 B\u00e4umchen sind auf 250 Quadratmeter Anlagenfl\u00e4che zu finden. Neben der Eisenbahn und selbstfahrenden Autos beleben die etlichen Aktionskn\u00f6pfe die Miniaturwelt.", "image": "https://tgtpimtsoch.sos-ch-dk-2.exoscale-cdn.com/catalog/4/4/e/b/44eb1a04881901693af55b73a13aaac60c1828f4_PRO_0584.jpg", "openstreetmap_id": "node/6072311591"}, "geometry": {"type": "Point", "coordinates": ["8.6178975", "47.6792455"]}}, {"type": "Feature", "properties": {"identifier": "c119f39a-9bc7-4561-b98a-dd1ac994a4bd", "name": "Seminarland Ostschweiz GmbH", "description": "Die Region \u00abSeminarland Ostschweiz\u00bb erstreckt sich dem Bodensee entlang durch den sch\u00f6nen Kanton Thurgau \u00fcber die urbane Stadt St.Gallen hin zum traditionellen Appenzellerland bis nach Wildhaus im h\u00fcgeligen Toggenburg. Die Region bietet eine Vielfalt an Seminar- und Tagungsm\u00f6glichkeiten.\nBei der Suche nach dem idealen Seminarhotel oder einer modern ausgestatteten Tagungslocation werden Organisatorinnen von Seminaren oder Tagungen bestimmt f\u00fcndig. Der Buchungsservice ist kostenlos: Kunden sparen mit Seminarland Ostschweiz viel Zeit, indem f\u00fcr sie die Verf\u00fcgbarkeiten gepr\u00fcft und Offerten eingeholt werden.\nSeminarland Ostschweiz GmbH arbeitet im Auftrag der Tourismusregionen und ist einzigartig in der Schweiz.", "url": "https://www.seminarland.ch", "image": "https://tgtpimtsoch.sos-ch-dk-2.exoscale-cdn.com/catalog/2/a/8/8/2a8895e2cf2fb48e26844d6b7caec9dbb34d84f4_Seminarland_Shutterstock_Team_Gruppen_3.jpg", "openstreetmap_id": "node/6377781393"}, "geometry": {"type": "Point", "coordinates": ["9.3799292", "47.5644513"]}}, {"type": "Feature", "properties": {"identifier": "d2f4077a-1561-4c6f-967b-4b3f38005619", "name": "Garten-Bungalow in Arbon", "description": "Der neue, freistehende Bungalow liegt in einem ruhigen Einfamilienhaus-Quartier in Arbon. Zum See, zum Einkaufen und in die historische Altstadt sind es nur wenige Gehminuten. Die \u00d6V-Anbindung ist optimal: 700 m zum Bahnhof, 200 m zur n\u00e4chsten Busstation mit direkter Verbindung nach St. Gallen. Wer mit dem Auto kommt, ist mit dem Gratis-Parkplatz gleich neben dem Bungalow gut bedient.\n\nDer helle Bungalow besitzt zwei grosse Fensterfronten gegen Osten und S\u00fcden, welche Transparenz und Weite zum Garten schaffen. Die nat\u00fcrlichen Baumaterialien, Holz aus heimischer Produktion und Natursteinb\u00f6den, tragen zur Wohlf\u00fchl-Atmosph\u00e4re bei. Auf dem grossen Sitzplatz kann man von morgens bis abends die Sonne geniessen. Sonnenschirm und Sonnenliegen sind vorhanden. Das Schlafzimmer ist mit einem Doppelbett (180 x 200) ausgestattet. Vom Bettsofa (140x200) im Wohnzimmer geniesst man einen herrlichen Blick ins Gr\u00fcne.", "image": "https://tgtpimtsoch.sos-ch-dk-2.exoscale-cdn.com/catalog/8/2/b/f/82bf3f1448d42ba54c8e85e58e302d955c635773_P1070749__2.JPG", "openstreetmap_id": "way/259408299"}, "geometry": {"type": "Point", "coordinates": ["9.420200354172895", "47.516425749999996"]}}, {"type": "Feature", "properties": {"identifier": "fc9160de-0dc5-4f06-930d-aea3f239b444", "name": "Testbetrieb", "description": "<p>Das ist ein Test. Das ist ein Test. Das ist ein Test. Das ist ein Test. Das ist ein Test. Das ist ein Test. Das ist ein Test. Das ist ein Test. Das ist ein Test. Das ist ein Test. Das ist ein Test. Das ist ein Test. Das ist ein Test. Das ist ein Test. Das ist ein Test. Das ist ein Test. Das ist ein Test. Das ist ein Test. Das ist ein Test. Das ist ein Test. Das ist ein Test. Das ist ein Test. Das ist ein Test. Das ist ein Test. Das ist ein Test. Das ist ein Test. Das ist ein Test. Das ist ein Test. Das ist ein Test. Das ist ein Test. Das ist ein Test. Das ist ein Test. Das ist ein Test.v Das ist ein Test. Das ist ein Test. Das ist ein Test. Das ist ein Test. Und noch ein Test.</p>", "url": "https://thurgau-bodensee.ch", "image": "https://tgtpimtsoch.sos-ch-dk-2.exoscale-cdn.com/catalog/3/8/a/f/38affe1f933e607a0bdc48c238b8daa3f38a3d50_Bild_Celina_Conrad.jpg", "openstreetmap_id": "node/6377781393"}, "geometry": {"type": "Point", "coordinates": ["9.3799292", "47.5644513"]}}]}