{"type": "FeatureCollection", "features": [{"type": "Feature", "properties": {"identifier": "2543ab4d-3ed9-4886-8381-bdf2eaabb360", "name": "Teamspass mit Fussballgolf", "description": "<p>Auf der ersten Fussballgolf-Anlage der Ostschweiz wird sportlicher Wettbewerb zum gemeinsamen Gruppenerlebnis. Die aus Skandinavien stammende Trendsportart verbindet Elemente aus Fussball und Golf. Der Ball wird mit m&ouml;glichst wenigen Sch&uuml;ssen durch unterschiedliche Hindernisse gespielt und am Ende eingelocht. Das einfache Spielprinzip sorgt f&uuml;r Bewegung und Unterhaltung und bietet auch Teilnehmenden ohne Fussballerfahrung einen unkomplizierten Einstieg. Unterschiedliche Hindernisse bringen Abwechslung in den Parcours und schaffen immer wieder neue Herausforderungen innerhalb der Gruppe. F&uuml;r die Verpflegung ist auf dem Fussballgolfplatz gesorgt.</p><p>Anschliessend l&auml;sst sich das Erlebnis mit einem Besuch der nahegelegenen Kartause Ittingen erg&auml;nzen. So verbindet der Gruppenausflug Aktivit&auml;t, Wettbewerb und gemeinsames Erleben im Thurgau.</p><p><strong>Richtpreis:</strong> ab CHF 55 pro Person<br><strong>Gruppengr&ouml;sse:</strong> 8 bis 200 Personen<br><strong>Dauer: </strong>halber Tagesausflug<br><strong>Ideale Reisezeit:</strong> Mai bis Oktober</p><p>Der Programmvorschlag kann individuell an die W&uuml;nsche der Gruppe angepasst und auf Wunsch mit einer passenden &Uuml;bernachtung erg&auml;nzt werden.</p>", "image": "https://tgtpimtsoch.sos-ch-dk-2.exoscale-cdn.com/catalog/2/7/3/a/273abbc5568e435d28d02d99d9897f426d4f7ec1_small__Muellheim_TKB_Fussballgolf_Hindernis.jpg"}}, {"type": "Feature", "properties": {"identifier": "352a2406-d926-4f52-a8ad-fcfc3acc5f1f", "name": "Geissgada \u2013 Ziegen-Events mit Herz", "description": "<p>Geissgada in Hohentannen im Thurgau erm&ouml;glicht besondere Erlebnisse mit f&uuml;nf charakterstarken Capra-Grigia-Ziegen. Beim Ziegentrekking, Teambuilding, Ziegenbesuch oder bei genussvollen Abenteuern in der Natur entstehen Begegnungen zwischen Mensch und Tier. Die Ziegen geben dabei den Takt an, neugierig, eigenwillig, manchmal frech und immer ganz im Moment.</p><p>Gemeinsam mit den Tieren f&uuml;hrt der Weg durch die Thurgauer Natur, &uuml;ber neue Wege und durch abwechslungsreiche Landschaften. geissgada steht f&uuml;r Verbundenheit, Natur, Genuss und echte Begegnungen abseits von allt&auml;glichen Erlebnissen. Die individuellen Charaktere der Ziegen machen jede Begegnung einzigartig und schaffen Momente, die &uuml;berraschen, ber&uuml;hren und nachhaltig in Erinnerung bleiben. Ein besonderes Erlebnis mit H&ouml;rnern, Naturverbundenheit und einer starken Verbindung zwischen Tier und Mensch.</p>", "url": "https://www.geissgada.com", "image": "https://tgtpimtsoch.sos-ch-dk-2.exoscale-cdn.com/catalog/c/c/8/a/cc8a16fba002c289178a79c94b425d3e306b0e2f_Mimi_080.jpg", "openstreetmap_id": "node/13158504515"}, "geometry": {"type": "Point", "coordinates": ["9.2162145", "47.5350507"]}}, {"type": "Feature", "properties": {"identifier": "6ba5fa49-fcf2-401a-b744-092c7b70f788", "name": "Bogenschiessen einmal anders", "description": "<p>Intuitives Bogenschiessen bietet ein herausforderndes k\u00f6rperliches und mentales Workout, das nicht nur Spass macht, sondern auch hoch motivierend ist. Die eingesetzte Methode f\u00fchrt die Trainingsteilnehmenden von einem einzigartigen Erlebnis direkt zu konkreten Ergebnissen. Dabei werden Achtsamkeit, Konzentrationsf\u00e4higkeit und das Bauchgef\u00fchl trainiert. Diese intensiven Eindr\u00fccke bleiben lange im Ged\u00e4chtnis und sind f\u00fcr Menschen aller Fitnesslevels geeignet. Zudem veranstaltet das Team von My-Coach Privat- und Firmenevents vor Ort, wie zum Beispiel beim Restaurant Seehuus in Egnach, im Zelglihof in Ermatingen oder auf Wunsch auch an einem anderen Ort.</p>", "url": "http://www.my-coach.info", "image": "https://tgtpimtsoch.sos-ch-dk-2.exoscale-cdn.com/catalog/9/0/2/6/9026c886b1641b178c4923a6c184949cb74bac9b_Arbon_My_Coach_Bogenschiessen_1.jpg", "openstreetmap_id": "relation/1684531"}, "geometry": {"type": "Point", "coordinates": ["9.4626537", "47.4946538"]}}, {"type": "Feature", "properties": {"identifier": "94c85c1c-2110-4f0f-9c49-81f315d67b45", "name": "E-Bike-\u00d6pfeltour ", "description": "<p>Die E-Bike-&Ouml;pfeltour startet beim Bahnhof Romanshorn und f&uuml;hrt durch die charakteristische Landschaft des Thurgaus. Auf der Route stehen regionale Spezialit&auml;ten, gelebte Apfelkultur und genussvolle Begegnungen im Mittelpunkt. Ein H&ouml;hepunkt ist der Besuch bei Roland Kauderer in der &Ouml;pfelfarm mit authentischen Einblicken in die Herstellung der bekannten Thurgauer &Ouml;pfelringli. Alternativ vermittelt das MoM&ouml; der Mosterei M&ouml;hl Wissenswertes zur Schweizer Mostkultur und zur Bedeutung des Apfels f&uuml;r die Region.</p><p>Zum kulinarischen Erlebnis geh&ouml;rt ein typisch thurgauisches Mittagessen im historischen Wasserschloss Hagenwil. Die Fahrt mit dem E-Bike verbindet Genuss und Bewegung mit frischer Luft und abwechslungsreichen Landschaftseindr&uuml;cken. Damit vereint die Tour Thurgauer Kulinarik, regionale Geschichte und aktive Erholung zu einem vielseitigen Gruppenerlebnis.</p><p><strong>Richtpreis:</strong> ab CHF 135 pro Person<br><strong>Gruppengr&ouml;sse:</strong> 8 bis 70 Personen<br><strong>Dauer:</strong> ganzer Tag mit Mittagessen<br><strong>Ideale Reisezeit:</strong> ganzj&auml;hrig, besonders reizvoll w&auml;hrend der Apfelbl&uuml;te und im Herbst</p><p>Der Programmvorschlag kann individuell an die W&uuml;nsche der Gruppe angepasst und auf Wunsch mit einer passenden &Uuml;bernachtung erg&auml;nzt werden.</p>", "image": "https://tgtpimtsoch.sos-ch-dk-2.exoscale-cdn.com/catalog/0/7/8/f/078ff6f0054e13b1d282da3fe129d146b0a1ec90_small__Hagenwil_Wasserschloss_Velo_Rallye_1.jpg"}}, {"type": "Feature", "properties": {"identifier": "b45360f7-c0fb-4ba2-8846-440fdbbd8918", "name": "grow vitalfabrik \u2013 Fitness & Sauna ", "description": "<p>Mitten im Thurgau bietet die growvitalfabrik auf 1&rsquo;200\u202fm&sup2; ein vielseitiges Angebot f&uuml;r Gesundheit, Bewegung und Entspannung. Der moderne Gesundheitscampus vereint Fitnessstudio, Therapiezentrum und Wellnessbereich unter einem Dach. Eine Saunalandschaft mit Finnischer Sauna, Dampfbad und Infrarotkabinen sorgt f&uuml;r Erholung &ndash; erg&auml;nzt durch nat&uuml;rliche Anwendungen wie Peelings und Aufg&uuml;sse mit Kr&auml;utern aus dem Thurgau. Ein besonderer Vorteil: Sauna und Trainingsbereiche k&ouml;nnen auch stundenweise genutzt werden &ndash; ideal f&uuml;r Ferieng&auml;ste, die flexibel bleiben m&ouml;chten. Die growvitalfabrik kombiniert moderne Infrastruktur mit pers&ouml;nlicher Atmosph&auml;re und schafft Raum f&uuml;r Bewegung, Regeneration und neue Energie.</p>", "url": "https://growvitalfabrik.ch/", "image": "https://tgtpimtsoch.sos-ch-dk-2.exoscale-cdn.com/catalog/c/f/9/9/cf999b8400b35389cc3c285d4f1e3045f88660ba_Sulgen_grow_vitalfabrik_Finnische_Sauna_Fuerstell__3.jpg", "openstreetmap_id": "way/200358003 "}, "geometry": {"type": "Point", "coordinates": ["9.1742891", "47.5425013"]}}, {"type": "Feature", "properties": {"identifier": "bec993b8-3087-4a70-9b27-ffaad9920436", "name": "Genusstour mit dem Oldtimer ", "description": "<p>Im Mittelpunkt dieser Gruppenreise steht der urspr&uuml;ngliche und l&auml;ndliche Thurgau mit seinen Produzierenden und Spezialit&auml;ten. Der Tag beginnt in Opfershofen bei der Familie B&auml;r. Zwischen Obstb&auml;umen erh&auml;lt die Gruppe Einblicke in den Betrieb und degustiert verschiedene Moste. Ein Mittagessen direkt auf dem Hof rundet den ersten Teil des Genusserlebnisses ab.</p><p>Anschliessend f&uuml;hrt die Reise zu Barbara Meijerink, die ihre bekannten M&uuml;rbel (Milchcaramel) von Hand herstellt. Die Weiterfahrt im Saurer Oldtimerbus macht bereits den Weg zum besonderen Erlebnis. Den Abschluss bildet ein Besuch bei der Familie Huber. Im Weingut trifft moderne Weinkultur auf gem&uuml;tliche Atmosph&auml;re, begleitet von einem Ap&eacute;ro mit Thurgauer Wein. So verbindet die Tour regionale Handwerkskunst, Kulinarik und nostalgisches Reisegef&uuml;hl.</p><p><strong>Richtpreis:</strong> ab CHF 115 pro Person<br><strong>Gruppengr&ouml;sse:</strong> 10 bis 25 Personen<br><strong>Dauer:</strong> ganzer Tag mit Mittagessen<br><strong>Ideale Reisezeit:</strong> Mai bis Oktober</p><p>Der Programmvorschlag kann individuell an die W&uuml;nsche der Gruppe angepasst und auf Wunsch mit einer passenden &Uuml;bernachtung erg&auml;nzt werden.</p>", "image": "https://tgtpimtsoch.sos-ch-dk-2.exoscale-cdn.com/catalog/8/0/7/6/8076592171a4921b6aa0215e22e86155820048b8_small__Arbon_Saurer_Museum_Postauto.jpg"}}, {"type": "Feature", "properties": {"identifier": "d806450f-4c70-4657-bb7e-c97d1122d7eb", "name": "ZebrastreifenEvents", "description": "<p>Erlebnisp\u00e4dagogik am Bodensee bei ZebrastreifenEvents: Die Teilnehmenden erleben einen abwechslungsreichen und spannenden Tag. Die Angebote sind vielf\u00e4ltig:<br><br>Flossbau: Am Ufer des Bodensees im Thurgau werden gemeinsam Fl\u00f6sse gebaut. Nach der strategischen und kreativen Bauphase geht es gemeisam aufs Wasser. Dabei bringt dieser Tag jede Menge Spass. <br><br>Walderlebnistag, Survival in der Wildnis: Die Teilnehmenden bauen einen Unterschlupf und lernen im Feuerworkshop verschiedene Feuertechniken kennen. Mittags kann an der Grillstelle grilliert werden.<br><br>Teamtag mal anders: Draussen in der Natur werden gemeinsam verschiedene Herausforderungen gemeistert. Individuelle W\u00fcnsche werden ber\u00fccksichtigt. Der Veranstaltungsort kann abgesprochen werden.<br></p>", "url": "https://www.zebrastreifen.events", "image": "https://tgtpimtsoch.sos-ch-dk-2.exoscale-cdn.com/catalog/f/9/9/7/f9974a8b2dfefcf6ad52ab0e68b58f4453532905_20220504_161339.jpg", "openstreetmap_id": "node/6377781393"}, "geometry": {"type": "Point", "coordinates": ["9.3799292", "47.5644513"]}}, {"type": "Feature", "properties": {"identifier": "f7116701-4d0b-480d-978b-b502a51949ad", "name": "Arenenberg und Untersee", "description": "<p>Der Gruppenausflug beginnt in Kreuzlingen mit einer Schifffahrt auf dem Untersee. Bereits die Anreise auf dem Wasser wird zum gemeinsamen Erlebnis. Ein Begr&uuml;ssungskaffee an Bord begleitet die Fahrt nach Mannenbach. Von dort f&uuml;hrt ein kurzer Spaziergang zum Napoleon Museum Arenenberg.</p><p>Am Arenenberg stehen unterschiedliche Schwerpunkte zur Auswahl. Eine F&uuml;hrung durch das Napoleon Museum vermittelt Geschichte und Kultur, eine Weinbergwanderung r&uuml;ckt Genuss und Landschaft in den Mittelpunkt, ein Rundgang durch die Arenenberg-G&auml;rten zeigt die besondere Umgebung des historischen Ortes. Anschliessend f&uuml;hrt die Schifffahrt (mit der Schweizerischen Schifffahrtsgesellschaft Untersee und Rhein (URh)) zur&uuml;ck nach Kreuzlingen oder weiter nach Stein am Rhein. Die Kombination aus Schifffahrt und frei w&auml;hlbarem Erlebnis am Arenenberg macht den Ausflug besonders vielseitig und eignet sich auch f&uuml;r gr&ouml;ssere Gruppen.</p><p><strong>Gruppengr&ouml;sse:</strong> 10 bis 120 Personen<br><strong>Dauer:</strong> Tagesausflug<br><strong>Ideale Reisezeit:</strong> April bis Oktober</p><p>Der Programmvorschlag kann individuell an die W&uuml;nsche der Gruppe angepasst und auf Wunsch mit einer passenden &Uuml;bernachtung erg&auml;nzt werden.</p>", "image": "https://tgtpimtsoch.sos-ch-dk-2.exoscale-cdn.com/catalog/3/5/0/8/350882c0f1de2d3969b854d2a3bd2c70f46fc439_small__Untersee_URh.jpg"}}]}