{"type": "FeatureCollection", "features": [{"type": "Feature", "properties": {"identifier": "0cb76187-ff23-42df-bc17-fffaced619c1", "name": "Family-Trail mit Ente Erma", "description": "<p>Der Family-Trail &laquo;Geheimnisvolles Abenteuer mit Ente Erma&raquo; in Ermatingen verbindet Spaziergang, Geschichte und R&auml;tselspass auf einer familienfreundlichen Route von etwa 2 Kilometern (ca. 1 Stunde). Die digital abrufbare Tour startet beim Stedi Hafen Ermatingen, wo &uuml;ber QR-Code Zugang zu den Aufgaben und der Audiof&uuml;hrung erfolgt. An zehn Stationen begleiten Teilnehmende die Ente Erma auf einer Entdeckungsreise und lernen dabei Wissenswertes &uuml;ber Ermatingen und seine Geschichten. Durch das L&ouml;sen von verschiedenen Aufgaben entsteht am Schluss ein kombiniertes L&ouml;sungswort, das gegen eine kleine Belohnung eingel&ouml;st werden kann, etwa in der Badi oder im Rathaus von Ermatingen. Der Trail ist lehrreich und abwechslungsreich, eignet sich f&uuml;r Familien und bietet zugleich einen Einblick in die lokale Kultur- und Ortsgeschichte.</p>", "url": "https://app.smartrails.ch/ermatingen/family-trail", "image": "https://tgtpimtsoch.sos-ch-dk-2.exoscale-cdn.com/catalog/b/b/4/1/bb41f26759b7467d2573ac080555cc7b4cc0b756_Ermatingen_Tante_Erma_Posten9.jpg", "openstreetmap_id": "way/737538913"}, "geometry": {"type": "Point", "coordinates": ["9.084067940711977", "47.66979472719453"]}}, {"type": "Feature", "properties": {"identifier": "20a42452-c5d5-48d6-ad8d-5b15f1fcf5c5", "name": "Linie Frauenfeld-Wil", "description": "Im Murgtal zwischen Frauenfeld und Wil ist der rot-weisse Zug der Appenzeller Bahnen unterwegs. Die sch\u00f6nsten Ausgangspunkte zu Wanderungen und Ausfl\u00fcge zum Wiler Turm, dem Waldlehrpfad M\u00fchletobel in Frauenfeld und nat\u00fcrlich dem Murgweg sind mit dem Zug gut erreichbar. \n\nF\u00fcr Zugreisende bietet die Linie Frauenfeld-Wil optimale Anschl\u00fcsse in Frauenfeld Richtung Z\u00fcrich und Romanshorn und in Wil Richtung Z\u00fcrich und St. Gallen. Zu den Hauptverkehrszeiten verkehrt der Zug zwischen W\u00e4ngi und Wil im Viertelstundentakt.", "url": "https://appenzellerbahnen.ch/de/", "image": "https://tgtpimtsoch.sos-ch-dk-2.exoscale-cdn.com/catalog/f/b/5/2/fb52e364234d122be1b064a8a5f5ad980f016ef6_Appenzeller_Bahnen_Linie_Frauenfeld_Wil.jpg", "openstreetmap_id": "node/10004560606"}, "geometry": {"type": "Point", "coordinates": ["9.282066", "47.3927145"]}}, {"type": "Feature", "properties": {"identifier": "6cd21ded-8cc5-46b4-8dd5-31a920915322", "name": "SGR Schweizer Gruppenreisen", "description": "Keine z\u00fcndende Idee f\u00fcr den n\u00e4chsten Abteilungs- oder Betriebsausflug, Team- oder Teambuilding-Event? Keine Zeit, sich um die Organisation des Betriebsausflugs oder der Vereinsreise zu k\u00fcmmern? Wird ein Partner gesucht, der bei der Organisation und bei der kreativen Ideenfindung f\u00fcr die n\u00e4chste Incentive-Reise unterst\u00fctzt? SGR Schweizer Gruppenreisen erarbeitet massgeschneiderte Vorschl\u00e4ge und vermittelt und organisiert Gruppenreisen in der ganzen Schweiz. Speziell in der Ostschweiz ist SGR sehr aktiv und pflegt einen engen Austausch mit weiteren Ostschweizer Destinationen. \n\nKurz und b\u00fcndig: SGR ist der optimal Partner f\u00fcr Gruppenreisen, Teamevents, Incentives und Vereinsausfl\u00fcge. Die Ideen sind individuell, massgeschneidert und einzigartig. Die Planung \u00fcbernehmen kreative und engagierte Profis, sodass der Anlass zum Erfolg wird.", "url": "https://www.schweizergruppenreisen.ch/", "image": "https://tgtpimtsoch.sos-ch-dk-2.exoscale-cdn.com/catalog/6/0/5/8/6058bd14c6874bc67c83f1c1d931d820b41848eb_3c0783aa_069f_4b9e_82d1_c92943ecf17b.jpg", "openstreetmap_id": "node/9604790013"}, "geometry": {"type": "Point", "coordinates": ["9.173995", "47.6499281"]}}, {"type": "Feature", "properties": {"identifier": "a4d8e68c-beeb-4ba2-8f74-e85d50dbf501", "name": "Bireweg Egnach", "description": "Das beschauliche Dorf Egnach am Bodensee ist einer der Thurgauer Hotspots der Beeren- und Obstproduktion. Dem \u00d6rtchen, mit seinen vielen Weilern und den unz\u00e4hligen hier wachsenden Fr\u00fcchten, sind vier Wanderwege gewidmet; die Egnacher Perlen. Einer davon ist der \u00abBireweg\u00bb. \u00dcber knapp acht Kilometer f\u00fchrt er von der ehemaligen Mosterei Egnach durch grosse Obstanlagen und Hochstammg\u00e4rten hinauf zum Bahnhof Winden. Der Bireweg ist mit digitalem F\u00fchrer \u00fcber die App \u00abCubeTrail\u00bb entlang von zehn Wegposten begehbar. Geschichtliche Hintergr\u00fcnde zum Dorf und dem Obstbau sowie die touristisch wertvollsten Punkte werden erl\u00e4utert. Ausblicke auf saftige Wiesen, idyllische Bauernh\u00f6fe, schmucke Riegelh\u00e4user und den blau glitzernden Bodensees erfreuen das Wanderherz. \n\nDer Trail ist t\u00e4glich und jederzeit zug\u00e4nglich. Das App \u00abCubeTrail\u00bb ist kostenlos im App Store von Apple und Android erh\u00e4ltlich. ", "image": "https://tgtpimtsoch.sos-ch-dk-2.exoscale-cdn.com/catalog/2/6/b/2/26b262905d2a5d5dac353914749f990b9c0f9ba1_Photokleinformat_3_2_Egnach_Bluescht_Shooting_20.jpg", "openstreetmap_id": "way/975466764"}, "geometry": {"type": "Point", "coordinates": ["9.3812712", "47.5444969"]}}, {"type": "Feature", "properties": {"identifier": "ae9fe8f6-c16f-4222-946c-713b87f14436", "name": "Arboris R\u00e4tselweg", "description": "<p>Auf dem interaktiven R&auml;tselweg l&auml;dt Arbori Familien dazu ein, Arbon auf spielerische Weise zu entdecken. Die Route verl&auml;uft durch die Altstadt bis ans Bodenseeufer und verbindet bekannte Orte wie den Hafen, den Fischmarktplatz, das Schloss und die Seepromenade miteinander.<br data-start=\"669\" data-end=\"672\">An neun abwechslungsreichen R&auml;tselposten werden mit Hilfe eines R&auml;tselhefts Aufgaben gel&ouml;st und dabei spannende Pl&auml;tze sowie weniger bekannte Ecken der Stadt entdeckt. Die Strecke ist rund 1,33 Kilometer lang, dauert etwa 1 bis 1,5 Stunden und eignet sich f&uuml;r Kinderwagen sowie f&uuml;r Rollstuhlfahrende.</p>", "url": "https://www.arbori-erlebnis.ch/raetselweg", "image": "https://tgtpimtsoch.sos-ch-dk-2.exoscale-cdn.com/catalog/0/3/8/b/038ba58203bd943ee27bda415098a8d34fd1c717_Arbon_Arborisweg_Fliegen.jpg", "openstreetmap_id": "way/258546236"}, "geometry": {"type": "Point", "coordinates": ["9.4380561", "47.5137579"]}}, {"type": "Feature", "properties": {"identifier": "cbc9b3a1-5cae-47d7-a17b-b468671509e8", "name": "History-Trail Ermatingen", "description": "<p>Der History-Trail in Ermatingen bietet einen digitalen Erlebnis und Lernweg durch die Geschichte des Ortes. Auf der rund 4,5 Kilometer langen Route, die sich in etwa 1 Stunde 30 Minuten bew&auml;ltigen l&auml;sst, werden Teilnehmende mit Hilfe eines Smartphones zu 35 verschiedenen historischen Punkten gef&uuml;hrt. Begleitet wird der Weg von der Figur &laquo;Professor Erfmuotinger&raquo;, die durch die verschiedenen Stationen f&uuml;hrt und historische Hintergr&uuml;nde auf unterhaltsame Weise vermittelt. Die Tour ist interaktiv gestaltet und verbindet Wissensvermittlung mit spielerischen Elementen und R&auml;tseln, die das Verst&auml;ndnis f&uuml;r die lokale Vergangenheit f&ouml;rdern. Ermatingen z&auml;hlt zu den &auml;ltesten Siedlungen am Bodensee und blickt auf eine bewegte Geschichte zur&uuml;ck, die der Trail auf anschauliche Weise erlebbar macht.</p>", "url": "https://smartrails.ch/trails/ermatingen/history-trail", "image": "https://tgtpimtsoch.sos-ch-dk-2.exoscale-cdn.com/catalog/f/6/6/c/f66c06827b3987289656397b0d2ed8a09e3168a6_medium__Ermatingen_Vinorama_Seitenansicht.jpg", "openstreetmap_id": "relation/1684517"}, "geometry": {"type": "Point", "coordinates": ["9.0798991", "47.6693246"]}}, {"type": "Feature", "properties": {"identifier": "dcf55ebf-9b18-49ff-8426-bc6945af393a", "name": "Die Piratenschule am Bodensee", "description": "<p>Die Piratenschule am Bodensee ist ein interaktives Familienabenteuer entlang des Schweizer Bodenseeufer. An verschiedenen Piratenposten warten knifflige R&auml;tsel- und Erlebnisstationen, die individuell und unabh&auml;ngig voneinander entdeckt werden k&ouml;nnen. Begleitet wird das Abenteuer von einer Web-App mit Augmented Reality: Es k&ouml;nnen digitale Piratenfiguren, Sch&auml;tze und M&uuml;nzen gesammelt werden. Die interaktive Schatzkarte mit den Piratenposten verbinden Spiel, Bewegung und R&auml;tsellust mit attraktiven Ausflugszielen am Bodensee.</p>", "url": "https://thurgau-bodensee.ch/piratenschule.html", "image": "https://tgtpimtsoch.sos-ch-dk-2.exoscale-cdn.com/catalog/b/d/d/9/bdd982d4b5998cbe299a7146e0e13269c0bf67a6_Piratenschule_mit_Totenkopf_Design.png", "openstreetmap_id": "way/122917971"}, "geometry": {"type": "Point", "coordinates": ["9.1809374", "47.6513643"]}}, {"type": "Feature", "properties": {"identifier": "dea5ecbf-349c-4afe-812b-c90643a6afc4", "name": "TopTrail Tannzapfenland", "description": "<p>Die Mountainbike-Infrastruktur richtet sich an alle Alters- und K&ouml;nnerstufen, wobei bei Planung und Umsetzung besonders auf die Bed&uuml;rfnisse von Kindern und Jugendlichen geachtet wurde. Drei ausgeschilderte Loops k&ouml;nnen einzeln als Rundkurs gefahren oder beliebig kombiniert und wiederholt werden. Die aus dem Skisport bekannten Farbcodes informieren &uuml;ber den jeweiligen Schwierigkeitsgrad der Streckenabschnitte.</p><p>Der Nord-Loop begeistert insbesondere mit seinen zahlreichen Sprungm&ouml;glichkeiten. Gleichzeitig bietet er auch eine alternative Linie, auf der Wellen und H&uuml;gel spielerisch &uuml;berrollt werden k&ouml;nnen, ohne den Bodenkontakt zu verlieren. Ein Angebot, das besonders bei j&uuml;ngeren Kindern sehr beliebt ist.</p><p>Die Uphill- und Downhill-Passagen in unterschiedlichen Schwierigkeitsgraden lassen sich flexibel kombinieren. Technische und flowige Abschnitte, Elemente aus Stein und Holz sowie naturbelassener Waldboden sorgen f&uuml;r viel Abwechslung und f&ouml;rdern gleichzeitig die Fahrtechnik auf zwei R&auml;dern.</p><p>Der TopTrail Tannzapfenland ist ein neuer, spassiger und flowiger Mountainbike-Trail, der Adrenalin bietet und Mountainbike-Fans im Kanton Thurgau ein einzigartiges Erlebnis garantiert.</p>", "url": "https://toptrail-tannzapfenland.ch/", "image": "https://tgtpimtsoch.sos-ch-dk-2.exoscale-cdn.com/catalog/b/d/2/2/bd22f485dc60bfc915ac050f3e1e34f9c24fe64f_Tanzapfenland_Toptrail_1.jpg", "openstreetmap_id": "way/38661657"}, "geometry": {"type": "Point", "coordinates": ["8.9713624", "47.4184369"]}}, {"type": "Feature", "properties": {"identifier": "e8824e46-6eab-402a-b671-cc5286dc81ba", "name": "Arbor Felix Pfad", "description": "<p>Entlang des Weges begegnen Besucherinnen und Besucher immer wieder dem neugierigen Seeadler Arbori. Die Figur wurde urspr&uuml;nglich von der Arboner K&uuml;nstlerin Heidi Weh gezeichnet, deren Illustrationen den Pfad begleiten. Informationstafeln entlang der Strecke erz&auml;hlen aus verschiedenen Epochen der Arboner Vergangenheit &ndash; von der wirtschaftlich schwierigen Zeit nach dem Ersten Weltkrieg &uuml;ber die Industrialisierung bis zur Er&ouml;ffnung des Strandbads.</p>", "url": "https://www.arbori-erlebnis.ch/arborfelixpfad", "image": "https://tgtpimtsoch.sos-ch-dk-2.exoscale-cdn.com/catalog/d/e/6/8/de68d4bf0a6a6efaa1e8d0165a9c0e60b0e270c0_small__Arbon_Hafen_Promenade_11.jpg", "openstreetmap_id": "node/4290779766"}, "geometry": {"type": "Point", "coordinates": ["9.4366861", "47.5129391"]}}, {"type": "Feature", "properties": {"identifier": "edc25514-b50f-4441-9f5c-acbc2083842d", "name": "PADL-Trail Arbon", "description": "<p>Der PADL-Trail Arbon bietet eine einzigartige Kombination aus Wassersport, R\u00e4tsell\u00f6sen und Entdeckerfreude. Die Route startet beim Strandbad Buchhorn und f\u00fchrt per SUP oder Kajak entlang des Seeufers in Richtung Altstadt. Unterwegs gilt es, knifflige Aufgaben zu meistern und versteckte Hinweise sowohl auf dem Wasser als auch in der historischen Altstadt von Arbon zu entdecken.</p><p>Der PADL-Trail ist ideal f\u00fcr alle, die gerne kombinieren, t\u00fcfteln und neue Perspektiven auf die Stadt und den Bodensee erleben m\u00f6chten. Die Teilnahme ist ab 16 Jahren m\u00f6glich, Kinder d\u00fcrfen nur in Begleitung von Erwachsenen mitmachen.</p>", "url": "https://www.arbon.ch/freizeit/kultur-sport-und-spiel/baeder/strandbad.html/71", "image": "https://tgtpimtsoch.sos-ch-dk-2.exoscale-cdn.com/catalog/b/b/f/d/bbfd0ca518d06991d07e7365443ee974878c001c_Arbon_Horn_Bodensee_SUP_4.jpg", "openstreetmap_id": "node/7779508713"}, "geometry": {"type": "Point", "coordinates": ["9.418973", "47.5263399"]}}]}